{"type":"FeatureCollection","features":[{"type":"Feature","properties":{"rgi_id":"RGI2000-v7.0-G-13-59922","o1region":"13"},"geometry":{"type":"Polygon","coordinates":[[[82.997921,34.410656,0.0],[82.99689,34.411323,0.0],[82.996386,34.41209,0.0],[82.996798,34.41295,0.0],[82.996586,34.415012,0.0],[82.998093,34.417913,0.0],[82.999044,34.419415,0.0],[83.000121,34.420698,0.0],[83.001187,34.421547,0.0],[83.001943,34.420343,0.0],[83.002456,34.419901,0.0],[83.002566,34.419032,0.0],[83.003183,34.417505,0.0],[83.00402,34.414241,0.0],[83.003736,34.41327,0.0],[83.003056,34.412197,0.0],[83.002646,34.411446,0.0],[83.001431,34.40984,0.0],[83.000952,34.409306,0.0],[83.000765,34.409309,0.0],[83.000373,34.409316,0.0],[83.000329,34.409316,0.0],[82.999981,34.409322,0.0],[82.999589,34.409329,0.0],[82.999197,34.409335,0.0],[82.99894,34.409556,0.0],[82.998687,34.409885,0.0],[82.998433,34.410214,0.0],[82.998249,34.410454,0.0],[82.997921,34.410656,0.0]]]}}]}
