{"type":"FeatureCollection","features":[{"type":"Feature","properties":{"rgi_id":"RGI2000-v7.0-G-17-17566","o1region":"17"},"geometry":{"type":"Polygon","coordinates":[[[-73.050898,-44.973013,0.0],[-73.051137,-44.973005,0.0],[-73.051271,-44.972937,0.0],[-73.05126,-44.972774,0.0],[-73.051314,-44.972553,0.0],[-73.051283,-44.972399,0.0],[-73.05111,-44.972341,0.0],[-73.050792,-44.972353,0.0],[-73.05052,-44.972313,0.0],[-73.050443,-44.97221,0.0],[-73.050282,-44.97218,0.0],[-73.050031,-44.972154,0.0],[-73.049593,-44.972162,0.0],[-73.049582,-44.97229,0.0],[-73.049595,-44.972473,0.0],[-73.049655,-44.972747,0.0],[-73.049715,-44.9729,0.0],[-73.049871,-44.972986,0.0],[-73.050268,-44.972979,0.0],[-73.050528,-44.972984,0.0],[-73.050898,-44.973013,0.0]]]}},{"type":"Feature","properties":{"rgi_id":"RGI2000-v7.0-G-17-17567","o1region":"17"},"geometry":{"type":"Polygon","coordinates":[[[-73.051105,-44.97114,0.0],[-73.05126,-44.971219,0.0],[-73.05132,-44.971365,0.0],[-73.051436,-44.97146,0.0],[-73.051585,-44.971589,0.0],[-73.051635,-44.971736,0.0],[-73.051709,-44.971804,0.0],[-73.05196,-44.971823,0.0],[-73.052251,-44.971863,0.0],[-73.05251,-44.971853,0.0],[-73.052728,-44.971846,0.0],[-73.052803,-44.971772,0.0],[-73.05286,-44.971601,0.0],[-73.05285,-44.971452,0.0],[-73.052837,-44.971269,0.0],[-73.05297,-44.97118,0.0],[-73.053186,-44.971271,0.0],[-73.053193,-44.971377,0.0],[-73.053222,-44.971503,0.0],[-73.053362,-44.97166,0.0],[-73.053281,-44.971769,0.0],[-73.053268,-44.971876,0.0],[-73.053227,-44.971998,0.0],[-73.053234,-44.972096,0.0],[-73.053331,-44.972206,0.0],[-73.053507,-44.972299,0.0],[-73.053673,-44.972385,0.0],[-73.053902,-44.972391,0.0],[-73.054094,-44.972433,0.0],[-73.054353,-44.972424,0.0],[-73.05473,-44.972411,0.0],[-73.055059,-44.97242,0.0],[-73.055387,-44.972401,0.0],[-73.055625,-44.972393,0.0],[-73.055759,-44.97231,0.0],[-73.055944,-44.97212,0.0],[-73.056038,-44.972032,0.0],[-73.056143,-44.971972,0.0],[-73.056269,-44.971918,0.0],[-73.056339,-44.971781,0.0],[-73.056453,-44.971706,0.0],[-73.05665,-44.971678,0.0],[-73.056737,-44.971781,0.0],[-73.056774,-44.971886,0.0],[-73.05686,-44.971967,0.0],[-73.056974,-44.972027,0.0],[-73.057117,-44.972085,0.0],[-73.057383,-44.972041,0.0],[-73.057423,-44.971898,0.0],[-73.057421,-44.971735,0.0],[-73.057508,-44.971548,0.0],[-73.057776,-44.971539,0.0],[-73.058066,-44.971557,0.0],[-73.058335,-44.971554,0.0],[-73.058556,-44.971582,0.0],[-73.058773,-44.97156,0.0],[-73.058942,-44.971554,0.0],[-73.058972,-44.971411,0.0],[-73.058956,-44.971193,0.0],[-73.058934,-44.97101,0.0],[-73.058822,-44.970844,0.0],[-73.058684,-44.970722,0.0],[-73.05849,-44.970658,0.0],[-73.058359,-44.970486,0.0],[-73.058128,-44.970466,0.0],[-73.057701,-44.970481,0.0],[-73.057304,-44.970495,0.0],[-73.057097,-44.970531,0.0],[-73.056918,-44.970537,0.0],[-73.056752,-44.970578,0.0],[-73.056691,-44.970708,0.0],[-73.056655,-44.9709,0.0],[-73.056571,-44.970981,0.0],[-73.056318,-44.971068,0.0],[-73.05614,-44.971215,0.0],[-73.055563,-44.971236,0.0],[-73.055324,-44.97123,0.0],[-73.054976,-44.971243,0.0],[-73.05484,-44.97129,0.0],[-73.054847,-44.971381,0.0],[-73.054856,-44.971515,0.0],[-73.054881,-44.971734,0.0],[-73.05475,-44.971851,0.0],[-73.054531,-44.971845,0.0],[-73.054431,-44.9717,0.0],[-73.054343,-44.971442,0.0],[-73.05412,-44.971386,0.0],[-73.053903,-44.971139,0.0],[-73.053693,-44.970977,0.0],[-73.053459,-44.970915,0.0],[-73.053019,-44.970881,0.0],[-73.052632,-44.970902,0.0],[-73.052413,-44.971051,0.0],[-73.052279,-44.971119,0.0],[-73.052156,-44.970933,0.0],[-73.052178,-44.970819,0.0],[-73.052348,-44.970686,0.0],[-73.052227,-44.970527,0.0],[-73.051942,-44.970438,0.0],[-73.051631,-44.970414,0.0],[-73.051222,-44.9704,0.0],[-73.050876,-44.970441,0.0],[-73.050641,-44.97064,0.0],[-73.050526,-44.970842,0.0],[-73.050529,-44.971026,0.0],[-73.050694,-44.971105,0.0],[-73.050886,-44.971148,0.0],[-73.051105,-44.97114,0.0]]]}},{"type":"Feature","properties":{"rgi_id":"RGI2000-v7.0-G-17-17568","o1region":"17"},"geometry":{"type":"Polygon","coordinates":[[[-73.056857,-44.966458,0.0],[-73.056961,-44.966743,0.0],[-73.056835,-44.966747,0.0],[-73.056737,-44.966751,0.0],[-73.056541,-44.966758,0.0],[-73.056499,-44.966759,0.0],[-73.05651,-44.966908,0.0],[-73.056677,-44.967092,0.0],[-73.056924,-44.967212,0.0],[-73.057126,-44.967285,0.0],[-73.057341,-44.967347,0.0],[-73.057406,-44.967474,0.0],[-73.057212,-44.967521,0.0],[-73.05703,-44.967527,0.0],[-73.056807,-44.967535,0.0],[-73.05659,-44.967453,0.0],[-73.056456,-44.967339,0.0],[-73.056312,-44.967284,0.0],[-73.056155,-44.96725,0.0],[-73.056132,-44.967131,0.0],[-73.056122,-44.966982,0.0],[-73.056141,-44.966862,0.0],[-73.056205,-44.96677,0.0],[-73.056209,-44.966739,0.0],[-73.056104,-44.966724,0.0],[-73.055908,-44.96674,0.0],[-73.055759,-44.966816,0.0],[-73.055664,-44.967058,0.0],[-73.055695,-44.967296,0.0],[-73.055829,-44.967411,0.0],[-73.056018,-44.967504,0.0],[-73.056101,-44.96768,0.0],[-73.056045,-44.967881,0.0],[-73.05593,-44.968035,0.0],[-73.055834,-44.968078,0.0],[-73.05571,-44.968112,0.0],[-73.055608,-44.968246,0.0],[-73.055542,-44.968507,0.0],[-73.055606,-44.968814,0.0],[-73.055636,-44.969042,0.0],[-73.055761,-44.969226,0.0],[-73.056191,-44.969351,0.0],[-73.056527,-44.969339,0.0],[-73.056876,-44.969316,0.0],[-73.05705,-44.969191,0.0],[-73.057092,-44.96899,0.0],[-73.057125,-44.968859,0.0],[-73.057315,-44.968773,0.0],[-73.057576,-44.968694,0.0],[-73.05778,-44.968607,0.0],[-73.05799,-44.968599,0.0],[-73.05824,-44.96856,0.0],[-73.058473,-44.968482,0.0],[-73.058552,-44.96841,0.0],[-73.058646,-44.968347,0.0],[-73.058734,-44.968204,0.0],[-73.059014,-44.968184,0.0],[-73.0591,-44.968012,0.0],[-73.059159,-44.96786,0.0],[-73.059286,-44.967676,0.0],[-73.059226,-44.967419,0.0],[-73.058946,-44.96723,0.0],[-73.058638,-44.967042,0.0],[-73.058376,-44.966912,0.0],[-73.058273,-44.966836,0.0],[-73.058042,-44.966754,0.0],[-73.057662,-44.966738,0.0],[-73.05741,-44.966548,0.0],[-73.057179,-44.966446,0.0],[-73.056857,-44.966458,0.0]]]}},{"type":"Feature","properties":{"rgi_id":"RGI2000-v7.0-G-17-19952","o1region":"17"},"geometry":{"type":"Polygon","coordinates":[[[-73.063804,-44.705683,0.0],[-73.06382,-44.705677,0.0],[-73.063988,-44.705835,0.0],[-73.064003,-44.706042,0.0],[-73.063908,-44.706253,0.0],[-73.063653,-44.706418,0.0],[-73.063564,-44.706534,0.0],[-73.063423,-44.706764,0.0],[-73.063421,-44.70692,0.0],[-73.063464,-44.707013,0.0],[-73.063535,-44.707158,0.0],[-73.063616,-44.707276,0.0],[-73.063627,-44.707431,0.0],[-73.063748,-44.7076,0.0],[-73.0641,-44.707605,0.0],[-73.064285,-44.707642,0.0],[-73.064434,-44.707688,0.0],[-73.064569,-44.707891,0.0],[-73.064643,-44.708079,0.0],[-73.064721,-44.708318,0.0],[-73.064857,-44.708434,0.0],[-73.065057,-44.708433,0.0],[-73.065393,-44.708421,0.0],[-73.065767,-44.708434,0.0],[-73.066122,-44.708434,0.0],[-73.06637,-44.708471,0.0],[-73.066461,-44.708597,0.0],[-73.066515,-44.708848,0.0],[-73.066528,-44.70903,0.0],[-73.066665,-44.709168,0.0],[-73.066799,-44.709137,0.0],[-73.067025,-44.708979,0.0],[-73.06725,-44.708822,0.0],[-73.067542,-44.708695,0.0],[-73.067749,-44.708675,0.0],[-73.067925,-44.708714,0.0],[-73.068059,-44.708813,0.0],[-73.068216,-44.708969,0.0],[-73.06833,-44.709167,0.0],[-73.068482,-44.709258,0.0],[-73.068812,-44.709286,0.0],[-73.069043,-44.709336,0.0],[-73.069143,-44.709469,0.0],[-73.069172,-44.709623,0.0],[-73.069178,-44.709844,0.0],[-73.069129,-44.710047,0.0],[-73.069204,-44.710213,0.0],[-73.069277,-44.710476,0.0],[-73.06946,-44.710612,0.0],[-73.069565,-44.710816,0.0],[-73.069677,-44.710987,0.0],[-73.069816,-44.711145,0.0],[-73.069938,-44.711205,0.0],[-73.070263,-44.711161,0.0],[-73.070362,-44.711021,0.0],[-73.070452,-44.710869,0.0],[-73.070532,-44.710723,0.0],[-73.070615,-44.71035,0.0],[-73.070639,-44.710045,0.0],[-73.070747,-44.709502,0.0],[-73.070703,-44.70901,0.0],[-73.070749,-44.708496,0.0],[-73.07072,-44.708088,0.0],[-73.070694,-44.707925,0.0],[-73.070571,-44.707791,0.0],[-73.070559,-44.707619,0.0],[-73.070591,-44.707375,0.0],[-73.070705,-44.707164,0.0],[-73.070687,-44.70691,0.0],[-73.070649,-44.7066,0.0],[-73.07037,-44.70631,0.0],[-73.07003,-44.706311,0.0],[-73.06983,-44.706456,0.0],[-73.069689,-44.70675,0.0],[-73.069682,-44.706877,0.0],[-73.069572,-44.707158,0.0],[-73.069358,-44.707327,0.0],[-73.069107,-44.70744,0.0],[-73.068641,-44.707491,0.0],[-73.068464,-44.707497,0.0],[-73.068196,-44.70738,0.0],[-73.06836,-44.707178,0.0],[-73.068702,-44.70697,0.0],[-73.068928,-44.706742,0.0],[-73.069253,-44.706535,0.0],[-73.069561,-44.706304,0.0],[-73.069737,-44.706044,0.0],[-73.069826,-44.705707,0.0],[-73.069823,-44.70543,0.0],[-73.069566,-44.70522,0.0],[-73.069059,-44.705146,0.0],[-73.068567,-44.705048,0.0],[-73.068357,-44.705055,0.0],[-73.068026,-44.704952,0.0],[-73.067725,-44.704812,0.0],[-73.067358,-44.704653,0.0],[-73.067041,-44.704514,0.0],[-73.066666,-44.704239,0.0],[-73.066286,-44.704125,0.0],[-73.065753,-44.704144,0.0],[-73.065301,-44.704161,0.0],[-73.064925,-44.704105,0.0],[-73.06472,-44.703951,0.0],[-73.064704,-44.70391,0.0],[-73.064471,-44.703919,0.0],[-73.06438,-44.703918,0.0],[-73.064282,-44.704169,0.0],[-73.064213,-44.704499,0.0],[-73.064145,-44.704829,0.0],[-73.063806,-44.705234,0.0],[-73.063833,-44.705626,0.0],[-73.063804,-44.705683,0.0]]]}},{"type":"Feature","properties":{"rgi_id":"RGI2000-v7.0-G-17-19953","o1region":"17"},"geometry":{"type":"Polygon","coordinates":[[[-73.072801,-44.697449,0.0],[-73.072678,-44.697508,0.0],[-73.071946,-44.697878,0.0],[-73.071012,-44.698304,0.0],[-73.07005,-44.698338,0.0],[-73.068439,-44.698936,0.0],[-73.067511,-44.699461,0.0],[-73.065879,-44.699764,0.0],[-73.064642,-44.699809,0.0],[-73.064234,-44.699751,0.0],[-73.064306,-44.699919,0.0],[-73.064677,-44.700299,0.0],[-73.064855,-44.700882,0.0],[-73.064869,-44.701078,0.0],[-73.064546,-44.701384,0.0],[-73.064501,-44.70173,0.0],[-73.064601,-44.702168,0.0],[-73.064629,-44.70256,0.0],[-73.064719,-44.703018,0.0],[-73.064751,-44.703003,0.0],[-73.065122,-44.70299,0.0],[-73.065408,-44.703141,0.0],[-73.065667,-44.703375,0.0],[-73.065808,-44.703543,0.0],[-73.06606,-44.703672,0.0],[-73.066314,-44.703836,0.0],[-73.066613,-44.703952,0.0],[-73.066992,-44.704043,0.0],[-73.067446,-44.704061,0.0],[-73.067866,-44.704058,0.0],[-73.068674,-44.70404,0.0],[-73.069211,-44.704079,0.0],[-73.069727,-44.70406,0.0],[-73.070203,-44.704159,0.0],[-73.070604,-44.704341,0.0],[-73.070877,-44.704538,0.0],[-73.071275,-44.704686,0.0],[-73.071646,-44.705122,0.0],[-73.071986,-44.705364,0.0],[-73.072294,-44.705607,0.0],[-73.072342,-44.705824,0.0],[-73.0726,-44.706265,0.0],[-73.072871,-44.706452,0.0],[-73.073228,-44.706693,0.0],[-73.073474,-44.706972,0.0],[-73.073793,-44.707134,0.0],[-73.073933,-44.70729,0.0],[-73.074223,-44.707499,0.0],[-73.074621,-44.707635,0.0],[-73.074903,-44.707729,0.0],[-73.075222,-44.707902,0.0],[-73.075541,-44.708064,0.0],[-73.075825,-44.708192,0.0],[-73.076113,-44.708378,0.0],[-73.076588,-44.708453,0.0],[-73.076874,-44.708616,0.0],[-73.077292,-44.708809,0.0],[-73.077759,-44.709011,0.0],[-73.078189,-44.709134,0.0],[-73.078441,-44.709275,0.0],[-73.078755,-44.709368,0.0],[-73.079403,-44.709379,0.0],[-73.07971,-44.70938,0.0],[-73.080017,-44.709369,0.0],[-73.080298,-44.70922,0.0],[-73.080365,-44.709022,0.0],[-73.080365,-44.708791,0.0],[-73.080331,-44.708538,0.0],[-73.080119,-44.708292,0.0],[-73.079944,-44.708102,0.0],[-73.079709,-44.707972,0.0],[-73.07926,-44.707804,0.0],[-73.078924,-44.707631,0.0],[-73.078437,-44.707372,0.0],[-73.078202,-44.707023,0.0],[-73.078044,-44.706844,0.0],[-73.077752,-44.7066,0.0],[-73.077438,-44.706288,0.0],[-73.077233,-44.706123,0.0],[-73.077055,-44.705898,0.0],[-73.077009,-44.705704,0.0],[-73.076989,-44.705416,0.0],[-73.077147,-44.705364,0.0],[-73.077407,-44.705378,0.0],[-73.077796,-44.705387,0.0],[-73.078297,-44.705381,0.0],[-73.078555,-44.705372,0.0],[-73.078815,-44.705155,0.0],[-73.078833,-44.704958,0.0],[-73.078524,-44.704704,0.0],[-73.07833,-44.704468,0.0],[-73.078156,-44.704301,0.0],[-73.078014,-44.704122,0.0],[-73.077805,-44.70391,0.0],[-73.077575,-44.703701,0.0],[-73.077688,-44.703466,0.0],[-73.07786,-44.703153,0.0],[-73.078144,-44.702896,0.0],[-73.078521,-44.702744,0.0],[-73.078792,-44.702612,0.0],[-73.078989,-44.702343,0.0],[-73.078855,-44.701979,0.0],[-73.078712,-44.701784,0.0],[-73.078386,-44.701442,0.0],[-73.07803,-44.700977,0.0],[-73.077948,-44.700734,0.0],[-73.077714,-44.700466,0.0],[-73.077332,-44.700249,0.0],[-73.076908,-44.700048,0.0],[-73.07642,-44.699851,0.0],[-73.076151,-44.699706,0.0],[-73.075963,-44.699498,0.0],[-73.075665,-44.699247,0.0],[-73.075603,-44.698972,0.0],[-73.075618,-44.698947,0.0],[-73.075526,-44.698831,0.0],[-73.075237,-44.698644,0.0],[-73.075155,-44.698451,0.0],[-73.074928,-44.698164,0.0],[-73.074516,-44.698179,0.0],[-73.074172,-44.698191,0.0],[-73.073811,-44.697958,0.0],[-73.073595,-44.697819,0.0],[-73.073241,-44.697684,0.0],[-73.07308,-44.697346,0.0],[-73.07307,-44.69732,0.0],[-73.072801,-44.697449,0.0]]]}},{"type":"Feature","properties":{"rgi_id":"RGI2000-v7.0-G-17-19954","o1region":"17"},"geometry":{"type":"Polygon","coordinates":[[[-73.063804,-44.705683,0.0],[-73.063833,-44.705626,0.0],[-73.063806,-44.705234,0.0],[-73.064145,-44.704829,0.0],[-73.064213,-44.704499,0.0],[-73.064282,-44.704169,0.0],[-73.06438,-44.703918,0.0],[-73.064154,-44.703917,0.0],[-73.06382,-44.703928,0.0],[-73.063591,-44.703857,0.0],[-73.063339,-44.70372,0.0],[-73.063077,-44.703702,0.0],[-73.062852,-44.70395,0.0],[-73.06287,-44.704202,0.0],[-73.062892,-44.70452,0.0],[-73.062997,-44.704689,0.0],[-73.063156,-44.704829,0.0],[-73.062878,-44.705118,0.0],[-73.062701,-44.704978,0.0],[-73.06258,-44.70485,0.0],[-73.062393,-44.704577,0.0],[-73.062282,-44.704329,0.0],[-73.062284,-44.704089,0.0],[-73.062332,-44.703968,0.0],[-73.06251,-44.70359,0.0],[-73.062617,-44.703519,0.0],[-73.062738,-44.703382,0.0],[-73.062914,-44.70323,0.0],[-73.063124,-44.703302,0.0],[-73.063284,-44.703469,0.0],[-73.063387,-44.703598,0.0],[-73.063469,-44.703702,0.0],[-73.063623,-44.703776,0.0],[-73.063907,-44.703846,0.0],[-73.064242,-44.703834,0.0],[-73.064416,-44.703827,0.0],[-73.064438,-44.703771,0.0],[-73.064646,-44.703763,0.0],[-73.064603,-44.703655,0.0],[-73.064575,-44.703263,0.0],[-73.064595,-44.703078,0.0],[-73.064719,-44.703018,0.0],[-73.064629,-44.70256,0.0],[-73.064601,-44.702168,0.0],[-73.064501,-44.70173,0.0],[-73.064546,-44.701384,0.0],[-73.064869,-44.701078,0.0],[-73.064855,-44.700882,0.0],[-73.064677,-44.700299,0.0],[-73.064306,-44.699919,0.0],[-73.064234,-44.699751,0.0],[-73.064086,-44.69973,0.0],[-73.063051,-44.699724,0.0],[-73.063051,-44.699725,0.0],[-73.062766,-44.699822,0.0],[-73.062548,-44.699829,0.0],[-73.062427,-44.699834,0.0],[-73.062239,-44.699918,0.0],[-73.06204,-44.700012,0.0],[-73.061814,-44.700262,0.0],[-73.061548,-44.700445,0.0],[-73.061281,-44.700619,0.0],[-73.060855,-44.700772,0.0],[-73.060708,-44.70057,0.0],[-73.060852,-44.700383,0.0],[-73.061067,-44.700159,0.0],[-73.061237,-44.699989,0.0],[-73.061422,-44.699861,0.0],[-73.061523,-44.699745,0.0],[-73.061506,-44.699494,0.0],[-73.061457,-44.699314,0.0],[-73.061158,-44.699204,0.0],[-73.060837,-44.69912,0.0],[-73.060511,-44.698967,0.0],[-73.060191,-44.69891,0.0],[-73.059855,-44.698965,0.0],[-73.059774,-44.699184,0.0],[-73.059794,-44.699478,0.0],[-73.059809,-44.699693,0.0],[-73.060011,-44.699799,0.0],[-73.060229,-44.699791,0.0],[-73.060316,-44.699995,0.0],[-73.060301,-44.700134,0.0],[-73.060296,-44.70023,0.0],[-73.060256,-44.700525,0.0],[-73.060151,-44.700763,0.0],[-73.05995,-44.700839,0.0],[-73.059713,-44.700917,0.0],[-73.059427,-44.700996,0.0],[-73.058969,-44.701038,0.0],[-73.058646,-44.700929,0.0],[-73.058402,-44.700738,0.0],[-73.058095,-44.70068,0.0],[-73.057856,-44.700914,0.0],[-73.057947,-44.70117,0.0],[-73.058235,-44.701471,0.0],[-73.058882,-44.701526,0.0],[-73.059255,-44.701487,0.0],[-73.059848,-44.701466,0.0],[-73.060211,-44.701453,0.0],[-73.060401,-44.701567,0.0],[-73.060148,-44.701758,0.0],[-73.059863,-44.701846,0.0],[-73.059676,-44.701956,0.0],[-73.059368,-44.702063,0.0],[-73.059231,-44.70218,0.0],[-73.059009,-44.7023,0.0],[-73.058693,-44.702467,0.0],[-73.058559,-44.702628,0.0],[-73.058365,-44.702808,0.0],[-73.058291,-44.702966,0.0],[-73.058262,-44.703062,0.0],[-73.058079,-44.703225,0.0],[-73.057894,-44.703352,0.0],[-73.057636,-44.703483,0.0],[-73.057363,-44.703579,0.0],[-73.05712,-44.703735,0.0],[-73.056902,-44.703916,0.0],[-73.056672,-44.704105,0.0],[-73.056531,-44.704344,0.0],[-73.056506,-44.704509,0.0],[-73.056589,-44.704654,0.0],[-73.056695,-44.704771,0.0],[-73.056915,-44.704806,0.0],[-73.057241,-44.70495,0.0],[-73.057487,-44.704994,0.0],[-73.057707,-44.70502,0.0],[-73.05805,-44.705069,0.0],[-73.058392,-44.7051,0.0],[-73.058716,-44.705054,0.0],[-73.059182,-44.704951,0.0],[-73.059533,-44.704938,0.0],[-73.059895,-44.704908,0.0],[-73.06012,-44.704831,0.0],[-73.060373,-44.704804,0.0],[-73.060551,-44.704919,0.0],[-73.060661,-44.705097,0.0],[-73.060675,-44.705304,0.0],[-73.060822,-44.705489,0.0],[-73.060925,-44.705581,0.0],[-73.061074,-44.705627,0.0],[-73.061236,-44.705682,0.0],[-73.061486,-44.705794,0.0],[-73.061498,-44.705958,0.0],[-73.061516,-44.706226,0.0],[-73.061456,-44.706401,0.0],[-73.061462,-44.706488,0.0],[-73.061579,-44.706596,0.0],[-73.061695,-44.706704,0.0],[-73.061919,-44.706774,0.0],[-73.062248,-44.706797,0.0],[-73.062515,-44.706796,0.0],[-73.062854,-44.70662,0.0],[-73.063089,-44.706507,0.0],[-73.063321,-44.706352,0.0],[-73.063395,-44.706202,0.0],[-73.063381,-44.706004,0.0],[-73.063489,-44.705801,0.0],[-73.063804,-44.705683,0.0]]]}},{"type":"Feature","properties":{"rgi_id":"RGI2000-v7.0-G-17-19955","o1region":"17"},"geometry":{"type":"Polygon","coordinates":[[[-73.063051,-44.699724,0.0],[-73.064086,-44.69973,0.0],[-73.064234,-44.699751,0.0],[-73.064642,-44.699809,0.0],[-73.065879,-44.699764,0.0],[-73.067511,-44.699461,0.0],[-73.068439,-44.698936,0.0],[-73.07005,-44.698338,0.0],[-73.071012,-44.698304,0.0],[-73.071946,-44.697878,0.0],[-73.072678,-44.697508,0.0],[-73.072801,-44.697449,0.0],[-73.07264,-44.696969,0.0],[-73.072269,-44.696589,0.0],[-73.071479,-44.696126,0.0],[-73.071376,-44.695638,0.0],[-73.071132,-44.695106,0.0],[-73.070818,-44.694854,0.0],[-73.070747,-44.694979,0.0],[-73.070594,-44.694995,0.0],[-73.070467,-44.69478,0.0],[-73.070295,-44.694517,0.0],[-73.070243,-44.69417,0.0],[-73.070018,-44.693949,0.0],[-73.069879,-44.693764,0.0],[-73.069729,-44.69361,0.0],[-73.069682,-44.693343,0.0],[-73.069756,-44.693201,0.0],[-73.069996,-44.693043,0.0],[-73.070116,-44.692988,0.0],[-73.070161,-44.693007,0.0],[-73.070163,-44.693008,0.0],[-73.070479,-44.692673,0.0],[-73.070661,-44.692323,0.0],[-73.07098,-44.691968,0.0],[-73.070836,-44.691973,0.0],[-73.070796,-44.692025,0.0],[-73.0705,-44.692122,0.0],[-73.070361,-44.692049,0.0],[-73.070187,-44.691977,0.0],[-73.069972,-44.691864,0.0],[-73.069892,-44.691754,0.0],[-73.069777,-44.691672,0.0],[-73.069615,-44.691617,0.0],[-73.06947,-44.691622,0.0],[-73.069337,-44.691627,0.0],[-73.069145,-44.691659,0.0],[-73.069039,-44.691698,0.0],[-73.068886,-44.691764,0.0],[-73.068607,-44.691774,0.0],[-73.068366,-44.691791,0.0],[-73.068197,-44.691806,0.0],[-73.068045,-44.691889,0.0],[-73.068055,-44.692027,0.0],[-73.068067,-44.6922,0.0],[-73.068061,-44.692287,0.0],[-73.067921,-44.692361,0.0],[-73.067753,-44.692393,0.0],[-73.067518,-44.692323,0.0],[-73.067485,-44.692203,0.0],[-73.067336,-44.692148,0.0],[-73.06713,-44.692155,0.0],[-73.067021,-44.692159,0.0],[-73.066937,-44.692171,0.0],[-73.066897,-44.692293,0.0],[-73.06676,-44.692419,0.0],[-73.066757,-44.692549,0.0],[-73.066482,-44.692594,0.0],[-73.066179,-44.692605,0.0],[-73.066051,-44.692687,0.0],[-73.066001,-44.692836,0.0],[-73.065922,-44.692917,0.0],[-73.065766,-44.69294,0.0],[-73.065441,-44.692986,0.0],[-73.065042,-44.693,0.0],[-73.064971,-44.692847,0.0],[-73.064735,-44.692777,0.0],[-73.064548,-44.692706,0.0],[-73.064396,-44.692608,0.0],[-73.064099,-44.692523,0.0],[-73.063815,-44.692447,0.0],[-73.063541,-44.692344,0.0],[-73.063299,-44.692353,0.0],[-73.062977,-44.692269,0.0],[-73.062729,-44.692191,0.0],[-73.062429,-44.692063,0.0],[-73.062238,-44.691932,0.0],[-73.062216,-44.691794,0.0],[-73.062173,-44.691692,0.0],[-73.062057,-44.691592,0.0],[-73.06187,-44.691529,0.0],[-73.061628,-44.691529,0.0],[-73.061464,-44.691622,0.0],[-73.061573,-44.691791,0.0],[-73.061726,-44.691889,0.0],[-73.061825,-44.692094,0.0],[-73.061838,-44.692283,0.0],[-73.061967,-44.692391,0.0],[-73.062246,-44.692399,0.0],[-73.062494,-44.692476,0.0],[-73.062696,-44.692582,0.0],[-73.062797,-44.692639,0.0],[-73.062864,-44.692723,0.0],[-73.062936,-44.692893,0.0],[-73.062927,-44.69311,0.0],[-73.062937,-44.693257,0.0],[-73.063033,-44.693418,0.0],[-73.063177,-44.69356,0.0],[-73.063418,-44.693715,0.0],[-73.063625,-44.693717,0.0],[-73.063752,-44.693634,0.0],[-73.063882,-44.693413,0.0],[-73.063886,-44.693292,0.0],[-73.063898,-44.693119,0.0],[-73.064048,-44.693009,0.0],[-73.064271,-44.693071,0.0],[-73.064375,-44.693179,0.0],[-73.064465,-44.693245,0.0],[-73.064565,-44.693285,0.0],[-73.064696,-44.693428,0.0],[-73.064659,-44.693585,0.0],[-73.064544,-44.693684,0.0],[-73.064354,-44.693743,0.0],[-73.064088,-44.693752,0.0],[-73.063943,-44.693757,0.0],[-73.063692,-44.693818,0.0],[-73.063331,-44.693848,0.0],[-73.062918,-44.693846,0.0],[-73.062617,-44.693882,0.0],[-73.06258,-44.694039,0.0],[-73.062503,-44.694163,0.0],[-73.062163,-44.694323,0.0],[-73.061932,-44.694322,0.0],[-73.061722,-44.69426,0.0],[-73.061324,-44.694292,0.0],[-73.061057,-44.694301,0.0],[-73.061115,-44.694438,0.0],[-73.061365,-44.694541,0.0],[-73.061748,-44.69464,0.0],[-73.062022,-44.694734,0.0],[-73.062163,-44.694842,0.0],[-73.062294,-44.694984,0.0],[-73.062482,-44.695064,0.0],[-73.06266,-44.695187,0.0],[-73.06288,-44.695214,0.0],[-73.063107,-44.695163,0.0],[-73.063219,-44.695029,0.0],[-73.063446,-44.694978,0.0],[-73.063549,-44.695061,0.0],[-73.06358,-44.695155,0.0],[-73.063589,-44.695293,0.0],[-73.063613,-44.695456,0.0],[-73.063606,-44.695534,0.0],[-73.063332,-44.695596,0.0],[-73.063107,-44.695509,0.0],[-73.062991,-44.695409,0.0],[-73.062694,-44.695325,0.0],[-73.062433,-44.69523,0.0],[-73.061898,-44.695223,0.0],[-73.061674,-44.695309,0.0],[-73.061502,-44.695454,0.0],[-73.06136,-44.695502,0.0],[-73.061371,-44.695666,0.0],[-73.061382,-44.695821,0.0],[-73.061585,-44.695953,0.0],[-73.061663,-44.696028,0.0],[-73.061705,-44.696104,0.0],[-73.061658,-44.696123,0.0],[-73.061356,-44.696142,0.0],[-73.061062,-44.696101,0.0],[-73.060747,-44.696112,0.0],[-73.060531,-44.696137,0.0],[-73.060366,-44.696212,0.0],[-73.060327,-44.696344,0.0],[-73.060311,-44.696465,0.0],[-73.060173,-44.696574,0.0],[-73.05997,-44.696616,0.0],[-73.059558,-44.69663,0.0],[-73.059101,-44.696681,0.0],[-73.059049,-44.696804,0.0],[-73.059112,-44.69701,0.0],[-73.05929,-44.697133,0.0],[-73.05978,-44.697194,0.0],[-73.059989,-44.69723,0.0],[-73.060192,-44.697369,0.0],[-73.060634,-44.697432,0.0],[-73.061111,-44.697492,0.0],[-73.061378,-44.697492,0.0],[-73.061768,-44.697521,0.0],[-73.062047,-44.69752,0.0],[-73.062304,-44.697554,0.0],[-73.062424,-44.697705,0.0],[-73.062507,-44.697849,0.0],[-73.06264,-44.698018,0.0],[-73.062749,-44.698195,0.0],[-73.06282,-44.698331,0.0],[-73.062909,-44.698562,0.0],[-73.063047,-44.698626,0.0],[-73.06308,-44.698755,0.0],[-73.063109,-44.699005,0.0],[-73.063123,-44.699195,0.0],[-73.063127,-44.699255,0.0],[-73.063123,-44.699549,0.0],[-73.063051,-44.699724,0.0]]]}},{"type":"Feature","properties":{"rgi_id":"RGI2000-v7.0-G-17-19956","o1region":"17"},"geometry":{"type":"Polygon","coordinates":[[[-73.07098,-44.691968,0.0],[-73.070661,-44.692323,0.0],[-73.070479,-44.692673,0.0],[-73.070163,-44.693008,0.0],[-73.070278,-44.693072,0.0],[-73.070316,-44.693221,0.0],[-73.070235,-44.693463,0.0],[-73.070253,-44.693712,0.0],[-73.070438,-44.69405,0.0],[-73.070464,-44.694191,0.0],[-73.070628,-44.694286,0.0],[-73.070752,-44.694451,0.0],[-73.070792,-44.694619,0.0],[-73.070822,-44.694847,0.0],[-73.070818,-44.694854,0.0],[-73.071132,-44.695106,0.0],[-73.071376,-44.695638,0.0],[-73.071479,-44.696126,0.0],[-73.072269,-44.696589,0.0],[-73.07264,-44.696969,0.0],[-73.072801,-44.697449,0.0],[-73.07307,-44.69732,0.0],[-73.073344,-44.697189,0.0],[-73.074626,-44.696799,0.0],[-73.075378,-44.696723,0.0],[-73.076384,-44.696343,0.0],[-73.07726,-44.696066,0.0],[-73.077672,-44.696052,0.0],[-73.078428,-44.696025,0.0],[-73.079459,-44.695988,0.0],[-73.080002,-44.69587,0.0],[-73.080541,-44.695703,0.0],[-73.081224,-44.69563,0.0],[-73.081561,-44.69552,0.0],[-73.081588,-44.695498,0.0],[-73.081666,-44.695437,0.0],[-73.081541,-44.695083,0.0],[-73.081624,-44.694726,0.0],[-73.081663,-44.694371,0.0],[-73.081856,-44.694041,0.0],[-73.081958,-44.693653,0.0],[-73.081938,-44.693377,0.0],[-73.081902,-44.693163,0.0],[-73.081715,-44.692954,0.0],[-73.081339,-44.692829,0.0],[-73.081055,-44.69247,0.0],[-73.080785,-44.692311,0.0],[-73.080229,-44.692069,0.0],[-73.07974,-44.691856,0.0],[-73.079125,-44.691709,0.0],[-73.078692,-44.691678,0.0],[-73.078075,-44.691792,0.0],[-73.077758,-44.691896,0.0],[-73.077408,-44.691816,0.0],[-73.077261,-44.691575,0.0],[-73.077616,-44.691409,0.0],[-73.077935,-44.691336,0.0],[-73.078139,-44.691175,0.0],[-73.078342,-44.690998,0.0],[-73.078326,-44.690768,0.0],[-73.078099,-44.690607,0.0],[-73.077667,-44.690592,0.0],[-73.076861,-44.690482,0.0],[-73.076191,-44.69046,0.0],[-73.075665,-44.690033,0.0],[-73.075763,-44.689891,0.0],[-73.076223,-44.689997,0.0],[-73.076495,-44.690187,0.0],[-73.077249,-44.690176,0.0],[-73.077852,-44.690154,0.0],[-73.078325,-44.690137,0.0],[-73.078794,-44.690059,0.0],[-73.079324,-44.689932,0.0],[-73.079854,-44.689806,0.0],[-73.080265,-44.689822,0.0],[-73.080366,-44.690034,0.0],[-73.080162,-44.690195,0.0],[-73.079841,-44.690237,0.0],[-73.079349,-44.690285,0.0],[-73.078954,-44.690499,0.0],[-73.079036,-44.690743,0.0],[-73.079342,-44.690809,0.0],[-73.079726,-44.690749,0.0],[-73.080044,-44.69066,0.0],[-73.080418,-44.690462,0.0],[-73.080998,-44.690426,0.0],[-73.081611,-44.690558,0.0],[-73.081968,-44.69073,0.0],[-73.082286,-44.690965,0.0],[-73.082648,-44.691198,0.0],[-73.08305,-44.691399,0.0],[-73.083426,-44.691539,0.0],[-73.083841,-44.691604,0.0],[-73.083828,-44.691417,0.0],[-73.083742,-44.69082,0.0],[-73.083461,-44.690492,0.0],[-73.083139,-44.689904,0.0],[-73.082775,-44.68964,0.0],[-73.082063,-44.689327,0.0],[-73.081376,-44.689059,0.0],[-73.080698,-44.68893,0.0],[-73.08006,-44.688752,0.0],[-73.079534,-44.688633,0.0],[-73.078729,-44.688523,0.0],[-73.078207,-44.688465,0.0],[-73.077734,-44.688482,0.0],[-73.077297,-44.688405,0.0],[-73.0767,-44.688344,0.0],[-73.076443,-44.68831,0.0],[-73.076271,-44.688281,0.0],[-73.076221,-44.688249,0.0],[-73.076033,-44.688397,0.0],[-73.075308,-44.688865,0.0],[-73.074779,-44.689179,0.0],[-73.074116,-44.689547,0.0],[-73.073659,-44.689907,0.0],[-73.073426,-44.690505,0.0],[-73.072622,-44.690828,0.0],[-73.072107,-44.691338,0.0],[-73.071719,-44.691696,0.0],[-73.071255,-44.691958,0.0],[-73.07098,-44.691968,0.0]]]}},{"type":"Feature","properties":{"rgi_id":"RGI2000-v7.0-G-17-19957","o1region":"17"},"geometry":{"type":"Polygon","coordinates":[[[-73.081666,-44.695437,0.0],[-73.081588,-44.695498,0.0],[-73.081678,-44.695556,0.0],[-73.081972,-44.695808,0.0],[-73.082549,-44.69618,0.0],[-73.08266,-44.696184,0.0],[-73.082538,-44.696078,0.0],[-73.082417,-44.695575,0.0],[-73.082536,-44.695125,0.0],[-73.082776,-44.694854,0.0],[-73.082867,-44.69462,0.0],[-73.083313,-44.69422,0.0],[-73.083716,-44.693821,0.0],[-73.083953,-44.693505,0.0],[-73.083944,-44.693074,0.0],[-73.083915,-44.69266,0.0],[-73.083896,-44.692384,0.0],[-73.083895,-44.692369,0.0],[-73.083808,-44.692372,0.0],[-73.083421,-44.692385,0.0],[-73.083276,-44.692468,0.0],[-73.083101,-44.692735,0.0],[-73.082911,-44.692788,0.0],[-73.082919,-44.692603,0.0],[-73.082956,-44.69251,0.0],[-73.083023,-44.692246,0.0],[-73.08298,-44.69194,0.0],[-73.082632,-44.691891,0.0],[-73.082228,-44.691982,0.0],[-73.082162,-44.692261,0.0],[-73.082253,-44.692643,0.0],[-73.082429,-44.69299,0.0],[-73.082419,-44.69316,0.0],[-73.082374,-44.693438,0.0],[-73.082373,-44.693731,0.0],[-73.082013,-44.69382,0.0],[-73.08197,-44.69413,0.0],[-73.081993,-44.694467,0.0],[-73.082052,-44.69468,0.0],[-73.082197,-44.694906,0.0],[-73.081939,-44.695223,0.0],[-73.081675,-44.695463,0.0],[-73.081666,-44.695437,0.0]]]}},{"type":"Feature","properties":{"rgi_id":"RGI2000-v7.0-G-17-19958","o1region":"17"},"geometry":{"type":"Polygon","coordinates":[[[-73.07307,-44.69732,0.0],[-73.07308,-44.697346,0.0],[-73.073241,-44.697684,0.0],[-73.073595,-44.697819,0.0],[-73.073811,-44.697958,0.0],[-73.074172,-44.698191,0.0],[-73.074516,-44.698179,0.0],[-73.074928,-44.698164,0.0],[-73.075155,-44.698451,0.0],[-73.075237,-44.698644,0.0],[-73.075526,-44.698831,0.0],[-73.075618,-44.698947,0.0],[-73.0757,-44.698815,0.0],[-73.07583,-44.698826,0.0],[-73.076034,-44.698972,0.0],[-73.07624,-44.699134,0.0],[-73.07639,-44.699436,0.0],[-73.076742,-44.699531,0.0],[-73.076907,-44.699418,0.0],[-73.077621,-44.699454,0.0],[-73.077887,-44.699552,0.0],[-73.078249,-44.699801,0.0],[-73.078517,-44.699929,0.0],[-73.078916,-44.700084,0.0],[-73.07915,-44.700337,0.0],[-73.079467,-44.700557,0.0],[-73.079687,-44.700611,0.0],[-73.079991,-44.700646,0.0],[-73.080434,-44.700815,0.0],[-73.081091,-44.700945,0.0],[-73.081364,-44.700843,0.0],[-73.081448,-44.700809,0.0],[-73.081724,-44.700753,0.0],[-73.082159,-44.700799,0.0],[-73.082323,-44.700993,0.0],[-73.082692,-44.701334,0.0],[-73.082909,-44.701649,0.0],[-73.083183,-44.70187,0.0],[-73.083453,-44.702029,0.0],[-73.083775,-44.70231,0.0],[-73.084142,-44.702312,0.0],[-73.084444,-44.702009,0.0],[-73.084414,-44.70158,0.0],[-73.084282,-44.701246,0.0],[-73.084494,-44.701192,0.0],[-73.084846,-44.70098,0.0],[-73.085052,-44.700849,0.0],[-73.08505,-44.700511,0.0],[-73.084938,-44.700146,0.0],[-73.084712,-44.699692,0.0],[-73.084416,-44.699472,0.0],[-73.084394,-44.69915,0.0],[-73.084186,-44.698957,0.0],[-73.084145,-44.698682,0.0],[-73.084425,-44.698672,0.0],[-73.084948,-44.698761,0.0],[-73.085226,-44.699028,0.0],[-73.085395,-44.699283,0.0],[-73.085495,-44.69948,0.0],[-73.085705,-44.699703,0.0],[-73.086085,-44.699889,0.0],[-73.086273,-44.699805,0.0],[-73.086345,-44.699603,0.0],[-73.086471,-44.699552,0.0],[-73.086822,-44.699632,0.0],[-73.087155,-44.699774,0.0],[-73.08747,-44.699963,0.0],[-73.087837,-44.699965,0.0],[-73.087733,-44.699707,0.0],[-73.087368,-44.699428,0.0],[-73.087109,-44.699114,0.0],[-73.086783,-44.698772,0.0],[-73.08633,-44.698465,0.0],[-73.085878,-44.698174,0.0],[-73.085406,-44.697914,0.0],[-73.084452,-44.697533,0.0],[-73.083884,-44.697122,0.0],[-73.083601,-44.696779,0.0],[-73.082998,-44.696477,0.0],[-73.08266,-44.696184,0.0],[-73.082549,-44.69618,0.0],[-73.081972,-44.695808,0.0],[-73.081678,-44.695556,0.0],[-73.081588,-44.695498,0.0],[-73.081561,-44.69552,0.0],[-73.081224,-44.69563,0.0],[-73.080541,-44.695703,0.0],[-73.080002,-44.69587,0.0],[-73.079459,-44.695988,0.0],[-73.078428,-44.696025,0.0],[-73.077672,-44.696052,0.0],[-73.07726,-44.696066,0.0],[-73.076384,-44.696343,0.0],[-73.075378,-44.696723,0.0],[-73.074626,-44.696799,0.0],[-73.073344,-44.697189,0.0],[-73.07307,-44.69732,0.0]]]}},{"type":"Feature","properties":{"rgi_id":"RGI2000-v7.0-G-17-19959","o1region":"17"},"geometry":{"type":"Polygon","coordinates":[[[-73.070836,-44.691973,0.0],[-73.07098,-44.691968,0.0],[-73.071255,-44.691958,0.0],[-73.071719,-44.691696,0.0],[-73.072107,-44.691338,0.0],[-73.072622,-44.690828,0.0],[-73.073426,-44.690505,0.0],[-73.073659,-44.689907,0.0],[-73.074116,-44.689547,0.0],[-73.074779,-44.689179,0.0],[-73.075308,-44.688865,0.0],[-73.076033,-44.688397,0.0],[-73.076221,-44.688249,0.0],[-73.076144,-44.688199,0.0],[-73.07599,-44.688075,0.0],[-73.075969,-44.687946,0.0],[-73.075947,-44.687817,0.0],[-73.075874,-44.687638,0.0],[-73.075696,-44.687523,0.0],[-73.075579,-44.687415,0.0],[-73.075446,-44.687246,0.0],[-73.075307,-44.687165,0.0],[-73.07506,-44.687096,0.0],[-73.074999,-44.686925,0.0],[-73.074928,-44.686772,0.0],[-73.074905,-44.686625,0.0],[-73.074823,-44.68649,0.0],[-73.074757,-44.686406,0.0],[-73.074667,-44.68634,0.0],[-73.07449,-44.686234,0.0],[-73.074285,-44.686085,0.0],[-73.074103,-44.68591,0.0],[-73.073949,-44.685786,0.0],[-73.07376,-44.68568,0.0],[-73.07336,-44.685521,0.0],[-73.073095,-44.685366,0.0],[-73.072865,-44.685374,0.0],[-73.072571,-44.685333,0.0],[-73.072371,-44.685245,0.0],[-73.072121,-44.685141,0.0],[-73.071831,-44.684987,0.0],[-73.071543,-44.684859,0.0],[-73.071291,-44.68473,0.0],[-73.071052,-44.684609,0.0],[-73.070863,-44.684503,0.0],[-73.070702,-44.684457,0.0],[-73.070667,-44.684475,0.0],[-73.070602,-44.684581,0.0],[-73.070587,-44.684712,0.0],[-73.070599,-44.684893,0.0],[-73.070668,-44.685003,0.0],[-73.070829,-44.685049,0.0],[-73.071052,-44.685119,0.0],[-73.071155,-44.685211,0.0],[-73.071322,-44.685343,0.0],[-73.071547,-44.68543,0.0],[-73.071622,-44.685471,0.0],[-73.071761,-44.685552,0.0],[-73.071875,-44.685617,0.0],[-73.071906,-44.685712,0.0],[-73.071899,-44.685781,0.0],[-73.071786,-44.685733,0.0],[-73.071541,-44.68569,0.0],[-73.07139,-44.685618,0.0],[-73.071253,-44.68557,0.0],[-73.070994,-44.685502,0.0],[-73.0708,-44.685509,0.0],[-73.070671,-44.685574,0.0],[-73.070665,-44.685652,0.0],[-73.070633,-44.685887,0.0],[-73.070684,-44.686101,0.0],[-73.070799,-44.686184,0.0],[-73.07086,-44.686363,0.0],[-73.070837,-44.686546,0.0],[-73.070419,-44.686647,0.0],[-73.07032,-44.686789,0.0],[-73.070326,-44.686876,0.0],[-73.070303,-44.687067,0.0],[-73.070282,-44.687284,0.0],[-73.070194,-44.687408,0.0],[-73.070022,-44.68738,0.0],[-73.069883,-44.687307,0.0],[-73.069836,-44.687153,0.0],[-73.069658,-44.687038,0.0],[-73.069589,-44.686911,0.0],[-73.069518,-44.686766,0.0],[-73.069438,-44.686665,0.0],[-73.06931,-44.686574,0.0],[-73.069184,-44.68651,0.0],[-73.069034,-44.686446,0.0],[-73.068917,-44.686329,0.0],[-73.068849,-44.686219,0.0],[-73.068684,-44.686112,0.0],[-73.068555,-44.686004,0.0],[-73.068294,-44.685918,0.0],[-73.068122,-44.68589,0.0],[-73.067833,-44.685918,0.0],[-73.067728,-44.685973,0.0],[-73.067694,-44.686182,0.0],[-73.06784,-44.686359,0.0],[-73.067932,-44.686468,0.0],[-73.067941,-44.686597,0.0],[-73.067878,-44.686738,0.0],[-73.067825,-44.686844,0.0],[-73.067781,-44.686906,0.0],[-73.067508,-44.686985,0.0],[-73.066998,-44.686977,0.0],[-73.066078,-44.68701,0.0],[-73.065433,-44.686981,0.0],[-73.065109,-44.687027,0.0],[-73.065083,-44.687184,0.0],[-73.065117,-44.687321,0.0],[-73.065241,-44.687351,0.0],[-73.065332,-44.687443,0.0],[-73.065469,-44.687499,0.0],[-73.065604,-44.68752,0.0],[-73.065827,-44.687581,0.0],[-73.065955,-44.687672,0.0],[-73.065964,-44.68781,0.0],[-73.06603,-44.687885,0.0],[-73.066037,-44.68798,0.0],[-73.066057,-44.688101,0.0],[-73.066117,-44.688263,0.0],[-73.066083,-44.688463,0.0],[-73.066067,-44.688576,0.0],[-73.06608,-44.688775,0.0],[-73.066096,-44.688826,0.0],[-73.066198,-44.688892,0.0],[-73.06624,-44.688977,0.0],[-73.066387,-44.688989,0.0],[-73.066585,-44.689051,0.0],[-73.066723,-44.689115,0.0],[-73.066872,-44.689162,0.0],[-73.067029,-44.689156,0.0],[-73.067178,-44.689212,0.0],[-73.06738,-44.689317,0.0],[-73.06745,-44.689453,0.0],[-73.06746,-44.689591,0.0],[-73.067621,-44.689637,0.0],[-73.067707,-44.68966,0.0],[-73.067809,-44.689734,0.0],[-73.067947,-44.68979,0.0],[-73.068027,-44.689891,0.0],[-73.068173,-44.689903,0.0],[-73.068322,-44.68995,0.0],[-73.068498,-44.690039,0.0],[-73.068542,-44.690149,0.0],[-73.068633,-44.690241,0.0],[-73.068712,-44.690325,0.0],[-73.068798,-44.690512,0.0],[-73.068841,-44.690606,0.0],[-73.068954,-44.690654,0.0],[-73.069115,-44.690709,0.0],[-73.069281,-44.690824,0.0],[-73.069517,-44.691075,0.0],[-73.069585,-44.691177,0.0],[-73.069743,-44.691188,0.0],[-73.070001,-44.691231,0.0],[-73.070243,-44.691231,0.0],[-73.070306,-44.691263,0.0],[-73.070427,-44.691432,0.0],[-73.070571,-44.691574,0.0],[-73.070738,-44.691715,0.0],[-73.070877,-44.691797,0.0],[-73.070885,-44.691909,0.0],[-73.070836,-44.691973,0.0]]]}},{"type":"Feature","properties":{"rgi_id":"RGI2000-v7.0-G-17-19960","o1region":"17"},"geometry":{"type":"Polygon","coordinates":[[[-73.071301,-44.684112,0.0],[-73.071524,-44.684242,0.0],[-73.072012,-44.684179,0.0],[-73.072371,-44.68412,0.0],[-73.072474,-44.684055,0.0],[-73.072436,-44.683828,0.0],[-73.072319,-44.683679,0.0],[-73.071987,-44.683523,0.0],[-73.071598,-44.68317,0.0],[-73.071341,-44.682859,0.0],[-73.070993,-44.682474,0.0],[-73.070782,-44.682513,0.0],[-73.070789,-44.682619,0.0],[-73.070822,-44.682786,0.0],[-73.070881,-44.683013,0.0],[-73.070965,-44.6833,0.0],[-73.071003,-44.683528,0.0],[-73.071301,-44.684112,0.0]]]}},{"type":"Feature","properties":{"rgi_id":"RGI2000-v7.0-G-17-19961","o1region":"17"},"geometry":{"type":"Polygon","coordinates":[[[-73.076787,-44.686955,0.0],[-73.076979,-44.686948,0.0],[-73.077148,-44.686927,0.0],[-73.077249,-44.686831,0.0],[-73.077341,-44.686614,0.0],[-73.077605,-44.686422,0.0],[-73.077799,-44.68614,0.0],[-73.077988,-44.685782,0.0],[-73.078085,-44.685336,0.0],[-73.078182,-44.68489,0.0],[-73.078182,-44.684584,0.0],[-73.078063,-44.684405,0.0],[-73.077782,-44.684369,0.0],[-73.077542,-44.684607,0.0],[-73.077429,-44.684825,0.0],[-73.077192,-44.685108,0.0],[-73.077236,-44.685427,0.0],[-73.077254,-44.685686,0.0],[-73.077207,-44.685932,0.0],[-73.077031,-44.686167,0.0],[-73.076812,-44.686404,0.0],[-73.076567,-44.686566,0.0],[-73.07651,-44.686675,0.0],[-73.076544,-44.686857,0.0],[-73.076787,-44.686955,0.0]]]}}]}
