{"type":"FeatureCollection","features":[{"type":"Feature","properties":{"rgi_id":"RGI2000-v7.0-G-03-04270","o1region":"03"},"geometry":{"type":"Polygon","coordinates":[[[-75.832294,78.766374,0.0],[-75.827158,78.765879,0.0],[-75.820768,78.766175,0.0],[-75.817379,78.765768,0.0],[-75.814576,78.764732,0.0],[-75.809514,78.763426,0.0],[-75.801415,78.761602,0.0],[-75.79276,78.760348,0.0],[-75.778154,78.760383,0.0],[-75.767286,78.76016,0.0],[-75.759925,78.760529,0.0],[-75.749937,78.760237,0.0],[-75.740672,78.759668,0.0],[-75.731918,78.758643,0.0],[-75.725475,78.758413,0.0],[-75.719998,78.758026,0.0],[-75.712214,78.757482,0.0],[-75.709288,78.756734,0.0],[-75.70078,78.755189,0.0],[-75.69214,78.753933,0.0],[-75.679746,78.753074,0.0],[-75.670462,78.753198,0.0],[-75.659754,78.75382,0.0],[-75.653981,78.754704,0.0],[-75.647756,78.75465,0.0],[-75.641091,78.753981,0.0],[-75.644339,78.752959,0.0],[-75.644452,78.75272,0.0],[-75.643132,78.752398,0.0],[-75.64325,78.752147,0.0],[-75.645994,78.752197,0.0],[-75.652043,78.751225,0.0],[-75.652177,78.750941,0.0],[-75.654768,78.750989,0.0],[-75.659017,78.750788,0.0],[-75.660722,78.75029,0.0],[-75.664866,78.750364,0.0],[-75.664984,78.750113,0.0],[-75.659755,78.749469,0.0],[-75.660011,78.748922,0.0],[-75.661476,78.748684,0.0],[-75.665678,78.748759,0.0],[-75.667143,78.748521,0.0],[-75.668795,78.748011,0.0],[-75.668912,78.74776,0.0],[-75.667587,78.74745,0.0],[-75.65936,78.747302,0.0],[-75.66114,78.746519,0.0],[-75.661268,78.746246,0.0],[-75.653294,78.745563,0.0],[-75.646468,78.745441,0.0],[-75.644816,78.745951,0.0],[-75.637991,78.745828,0.0],[-75.638109,78.745578,0.0],[-75.635438,78.745254,0.0],[-75.626006,78.744797,0.0],[-75.622353,78.743939,0.0],[-75.618341,78.743591,0.0],[-75.613178,78.742694,0.0],[-75.609354,78.742073,0.0],[-75.605656,78.741191,0.0],[-75.605775,78.740941,0.0],[-75.619419,78.741187,0.0],[-75.620637,78.741473,0.0],[-75.628917,78.741622,0.0],[-75.631787,78.741398,0.0],[-75.631894,78.741171,0.0],[-75.643124,78.741051,0.0],[-75.646048,78.740587,0.0],[-75.646171,78.740325,0.0],[-75.643506,78.73999,0.0],[-75.643624,78.739739,0.0],[-75.646365,78.739788,0.0],[-75.646493,78.739515,0.0],[-75.649304,78.73929,0.0],[-75.656184,78.739413,0.0],[-75.660447,78.739226,0.0],[-75.660569,78.738964,0.0],[-75.687915,78.739452,0.0],[-75.689384,78.739202,0.0],[-75.692305,78.73899,0.0],[-75.696641,78.738516,0.0],[-75.702308,78.738341,0.0],[-75.714668,78.738561,0.0],[-75.717155,78.739156,0.0],[-75.723792,78.739549,0.0],[-75.723354,78.740621,0.0],[-75.721891,78.740859,0.0],[-75.718965,78.741083,0.0],[-75.718849,78.741333,0.0],[-75.722683,78.741941,0.0],[-75.725424,78.741989,0.0],[-75.725292,78.742274,0.0],[-75.723708,78.742774,0.0],[-75.722308,78.74275,0.0],[-75.720903,78.742989,0.0],[-75.720776,78.743262,0.0],[-75.726201,78.743358,0.0],[-75.726434,78.742857,0.0],[-75.729434,78.7426,0.0],[-75.739,78.742516,0.0],[-75.740526,78.742267,0.0],[-75.740773,78.741732,0.0],[-75.739548,78.741458,0.0],[-75.74018,78.740091,0.0],[-75.742804,78.740137,0.0],[-75.744383,78.739901,0.0],[-75.746133,78.739098,0.0],[-75.747671,78.738891,0.0],[-75.749206,78.738367,0.0],[-75.751094,78.737332,0.0],[-75.752328,78.734656,0.0],[-75.749958,78.734063,0.0],[-75.748742,78.733513,0.0],[-75.741208,78.731761,0.0],[-75.738527,78.731714,0.0],[-75.737445,78.731132,0.0],[-75.73355,78.730535,0.0],[-75.729707,78.729951,0.0],[-75.727107,78.729606,0.0],[-75.717511,78.729431,0.0],[-75.71171,78.729873,0.0],[-75.710185,78.730121,0.0],[-75.707441,78.730337,0.0],[-75.704645,78.730287,0.0],[-75.704767,78.730025,0.0],[-75.702155,78.729703,0.0],[-75.702659,78.728621,0.0],[-75.700228,78.728038,0.0],[-75.693354,78.727916,0.0],[-75.690983,78.727081,0.0],[-75.689771,78.726531,0.0],[-75.685752,78.72646,0.0],[-75.678768,78.726576,0.0],[-75.675897,78.726812,0.0],[-75.676025,78.726539,0.0],[-75.663678,78.726318,0.0],[-75.66221,78.726567,0.0],[-75.658075,78.726493,0.0],[-75.65649,78.726993,0.0],[-75.651249,78.726646,0.0],[-75.6456,78.726545,0.0],[-75.644143,78.726771,0.0],[-75.644009,78.727056,0.0],[-75.640049,78.726985,0.0],[-75.640172,78.726723,0.0],[-75.63592,78.726646,0.0],[-75.632931,78.727132,0.0],[-75.617905,78.726861,0.0],[-75.605377,78.726899,0.0],[-75.601046,78.72736,0.0],[-75.600798,78.727884,0.0],[-75.603459,78.728219,0.0],[-75.602703,78.729813,0.0],[-75.601429,78.729526,0.0],[-75.598692,78.729476,0.0],[-75.595888,78.72969,0.0],[-75.595758,78.729963,0.0],[-75.596648,78.731059,0.0],[-75.59601,78.732403,0.0],[-75.597044,78.73295,0.0],[-75.595502,78.733473,0.0],[-75.592764,78.733423,0.0],[-75.593018,78.732888,0.0],[-75.587541,78.732789,0.0],[-75.585057,78.732204,0.0],[-75.583924,78.73162,0.0],[-75.580475,78.730225,0.0],[-75.57818,78.729368,0.0],[-75.578684,78.728309,0.0],[-75.58022,78.727797,0.0],[-75.580605,78.726989,0.0],[-75.579462,78.726428,0.0],[-75.575646,78.725807,0.0],[-75.56915,78.724896,0.0],[-75.536508,78.724012,0.0],[-75.531162,78.72365,0.0],[-75.521498,78.723472,0.0],[-75.52111,78.724281,0.0],[-75.51944,78.725066,0.0],[-75.516388,78.725549,0.0],[-75.515872,78.72662,0.0],[-75.517086,78.726906,0.0],[-75.516833,78.72743,0.0],[-75.515231,78.727952,0.0],[-75.514458,78.729557,0.0],[-75.512986,78.729806,0.0],[-75.510922,78.734087,0.0],[-75.509456,78.734324,0.0],[-75.508681,78.735929,0.0],[-75.509895,78.736216,0.0],[-75.509522,78.73699,0.0],[-75.510578,78.737848,0.0],[-75.511596,78.738418,0.0],[-75.51402,78.739003,0.0],[-75.513767,78.739526,0.0],[-75.510643,78.740273,0.0],[-75.509994,78.741616,0.0],[-75.50547,78.742337,0.0],[-75.502402,78.743085,0.0],[-75.499477,78.743295,0.0],[-75.496536,78.743781,0.0],[-75.493721,78.744004,0.0],[-75.49193,78.744787,0.0],[-75.487593,78.744994,0.0],[-75.484842,78.745207,0.0],[-75.483055,78.745978,0.0],[-75.48024,78.746202,0.0],[-75.477127,78.746673,0.0],[-75.472965,78.746883,0.0],[-75.472444,78.747953,0.0],[-75.473404,78.748764,0.0],[-75.472485,78.750653,0.0],[-75.4751,78.750966,0.0],[-75.474585,78.752025,0.0],[-75.475587,78.752871,0.0],[-75.47815,78.753171,0.0],[-75.478011,78.753455,0.0],[-75.475205,78.753656,0.0],[-75.474945,78.754191,0.0],[-75.475968,78.75475,0.0],[-75.477236,78.755049,0.0],[-75.482781,78.755152,0.0],[-75.48618,78.756356,0.0],[-75.485227,78.757093,0.0],[-75.479396,78.75745,0.0],[-75.471007,78.758166,0.0],[-75.453958,78.758314,0.0],[-75.440987,78.757434,0.0],[-75.436391,78.756455,0.0],[-75.437916,78.756202,0.0],[-75.443558,78.756042,0.0],[-75.444995,78.755795,0.0],[-75.447855,78.755592,0.0],[-75.449376,78.755347,0.0],[-75.458971,78.755525,0.0],[-75.459236,78.754983,0.0],[-75.46336,78.755059,0.0],[-75.46505,78.754552,0.0],[-75.46531,78.754019,0.0],[-75.464186,78.753451,0.0],[-75.455939,78.753298,0.0],[-75.456067,78.753036,0.0],[-75.457938,78.751985,0.0],[-75.457022,78.751165,0.0],[-75.455762,78.750877,0.0],[-75.454638,78.750309,0.0],[-75.450772,78.749707,0.0],[-75.446829,78.749352,0.0],[-75.444053,78.7493,0.0],[-75.442532,78.749545,0.0],[-75.441489,78.75168,0.0],[-75.437366,78.751603,0.0],[-75.437623,78.751077,0.0],[-75.435196,78.750485,0.0],[-75.43242,78.750434,0.0],[-75.429553,78.750654,0.0],[-75.426557,78.751136,0.0],[-75.426291,78.751678,0.0],[-75.424945,78.751653,0.0],[-75.422743,78.750518,0.0],[-75.421313,78.750491,0.0],[-75.416783,78.751243,0.0],[-75.414066,78.751441,0.0],[-75.409631,78.751635,0.0],[-75.407959,78.752156,0.0],[-75.405225,78.752344,0.0],[-75.404955,78.752891,0.0],[-75.402015,78.753112,0.0],[-75.397599,78.753839,0.0],[-75.390679,78.753709,0.0],[-75.389151,78.753938,0.0],[-75.387426,78.754727,0.0],[-75.387296,78.754989,0.0],[-75.381624,78.75522,0.0],[-75.372659,78.755283,0.0],[-75.364084,78.75576,0.0],[-75.353253,78.755381,0.0],[-75.339658,78.753381,0.0],[-75.332936,78.751337,0.0],[-75.332733,78.749358,0.0],[-75.338634,78.747669,0.0],[-75.351162,78.745816,0.0],[-75.360785,78.74501,0.0],[-75.371272,78.743059,0.0],[-75.381163,78.741786,0.0],[-75.38306,78.74206,0.0],[-75.386761,78.741971,0.0],[-75.389248,78.741463,0.0],[-75.391943,78.741354,0.0],[-75.394572,78.740967,0.0],[-75.397689,78.740828,0.0],[-75.399752,78.74035,0.0],[-75.402675,78.740604,0.0],[-75.409303,78.739934,0.0],[-75.417096,78.7402,0.0],[-75.423626,78.739727,0.0],[-75.430443,78.739497,0.0],[-75.431584,78.73924,0.0],[-75.4347,78.7391,0.0],[-75.441161,78.739181,0.0],[-75.445686,78.739067,0.0],[-75.447987,78.738515,0.0],[-75.453259,78.738533,0.0],[-75.455589,78.738339,0.0],[-75.462663,78.737994,0.0],[-75.471874,78.737848,0.0],[-75.475687,78.736688,0.0],[-75.478925,78.735875,0.0],[-75.479067,78.735164,0.0],[-75.479946,78.734188,0.0],[-75.482329,78.733042,0.0],[-75.484472,78.731971,0.0],[-75.486708,78.729869,0.0],[-75.488763,78.728559,0.0],[-75.490473,78.727122,0.0],[-75.490977,78.725866,0.0],[-75.493231,78.724356,0.0],[-75.495497,78.723446,0.0],[-75.494727,78.722519,0.0],[-75.492543,78.722002,0.0],[-75.491564,78.721847,0.0],[-75.489153,78.721464,0.0],[-75.481216,78.720682,0.0],[-75.472573,78.720521,0.0],[-75.470756,78.720924,0.0],[-75.46842,78.720722,0.0],[-75.462533,78.719898,0.0],[-75.461684,78.719852,0.0],[-75.457068,78.719598,0.0],[-75.451668,78.719503,0.0],[-75.445814,78.719666,0.0],[-75.44812,78.720344,0.0],[-75.444952,78.720602,0.0],[-75.432932,78.720299,0.0],[-75.42961,78.720871,0.0],[-75.422451,78.720579,0.0],[-75.418699,78.720786,0.0],[-75.410046,78.72106,0.0],[-75.40438,78.721033,0.0],[-75.393829,78.719803,0.0],[-75.385675,78.719887,0.0],[-75.380815,78.719523,0.0],[-75.370162,78.718443,0.0],[-75.366403,78.718253,0.0],[-75.360888,78.717514,0.0],[-75.352503,78.716839,0.0],[-75.340199,78.715891,0.0],[-75.329612,78.71557,0.0],[-75.32413,78.715585,0.0],[-75.320416,78.715712,0.0],[-75.316698,78.715443,0.0],[-75.301473,78.715072,0.0],[-75.28434,78.714466,0.0],[-75.281867,78.71414,0.0],[-75.273693,78.713864,0.0],[-75.270582,78.714002,0.0],[-75.26572,78.713591,0.0],[-75.262343,78.71305,0.0],[-75.258772,78.713298,0.0],[-75.253834,78.713441,0.0],[-75.249032,78.712912,0.0],[-75.24574,78.713007,0.0],[-75.240981,78.712796,0.0],[-75.234958,78.712679,0.0],[-75.230584,78.713309,0.0],[-75.224239,78.713027,0.0],[-75.220182,78.71263,0.0],[-75.213778,78.712466,0.0],[-75.20932,78.712062,0.0],[-75.206169,78.712278,0.0],[-75.199063,78.712299,0.0],[-75.193762,78.711957,0.0],[-75.189024,78.711309,0.0],[-75.179148,78.711195,0.0],[-75.168029,78.710739,0.0],[-75.163265,78.710747,0.0],[-75.156087,78.710306,0.0],[-75.153176,78.710447,0.0],[-75.145649,78.710153,0.0],[-75.140753,78.710163,0.0],[-75.136347,78.709952,0.0],[-75.114084,78.7092,0.0],[-75.101503,78.708831,0.0],[-75.086417,78.708214,0.0],[-75.076008,78.70757,0.0],[-75.061702,78.707403,0.0],[-75.049645,78.707202,0.0],[-75.046595,78.70722,0.0],[-75.04359,78.706763,0.0],[-75.036893,78.706391,0.0],[-75.034882,78.706747,0.0],[-75.027342,78.706437,0.0],[-75.022991,78.70623,0.0],[-75.018635,78.706421,0.0],[-75.014373,78.706023,0.0],[-75.009794,78.705885,0.0],[-75.006281,78.706013,0.0],[-74.99887,78.705606,0.0],[-74.994696,78.705303,0.0],[-74.992186,78.70545,0.0],[-74.986913,78.705071,0.0],[-74.978873,78.704943,0.0],[-74.973971,78.704248,0.0],[-74.968715,78.70422,0.0],[-74.967125,78.704545,0.0],[-74.963494,78.704511,0.0],[-74.958129,78.703926,0.0],[-74.954934,78.704218,0.0],[-74.953067,78.704299,0.0],[-74.949687,78.703794,0.0],[-74.944841,78.703377,0.0],[-74.94195,78.703477,0.0],[-74.932882,78.703264,0.0],[-74.929808,78.702947,0.0],[-74.927439,78.702943,0.0],[-74.920682,78.702729,0.0],[-74.918301,78.702331,0.0],[-74.914722,78.702353,0.0],[-74.907699,78.702145,0.0],[-74.904575,78.701922,0.0],[-74.901914,78.702034,0.0],[-74.897258,78.701963,0.0],[-74.89302,78.701399,0.0],[-74.88907,78.701519,0.0],[-74.881407,78.701287,0.0],[-74.879913,78.700748,0.0],[-74.875693,78.700756,0.0],[-74.871448,78.70051,0.0],[-74.867882,78.699954,0.0],[-74.86248,78.699806,0.0],[-74.858291,78.699594,0.0],[-74.855229,78.698882,0.0],[-74.846913,78.698691,0.0],[-74.842492,78.69797,0.0],[-74.84458,78.697419,0.0],[-74.845098,78.69697,0.0],[-74.844525,78.696499,0.0],[-74.846118,78.6961,0.0],[-74.849224,78.695705,0.0],[-74.850315,78.695215,0.0],[-74.848323,78.694822,0.0],[-74.848425,78.694122,0.0],[-74.850835,78.69374,0.0],[-74.850276,78.693242,0.0],[-74.850636,78.692574,0.0],[-74.848357,78.692203,0.0],[-74.848244,78.69139,0.0],[-74.844769,78.690836,0.0],[-74.843897,78.690058,0.0],[-74.847,78.68949,0.0],[-74.845816,78.688494,0.0],[-74.847552,78.688066,0.0],[-74.851639,78.688066,0.0],[-74.8551,78.687632,0.0],[-74.855661,78.686588,0.0],[-74.857991,78.686256,0.0],[-74.858562,78.685593,0.0],[-74.861026,78.685011,0.0],[-74.861486,78.683754,0.0],[-74.8588,78.68315,0.0],[-74.858499,78.682511,0.0],[-74.85784,78.681737,0.0],[-74.860672,78.680867,0.0],[-74.862116,78.68018,0.0],[-74.861468,78.678985,0.0],[-74.860541,78.67791,0.0],[-74.854746,78.677495,0.0],[-74.85411,78.67668,0.0],[-74.856285,78.676186,0.0],[-74.866752,78.675595,0.0],[-74.868968,78.675632,0.0],[-74.871487,78.675694,0.0],[-74.881511,78.675356,0.0],[-74.887813,78.675072,0.0],[-74.898242,78.674962,0.0],[-74.905228,78.674431,0.0],[-74.913046,78.67395,0.0],[-74.920516,78.6738,0.0],[-74.926124,78.673273,0.0],[-74.933933,78.673129,0.0],[-74.939011,78.672626,0.0],[-74.945655,78.672086,0.0],[-74.951682,78.671737,0.0],[-74.955218,78.670897,0.0],[-74.962129,78.670498,0.0],[-74.968377,78.670051,0.0],[-74.975129,78.669953,0.0],[-74.982021,78.669586,0.0],[-74.98583,78.669529,0.0],[-74.990642,78.669525,0.0],[-74.998876,78.669219,0.0],[-75.005069,78.668872,0.0],[-75.013607,78.66864,0.0],[-75.018336,78.668465,0.0],[-75.026642,78.667688,0.0],[-75.033361,78.667317,0.0],[-75.039282,78.666828,0.0],[-75.045418,78.666918,0.0],[-75.052298,78.667225,0.0],[-75.060505,78.667626,0.0],[-75.065725,78.667494,0.0],[-75.071621,78.667714,0.0],[-75.079117,78.66783,0.0],[-75.082361,78.668198,0.0],[-75.089142,78.668367,0.0],[-75.094628,78.669051,0.0],[-75.100408,78.669166,0.0],[-75.105542,78.6692,0.0],[-75.111307,78.669011,0.0],[-75.113163,78.668407,0.0],[-75.117365,78.667917,0.0],[-75.121979,78.667801,0.0],[-75.122303,78.667002,0.0],[-75.125523,78.666245,0.0],[-75.127182,78.66585,0.0],[-75.129359,78.665623,0.0],[-75.134253,78.665788,0.0],[-75.139095,78.66639,0.0],[-75.143022,78.666096,0.0],[-75.144859,78.665863,0.0],[-75.145296,78.665303,0.0],[-75.143959,78.664968,0.0],[-75.14102,78.664977,0.0],[-75.136085,78.664844,0.0],[-75.132864,78.664478,0.0],[-75.128139,78.664654,0.0],[-75.12345,78.664426,0.0],[-75.121735,78.664089,0.0],[-75.116232,78.663439,0.0],[-75.115574,78.662717,0.0],[-75.115594,78.662009,0.0],[-75.116123,78.661648,0.0],[-75.1148,78.661217,0.0],[-75.108362,78.661055,0.0],[-75.103147,78.66085,0.0],[-75.096097,78.660878,0.0],[-75.091122,78.660964,0.0],[-75.088427,78.660225,0.0],[-75.088723,78.65965,0.0],[-75.099767,78.659554,0.0],[-75.106543,78.658371,0.0],[-75.119289,78.657042,0.0],[-75.133913,78.656752,0.0],[-75.151483,78.65594,0.0],[-75.153955,78.653721,0.0],[-75.156956,78.65204,0.0],[-75.153165,78.651069,0.0],[-75.150327,78.650854,0.0],[-75.151523,78.64956,0.0],[-75.157607,78.649405,0.0],[-75.162052,78.649926,0.0],[-75.173616,78.649837,0.0],[-75.181294,78.6488,0.0],[-75.185098,78.647796,0.0],[-75.200584,78.647362,0.0],[-75.237734,78.647508,0.0],[-75.25588,78.648704,0.0],[-75.294866,78.648931,0.0],[-75.315654,78.650755,0.0],[-75.352653,78.652307,0.0],[-75.365955,78.651401,0.0],[-75.383964,78.651268,0.0],[-75.403652,78.651536,0.0],[-75.416898,78.650732,0.0],[-75.418595,78.649446,0.0],[-75.430574,78.649039,0.0],[-75.464843,78.646204,0.0],[-75.477904,78.643601,0.0],[-75.480688,78.640596,0.0],[-75.474028,78.637204,0.0],[-75.476228,78.633187,0.0],[-75.490547,78.632874,0.0],[-75.52132,78.632814,0.0],[-75.529255,78.630747,0.0],[-75.528314,78.627673,0.0],[-75.521902,78.624866,0.0],[-75.518329,78.621767,0.0],[-75.530551,78.621284,0.0],[-75.537772,78.621228,0.0],[-75.548507,78.620338,0.0],[-75.553265,78.618966,0.0],[-75.56,78.618979,0.0],[-75.567364,78.619447,0.0],[-75.568367,78.620298,0.0],[-75.571294,78.621239,0.0],[-75.586058,78.623894,0.0],[-75.592527,78.625676,0.0],[-75.593825,78.627695,0.0],[-75.601923,78.629008,0.0],[-75.609641,78.630535,0.0],[-75.610421,78.63127,0.0],[-75.613406,78.6321,0.0],[-75.622746,78.632554,0.0],[-75.632491,78.63278,0.0],[-75.642863,78.632248,0.0],[-75.656222,78.632545,0.0],[-75.669757,78.633676,0.0],[-75.67825,78.634162,0.0],[-75.683956,78.633988,0.0],[-75.688191,78.633343,0.0],[-75.694327,78.632234,0.0],[-75.705355,78.631489,0.0],[-75.741181,78.63118,0.0],[-75.745791,78.631787,0.0],[-75.7522,78.631375,0.0],[-75.758242,78.629818,0.0],[-75.770971,78.628204,0.0],[-75.791596,78.62778,0.0],[-75.818917,78.62826,0.0],[-75.859501,78.628881,0.0],[-75.912144,78.629354,0.0],[-75.925598,78.62906,0.0],[-75.940048,78.628519,0.0],[-75.952063,78.628462,0.0],[-75.963981,78.627614,0.0],[-75.969228,78.626326,0.0],[-75.988027,78.62542,0.0],[-75.987157,78.628303,0.0],[-75.995437,78.628825,0.0],[-76.001304,78.630449,0.0],[-75.998373,78.634517,0.0],[-75.997416,78.639382,0.0],[-76.006012,78.640976,0.0],[-76.00689,78.642516,0.0],[-76.018761,78.643707,0.0],[-76.033548,78.641744,0.0],[-76.064938,78.641659,0.0],[-76.078249,78.644016,0.0],[-76.079323,78.646931,0.0],[-76.083098,78.648062,0.0],[-76.099094,78.646878,0.0],[-76.110314,78.645081,0.0],[-76.116057,78.641593,0.0],[-76.149398,78.63871,0.0],[-76.180071,78.637534,0.0],[-76.210232,78.637566,0.0],[-76.24454,78.639128,0.0],[-76.273006,78.636365,0.0],[-76.294505,78.631558,0.0],[-76.314703,78.634291,0.0],[-76.333655,78.636225,0.0],[-76.36179,78.634107,0.0],[-76.397323,78.63211,0.0],[-76.473886,78.633291,0.0],[-76.510846,78.630805,0.0],[-76.526719,78.628709,0.0],[-76.537568,78.63013,0.0],[-76.559293,78.631184,0.0],[-76.578804,78.630154,0.0],[-76.601305,78.628307,0.0],[-76.624841,78.622838,0.0],[-76.689542,78.61559,0.0],[-76.732821,78.609938,0.0],[-76.770165,78.6081,0.0],[-76.778775,78.610593,0.0],[-76.79744,78.613576,0.0],[-76.817291,78.619153,0.0],[-76.858289,78.622935,0.0],[-76.873786,78.626984,0.0],[-76.896345,78.630084,0.0],[-76.912411,78.62961,0.0],[-76.93558,78.626028,0.0],[-76.941414,78.624506,0.0],[-76.971454,78.624429,0.0],[-76.998418,78.625074,0.0],[-77.050678,78.624035,0.0],[-77.078593,78.620854,0.0],[-77.094432,78.617859,0.0],[-77.132912,78.618441,0.0],[-77.145734,78.620411,0.0],[-77.182447,78.621882,0.0],[-77.186252,78.62766,0.0],[-77.194569,78.630458,0.0],[-77.210566,78.642034,0.0],[-77.261112,78.652574,0.0],[-77.317814,78.65782,0.0],[-77.370968,78.658709,0.0],[-77.426942,78.65748,0.0],[-77.478864,78.653588,0.0],[-77.504517,78.652849,0.0],[-77.528306,78.655053,0.0],[-77.542064,78.658102,0.0],[-77.552902,78.661115,0.0],[-77.571264,78.661906,0.0],[-77.586531,78.663237,0.0],[-77.603526,78.666073,0.0],[-77.597679,78.668562,0.0],[-77.58606,78.67069,0.0],[-77.574369,78.671182,0.0],[-77.564485,78.673659,0.0],[-77.554378,78.675763,0.0],[-77.53174,78.676077,0.0],[-77.516857,78.676673,0.0],[-77.492135,78.680549,0.0],[-77.484419,78.686299,0.0],[-77.48545,78.689587,0.0],[-77.491178,78.693313,0.0],[-77.502095,78.696136,0.0],[-77.523656,78.698004,0.0],[-77.533046,78.700926,0.0],[-77.515763,78.702842,0.0],[-77.509639,78.706813,0.0],[-77.508584,78.710266,0.0],[-77.522402,78.713315,0.0],[-77.543591,78.715057,0.0],[-77.562289,78.718013,0.0],[-77.560558,78.720496,0.0],[-77.559054,78.725484,0.0],[-77.545489,78.728022,0.0],[-77.532734,78.727874,0.0],[-77.522234,78.726789,0.0],[-77.497845,78.732472,0.0],[-77.478901,78.733212,0.0],[-77.463554,78.731875,0.0],[-77.454515,78.729265,0.0],[-77.427964,78.729141,0.0],[-77.403738,78.727888,0.0],[-77.351625,78.72764,0.0],[-77.283134,78.729298,0.0],[-77.241271,78.73378,0.0],[-77.192889,78.737019,0.0],[-77.15337,78.737283,0.0],[-77.139128,78.735769,0.0],[-77.123462,78.732466,0.0],[-77.115743,78.729092,0.0],[-77.09456,78.72766,0.0],[-77.051149,78.727859,0.0],[-77.012773,78.727733,0.0],[-76.987279,78.727392,0.0],[-76.960467,78.727993,0.0],[-76.939443,78.726166,0.0],[-76.915004,78.72564,0.0],[-76.892321,78.725714,0.0],[-76.880339,78.723429,0.0],[-76.865387,78.721332,0.0],[-76.855339,78.720943,0.0],[-76.847262,78.719419,0.0],[-76.838674,78.717361,0.0],[-76.837148,78.715633,0.0],[-76.846519,78.715763,0.0],[-76.849422,78.715517,0.0],[-76.855284,78.714533,0.0],[-76.860955,78.714073,0.0],[-76.861434,78.712751,0.0],[-76.860199,78.712446,0.0],[-76.854785,78.712371,0.0],[-76.85313,78.712887,0.0],[-76.846277,78.713067,0.0],[-76.841845,78.713819,0.0],[-76.833632,78.713704,0.0],[-76.832332,78.713411,0.0],[-76.828317,78.713354,0.0],[-76.825318,78.713863,0.0],[-76.823671,78.714355,0.0],[-76.818155,78.714553,0.0],[-76.811144,78.714993,0.0],[-76.805366,78.715738,0.0],[-76.802435,78.716223,0.0],[-76.799399,78.716994,0.0],[-76.796542,78.716954,0.0],[-76.794317,78.715845,0.0],[-76.79315,78.715027,0.0],[-76.790715,78.714166,0.0],[-76.785301,78.71409,0.0],[-76.783611,78.714856,0.0],[-76.778025,78.715076,0.0],[-76.773852,78.71528,0.0],[-76.76922,78.716556,0.0],[-76.766278,78.717064,0.0],[-76.761937,78.717553,0.0],[-76.760598,78.717534,0.0],[-76.759426,78.71723,0.0],[-76.758165,78.716674,0.0],[-76.754287,78.71608,0.0],[-76.755923,78.715301,0.0],[-76.756224,78.714491,0.0],[-76.753685,78.713916,0.0],[-76.751009,78.713878,0.0],[-76.749564,78.714145,0.0],[-76.747453,78.715707,0.0],[-76.744576,78.716205,0.0],[-76.744274,78.717014,0.0],[-76.741288,78.717517,0.0],[-76.738373,78.717744,0.0],[-76.734157,78.718223,0.0],[-76.731213,78.718731,0.0],[-76.728474,78.718692,0.0],[-76.725843,78.718367,0.0],[-76.725045,78.716739,0.0],[-76.722508,78.716164,0.0],[-76.718431,78.716105,0.0],[-76.715721,78.716318,0.0],[-76.708785,78.716218,0.0],[-76.704441,78.716706,0.0],[-76.698759,78.717175,0.0],[-76.689206,78.717037,0.0],[-76.686325,78.716476,0.0],[-76.681532,78.716093,0.0],[-76.675558,78.716564,0.0],[-76.670035,78.716771,0.0],[-76.667401,78.716457,0.0],[-76.666105,78.716163,0.0],[-76.664706,78.716143,0.0],[-76.658818,78.717147,0.0],[-76.650604,78.717027,0.0],[-76.640952,78.717149,0.0],[-76.639408,78.717665,0.0],[-76.637748,78.718168,0.0],[-76.636304,78.718422,0.0],[-76.63095,78.718344,0.0],[-76.629734,78.717524,0.0],[-76.627162,78.717211,0.0],[-76.624424,78.71717,0.0],[-76.621415,78.717677,0.0],[-76.613051,78.718105,0.0],[-76.608445,78.718589,0.0],[-76.605964,78.718551,0.0],[-76.603442,78.717951,0.0],[-76.599304,78.71789,0.0],[-76.598076,78.717585,0.0],[-76.596851,78.717568,0.0],[-76.593858,78.717793,0.0],[-76.59334,78.719133,0.0],[-76.596068,78.719459,0.0],[-76.602822,78.719559,0.0],[-76.60406,78.71984,0.0],[-76.609493,78.720196,0.0],[-76.610832,78.720215,0.0],[-76.617753,78.720042,0.0],[-76.62323,78.720122,0.0],[-76.624525,78.720417,0.0],[-76.628603,78.720477,0.0],[-76.634189,78.720271,0.0],[-76.638032,78.72139,0.0],[-76.63445,78.723451,0.0],[-76.630487,78.724559,0.0],[-76.630154,78.725428,0.0],[-76.637777,78.725467,0.0],[-76.640094,78.72623,0.0],[-76.637714,78.727579,0.0],[-76.633944,78.72818,0.0],[-76.630919,78.729265,0.0],[-76.622579,78.7306,0.0],[-76.615031,78.731327,0.0],[-76.609795,78.730886,0.0],[-76.604976,78.730815,0.0],[-76.599692,78.731466,0.0],[-76.596768,78.733244,0.0],[-76.589447,78.732829,0.0],[-76.586826,78.732511,0.0],[-76.5842,78.732204,0.0],[-76.582985,78.731649,0.0],[-76.579417,78.730233,0.0],[-76.57437,78.729096,0.0],[-76.571896,78.728255,0.0],[-76.566551,78.727885,0.0],[-76.55689,78.727741,0.0],[-76.552633,78.728248,0.0],[-76.55107,78.728738,0.0],[-76.546751,78.728965,0.0],[-76.543918,78.729191,0.0],[-76.542568,78.729427,0.0],[-76.540995,78.72994,0.0],[-76.537626,78.731242,0.0],[-76.534789,78.731479,0.0],[-76.530639,78.731417,0.0],[-76.522819,78.730216,0.0],[-76.520147,78.730176,0.0],[-76.514214,78.73116,0.0],[-76.513689,78.732493,0.0],[-76.512211,78.732761,0.0],[-76.510596,78.733519,0.0],[-76.50854,78.735109,0.0],[-76.505534,78.735623,0.0],[-76.502659,78.736384,0.0],[-76.500913,78.736895,0.0],[-76.499337,78.737407,0.0],[-76.496339,78.737899,0.0],[-76.493504,78.738124,0.0],[-76.492247,78.7381,0.0],[-76.491041,78.73755,0.0],[-76.490099,78.736463,0.0],[-76.487889,78.73482,0.0],[-76.486956,78.73371,0.0],[-76.485758,78.733413,0.0],[-76.485536,78.73123,0.0],[-76.484874,78.728571,0.0],[-76.483616,78.728283,0.0],[-76.484465,78.726139,0.0],[-76.483207,78.725852,0.0],[-76.480537,78.725811,0.0],[-76.479024,78.726023,0.0],[-76.476121,78.726281,0.0],[-76.471712,78.727019,0.0],[-76.462109,78.726873,0.0],[-76.460643,78.727107,0.0],[-76.453588,78.727285,0.0],[-76.449459,78.727485,0.0],[-76.449033,78.728551,0.0],[-76.447558,78.728808,0.0],[-76.444511,78.729566,0.0],[-76.442831,78.730334,0.0],[-76.442498,78.731168,0.0],[-76.439347,78.732182,0.0],[-76.438911,78.73327,0.0],[-76.437224,78.73377,0.0],[-76.434445,78.733996,0.0],[-76.432817,78.734776,0.0],[-76.432483,78.735609,0.0],[-76.429696,78.735566,0.0],[-76.425723,78.735204,0.0],[-76.417535,78.735078,0.0],[-76.414585,78.735301,0.0],[-76.411697,78.735793,0.0],[-76.407373,78.736017,0.0],[-76.405968,78.736521,0.0],[-76.398646,78.737224,0.0],[-76.394275,78.737705,0.0],[-76.39117,78.73873,0.0],[-76.386699,78.739454,0.0],[-76.382439,78.739936,0.0],[-76.377962,78.740672,0.0],[-76.369497,78.741077,0.0],[-76.36065,78.742561,0.0],[-76.357919,78.742519,0.0],[-76.357262,78.744129,0.0],[-76.35573,78.744374,0.0],[-76.354034,78.745164,0.0],[-76.353929,78.745419,0.0],[-76.35487,78.7465,0.0],[-76.357426,78.747095,0.0],[-76.35692,78.748486,0.0],[-76.35921,78.750198,0.0],[-76.361527,78.750926,0.0],[-76.364797,78.75207,0.0],[-76.363552,78.75329,0.0],[-76.356231,78.753832,0.0],[-76.345777,78.754727,0.0],[-76.338269,78.755266,0.0],[-76.324344,78.755048,0.0],[-76.310353,78.754537,0.0],[-76.296711,78.754542,0.0],[-76.294412,78.755541,0.0],[-76.289014,78.755456,0.0],[-76.286923,78.754715,0.0],[-76.282918,78.753559,0.0],[-76.280399,78.752426,0.0],[-76.275232,78.750922,0.0],[-76.276681,78.748525,0.0],[-76.287625,78.748698,0.0],[-76.289123,78.74845,0.0],[-76.290725,78.747949,0.0],[-76.311274,78.748272,0.0],[-76.311497,78.747731,0.0],[-76.307766,78.746866,0.0],[-76.307985,78.746334,0.0],[-76.309657,78.745543,0.0],[-76.311593,78.744231,0.0],[-76.316031,78.743494,0.0],[-76.317909,78.742434,0.0],[-76.319465,78.741924,0.0],[-76.319684,78.741392,0.0],[-76.317184,78.740808,0.0],[-76.317407,78.740267,0.0],[-76.318792,78.740289,0.0],[-76.320065,78.740581,0.0],[-76.321403,78.740602,0.0],[-76.322851,78.740353,0.0],[-76.323069,78.739821,0.0],[-76.321732,78.7398,0.0],[-76.322062,78.738998,0.0],[-76.323399,78.739019,0.0],[-76.325002,78.738509,0.0],[-76.325879,78.736373,0.0],[-76.327549,78.735582,0.0],[-76.330365,78.735626,0.0],[-76.34136,78.735526,0.0],[-76.342851,78.735287,0.0],[-76.344284,78.735309,0.0],[-76.34341,78.737445,0.0],[-76.344684,78.737737,0.0],[-76.350128,78.737822,0.0],[-76.351729,78.737312,0.0],[-76.352061,78.7365,0.0],[-76.356181,78.736292,0.0],[-76.357999,78.73525,0.0],[-76.361147,78.734483,0.0],[-76.361473,78.733681,0.0],[-76.360306,78.733127,0.0],[-76.360522,78.732596,0.0],[-76.363243,78.732638,0.0],[-76.369219,78.731642,0.0],[-76.372309,78.730892,0.0],[-76.381853,78.73104,0.0],[-76.383412,78.73051,0.0],[-76.387714,78.730323,0.0],[-76.390499,78.730085,0.0],[-76.394713,78.729878,0.0],[-76.397691,78.729398,0.0],[-76.401952,78.729192,0.0],[-76.403554,78.728672,0.0],[-76.406549,78.727911,0.0],[-76.406658,78.72764,0.0],[-76.405697,78.726809,0.0],[-76.403144,78.726235,0.0],[-76.400548,78.72565,0.0],[-76.396494,78.725587,0.0],[-76.390789,78.726044,0.0],[-76.387804,78.726542,0.0],[-76.386257,78.727044,0.0],[-76.382154,78.72698,0.0],[-76.382041,78.72726,0.0],[-76.372499,78.727112,0.0],[-76.371226,78.72682,0.0],[-76.367075,78.726756,0.0],[-76.363347,78.72589,0.0],[-76.356383,78.725782,0.0],[-76.353605,78.726002,0.0],[-76.346689,78.725894,0.0],[-76.342476,78.7261,0.0],[-76.340982,78.726349,0.0],[-76.336928,78.726286,0.0],[-76.33449,78.72544,0.0],[-76.329005,78.725354,0.0],[-76.326017,78.725852,0.0],[-76.322905,78.726098,0.0],[-76.320305,78.726551,0.0],[-76.314697,78.726763,0.0],[-76.312884,78.727786,0.0],[-76.311278,78.728305,0.0],[-76.308332,78.728813,0.0],[-76.300127,78.728684,0.0],[-76.296921,78.729703,0.0],[-76.291319,78.729896,0.0],[-76.289448,78.730937,0.0],[-76.28662,78.731155,0.0],[-76.285948,78.732778,0.0],[-76.280508,78.732692,0.0],[-76.276696,78.731806,0.0],[-76.275313,78.731784,0.0],[-76.271477,78.731188,0.0],[-76.269043,78.730342,0.0],[-76.2665,78.729757,0.0],[-76.265341,78.729194,0.0],[-76.261616,78.728337,0.0],[-76.256247,78.72797,0.0],[-76.252097,78.727904,0.0],[-76.249647,78.72733,0.0],[-76.246833,78.727285,0.0],[-76.243997,78.727521,0.0],[-76.242553,78.727761,0.0],[-76.220564,78.727409,0.0],[-76.213578,78.727579,0.0],[-76.210413,78.728598,0.0],[-76.207466,78.729096,0.0],[-76.203188,78.729562,0.0],[-76.201199,78.730863,0.0],[-76.199588,78.731382,0.0],[-76.198233,78.731632,0.0],[-76.196464,78.732411,0.0],[-76.196346,78.732691,0.0],[-76.198837,78.733276,0.0],[-76.199726,78.73436,0.0],[-76.200867,78.735186,0.0],[-76.201994,78.735476,0.0],[-76.203198,78.73604,0.0],[-76.204425,78.736323,0.0],[-76.205391,78.737681,0.0],[-76.206566,78.737972,0.0],[-76.207451,78.739066,0.0],[-76.208612,78.73962,0.0],[-76.207705,78.741774,0.0],[-76.20621,78.742013,0.0],[-76.205648,78.743347,0.0],[-76.206986,78.743368,0.0],[-76.20948,78.743953,0.0],[-76.21069,78.744507,0.0],[-76.21012,78.74586,0.0],[-76.210948,78.747206,0.0],[-76.212106,78.747769,0.0],[-76.213334,78.748052,0.0],[-76.218664,78.748419,0.0],[-76.213969,78.749584,0.0],[-76.204523,78.750083,0.0],[-76.199011,78.751126,0.0],[-76.191873,78.752526,0.0],[-76.169758,78.752258,0.0],[-76.160484,78.75187,0.0],[-76.153838,78.751412,0.0],[-76.156712,78.751192,0.0],[-76.156938,78.750661,0.0],[-76.159858,78.750433,0.0],[-76.161401,78.749924,0.0],[-76.165591,78.749725,0.0],[-76.167381,78.748936,0.0],[-76.170395,78.748184,0.0],[-76.170849,78.747114,0.0],[-76.172637,78.746325,0.0],[-76.174481,78.745003,0.0],[-76.177578,78.744252,0.0],[-76.179246,78.743745,0.0],[-76.180678,78.743492,0.0],[-76.180906,78.742954,0.0],[-76.17822,78.742635,0.0],[-76.174385,78.742306,0.0],[-76.174722,78.74151,0.0],[-76.17211,78.740917,0.0],[-76.169436,78.740874,0.0],[-76.16792,78.741124,0.0],[-76.164707,78.742149,0.0],[-76.164252,78.743218,0.0],[-76.162774,78.743478,0.0],[-76.160848,78.744791,0.0],[-76.160502,78.745603,0.0],[-76.158763,78.746376,0.0],[-76.157736,78.748788,0.0],[-76.155692,78.750374,0.0],[-76.150212,78.750285,0.0],[-76.147225,78.750771,0.0],[-76.146998,78.751301,0.0],[-76.141761,78.751864,0.0],[-76.134591,78.751895,0.0],[-76.132941,78.751126,0.0],[-76.131444,78.749646,0.0],[-76.132226,78.748173,0.0],[-76.136258,78.746932,0.0],[-76.138098,78.743695,0.0],[-76.1358,78.741959,0.0],[-76.136375,78.740615,0.0],[-76.140467,78.740682,0.0],[-76.144785,78.740218,0.0],[-76.147922,78.73945,0.0],[-76.152162,78.738992,0.0],[-76.155183,78.738492,0.0],[-76.15621,78.73608,0.0],[-76.157585,78.736102,0.0],[-76.163505,78.735123,0.0],[-76.163731,78.734593,0.0],[-76.166827,78.733824,0.0],[-76.170032,78.7328,0.0],[-76.17186,78.731754,0.0],[-76.172208,78.730933,0.0],[-76.173654,78.730701,0.0],[-76.175294,78.730186,0.0],[-76.176087,78.728311,0.0],[-76.177687,78.727803,0.0],[-76.177914,78.727266,0.0],[-76.173978,78.726931,0.0],[-76.16703,78.726819,0.0],[-76.15466,78.726874,0.0],[-76.153091,78.727134,0.0],[-76.148926,78.727337,0.0],[-76.1406,78.727472,0.0],[-76.137469,78.728233,0.0],[-76.134648,78.728443,0.0],[-76.133199,78.728682,0.0],[-76.127541,78.728875,0.0],[-76.127314,78.729406,0.0],[-76.125821,78.729659,0.0],[-76.117571,78.729524,0.0],[-76.115088,78.728942,0.0],[-76.114211,78.727845,0.0],[-76.111689,78.72727,0.0],[-76.106346,78.726904,0.0],[-76.10505,78.726612,0.0],[-76.101,78.726546,0.0],[-76.09951,78.726792,0.0],[-76.095423,78.726724,0.0],[-76.092869,78.726141,0.0],[-76.088782,78.726074,0.0],[-76.07621,78.726422,0.0],[-76.073385,78.726639,0.0],[-76.070444,78.727124,0.0],[-76.068725,78.727637,0.0],[-76.065783,78.728123,0.0],[-76.062955,78.728347,0.0],[-76.057456,78.728256,0.0],[-76.056231,78.727972,0.0],[-76.052145,78.727904,0.0],[-76.050653,78.72815,0.0],[-76.042331,78.728012,0.0],[-76.034311,78.727608,0.0],[-76.0329,78.727584,0.0],[-76.029997,78.728062,0.0],[-76.025712,78.728276,0.0],[-76.024106,78.728784,0.0],[-76.018604,78.728955,0.0],[-76.019515,78.729783,0.0],[-76.020927,78.729806,0.0],[-76.020578,78.730605,0.0],[-76.017902,78.73056,0.0],[-76.016685,78.730006,0.0],[-76.012641,78.729668,0.0],[-76.010238,78.729086,0.0],[-76.006114,78.729017,0.0],[-76.003206,78.729246,0.0],[-75.993387,78.729616,0.0],[-75.988831,78.730615,0.0],[-75.981767,78.730759,0.0],[-75.97897,78.73099,0.0],[-75.97606,78.731475,0.0],[-75.971621,78.731949,0.0],[-75.968474,78.732972,0.0],[-75.967764,78.734577,0.0],[-75.974014,78.736029,0.0],[-75.977863,78.736642,0.0],[-75.980499,78.73695,0.0],[-75.983047,78.737542,0.0],[-75.985724,78.737843,0.0],[-75.993428,78.739063,0.0],[-75.9974,78.7394,0.0],[-75.998658,78.739692,0.0],[-76.005501,78.739807,0.0],[-76.00661,78.740352,0.0],[-76.00767,78.741182,0.0],[-76.010193,78.741751,0.0],[-76.009954,78.742296,0.0],[-76.010973,78.743132,0.0],[-76.012229,78.743431,0.0],[-76.01456,78.744268,0.0],[-76.01834,78.745136,0.0],[-76.02239,78.745474,0.0],[-76.024636,78.746594,0.0],[-76.029693,78.746969,0.0],[-76.031171,78.747508,0.0],[-76.032196,78.748337,0.0],[-76.043018,78.748795,0.0],[-76.045588,78.749094,0.0],[-76.047002,78.749117,0.0],[-76.046768,78.749655,0.0],[-76.04393,78.749886,0.0],[-76.035824,78.749473,0.0],[-76.032915,78.749695,0.0],[-76.027481,78.749605,0.0],[-76.022127,78.749245,0.0],[-76.019527,78.748931,0.0],[-76.013981,78.748838,0.0],[-76.012483,78.749091,0.0],[-76.011661,78.750965,0.0],[-76.013001,78.750988,0.0],[-76.011981,78.7534,0.0],[-76.014736,78.753446,0.0],[-76.014503,78.753976,0.0],[-76.01706,78.75456,0.0],[-76.025216,78.754696,0.0],[-76.029547,78.754227,0.0],[-76.032383,78.754003,0.0],[-76.035213,78.754051,0.0],[-76.037889,78.754366,0.0],[-76.04041,78.754949,0.0],[-76.043017,78.754992,0.0],[-76.044512,78.754746,0.0],[-76.046509,78.753433,0.0],[-76.048895,78.751314,0.0],[-76.050235,78.751337,0.0],[-76.054176,78.751673,0.0],[-76.058109,78.752286,0.0],[-76.060597,78.752862,0.0],[-76.061975,78.752884,0.0],[-76.063355,78.755004,0.0],[-76.061766,78.756909,0.0],[-76.059802,78.758273,0.0],[-76.053591,78.759499,0.0],[-76.050789,78.759453,0.0],[-76.049249,78.759944,0.0],[-76.046448,78.759897,0.0],[-76.046794,78.759103,0.0],[-76.042792,78.75877,0.0],[-76.0346,78.758634,0.0],[-76.034368,78.759163,0.0],[-76.027449,78.759048,0.0],[-76.025971,78.759299,0.0],[-76.025508,78.760358,0.0],[-76.026599,78.761185,0.0],[-76.023797,78.761139,0.0],[-76.019982,78.760283,0.0],[-76.017195,78.760495,0.0],[-76.014199,78.760987,0.0],[-76.014086,78.761244,0.0],[-76.015286,78.76153,0.0],[-76.013688,78.762054,0.0],[-76.010731,78.762555,0.0],[-76.010382,78.763349,0.0],[-76.00898,78.763326,0.0],[-76.007502,78.763576,0.0],[-76.005867,78.764083,0.0],[-76.002835,78.764849,0.0],[-76.002606,78.76537,0.0],[-76.0052,78.765697,0.0],[-76.006369,78.76625,0.0],[-75.994281,78.766244,0.0],[-75.98699,78.766182,0.0],[-75.986027,78.765601,0.0],[-75.975171,78.764645,0.0],[-75.976118,78.762505,0.0],[-75.977609,78.76226,0.0],[-75.9782,78.760923,0.0],[-75.97412,78.760854,0.0],[-75.974242,78.760579,0.0],[-75.97554,78.760601,0.0],[-75.978558,78.760113,0.0],[-75.98166,78.759349,0.0],[-75.983654,78.758049,0.0],[-75.985269,78.757523,0.0],[-75.984248,78.756704,0.0],[-75.984717,78.755642,0.0],[-75.983659,78.754822,0.0],[-75.979824,78.754204,0.0],[-75.979939,78.753944,0.0],[-75.982763,78.753722,0.0],[-75.982888,78.75344,0.0],[-75.9803,78.753127,0.0],[-75.980415,78.752867,0.0],[-75.983357,78.752377,0.0],[-75.984183,78.750504,0.0],[-75.983169,78.749671,0.0],[-75.982034,78.749113,0.0],[-75.983557,78.748877,0.0],[-75.983793,78.748341,0.0],[-75.981173,78.748021,0.0],[-75.982114,78.745887,0.0],[-75.980983,78.745322,0.0],[-75.97973,78.745031,0.0],[-75.978795,78.743938,0.0],[-75.973824,78.742776,0.0],[-75.968428,78.742408,0.0],[-75.964318,78.742339,0.0],[-75.9604,78.742003,0.0],[-75.959193,78.741444,0.0],[-75.957823,78.74142,0.0],[-75.956334,78.741665,0.0],[-75.953594,78.741618,0.0],[-75.955436,78.740579,0.0],[-75.953089,78.73973,0.0],[-75.950312,78.739683,0.0],[-75.936917,78.741875,0.0],[-75.933578,78.743173,0.0],[-75.926162,78.74441,0.0],[-75.924127,78.745708,0.0],[-75.920912,78.746725,0.0],[-75.919183,78.747504,0.0],[-75.916374,78.750698,0.0],[-75.914678,78.751485,0.0],[-75.914438,78.75202,0.0],[-75.914576,78.754718,0.0],[-75.918331,78.75559,0.0],[-75.918092,78.756126,0.0],[-75.913977,78.756055,0.0],[-75.913498,78.757126,0.0],[-75.914787,78.757417,0.0],[-75.914544,78.757959,0.0],[-75.913053,78.758203,0.0],[-75.912816,78.758731,0.0],[-75.915284,78.759312,0.0],[-75.915164,78.75958,0.0],[-75.913829,78.759557,0.0],[-75.910965,78.759778,0.0],[-75.906849,78.759708,0.0],[-75.907329,78.758638,0.0],[-75.906077,78.758347,0.0],[-75.90655,78.757291,0.0],[-75.905668,78.756176,0.0],[-75.907362,78.755396,0.0],[-75.907598,78.754869,0.0],[-75.905132,78.754287,0.0],[-75.903761,78.754264,0.0],[-75.900735,78.754766,0.0],[-75.899456,78.754453,0.0],[-75.904081,78.753468,0.0],[-75.904683,78.752123,0.0],[-75.902215,78.751549,0.0],[-75.896694,78.751455,0.0],[-75.895209,78.751685,0.0],[-75.894845,78.752494,0.0],[-75.889324,78.7524,0.0],[-75.888478,78.75428,0.0],[-75.891018,78.754862,0.0],[-75.890777,78.755397,0.0],[-75.889369,78.755373,0.0],[-75.886385,78.755861,0.0],[-75.883525,78.756075,0.0],[-75.883401,78.756349,0.0],[-75.879076,78.756953,0.0],[-75.870697,78.756932,0.0],[-75.870933,78.756408,0.0],[-75.872541,78.755892,0.0],[-75.875393,78.755664,0.0],[-75.875793,78.754867,0.0],[-75.872061,78.753999,0.0],[-75.865202,78.753881,0.0],[-75.863076,78.755453,0.0],[-75.859943,78.756211,0.0],[-75.85685,78.75697,0.0],[-75.855242,78.757487,0.0],[-75.850948,78.757681,0.0],[-75.845166,78.758393,0.0],[-75.844203,78.760514,0.0],[-75.845239,78.761352,0.0],[-75.840063,78.762387,0.0],[-75.840973,78.764319,0.0],[-75.840352,78.766339,0.0],[-75.837187,78.766749,0.0],[-75.832294,78.766374,0.0]],[[-75.742022,78.753887,0.0],[-75.746256,78.753702,0.0],[-75.747921,78.753202,0.0],[-75.752168,78.752987,0.0],[-75.757828,78.752817,0.0],[-75.762313,78.752086,0.0],[-75.766623,78.751622,0.0],[-75.772227,78.751461,0.0],[-75.773767,78.751228,0.0],[-75.777835,78.751289,0.0],[-75.780645,78.751078,0.0],[-75.789026,78.751225,0.0],[-75.789149,78.750957,0.0],[-75.785412,78.750063,0.0],[-75.78399,78.750038,0.0],[-75.782864,78.749479,0.0],[-75.781561,78.749196,0.0],[-75.781929,78.748394,0.0],[-75.783423,78.74815,0.0],[-75.786292,78.74792,0.0],[-75.78641,78.747663,0.0],[-75.783969,78.747071,0.0],[-75.783212,78.745709,0.0],[-75.782087,78.74515,0.0],[-75.783192,78.742742,0.0],[-75.7804,78.742693,0.0],[-75.780523,78.742425,0.0],[-75.776412,78.742353,0.0],[-75.776658,78.741818,0.0],[-75.778151,78.741574,0.0],[-75.783733,78.741672,0.0],[-75.784985,78.741954,0.0],[-75.786055,78.742522,0.0],[-75.788668,78.742847,0.0],[-75.791164,78.74343,0.0],[-75.792345,78.74398,0.0],[-75.79479,78.744562,0.0],[-75.796018,78.745123,0.0],[-75.796869,78.745947,0.0],[-75.798045,78.746507,0.0],[-75.797674,78.74732,0.0],[-75.794814,78.74753,0.0],[-75.794687,78.747807,0.0],[-75.795889,78.748088,0.0],[-75.79515,78.749703,0.0],[-75.796449,78.749996,0.0],[-75.796331,78.750253,0.0],[-75.792044,78.750448,0.0],[-75.791917,78.750726,0.0],[-75.794542,78.751031,0.0],[-75.798427,78.751379,0.0],[-75.805513,78.751222,0.0],[-75.808331,78.750992,0.0],[-75.811411,78.750526,0.0],[-75.815423,78.750596,0.0],[-75.817267,78.749808,0.0],[-75.818587,78.749831,0.0],[-75.821259,78.750147,0.0],[-75.82351,78.751275,0.0],[-75.831738,78.751418,0.0],[-75.831046,78.749788,0.0],[-75.824362,78.749402,0.0],[-75.819,78.749039,0.0],[-75.819609,78.747701,0.0],[-75.818365,78.7474,0.0],[-75.817309,78.746573,0.0],[-75.81606,78.746281,0.0],[-75.814689,78.746257,0.0],[-75.814933,78.745722,0.0],[-75.816355,78.745747,0.0],[-75.818036,78.744977,0.0],[-75.818284,78.744432,0.0],[-75.817128,78.744162,0.0],[-75.813041,78.743811,0.0],[-75.813534,78.742731,0.0],[-75.812529,78.741904,0.0],[-75.811403,78.741345,0.0],[-75.80908,78.740496,0.0],[-75.80634,78.740448,0.0],[-75.806584,78.739913,0.0],[-75.803873,78.739576,0.0],[-75.80472,78.737723,0.0],[-75.809128,78.73725,0.0],[-75.812107,78.736773,0.0],[-75.821746,78.73694,0.0],[-75.821868,78.736672,0.0],[-75.825926,78.736743,0.0],[-75.827174,78.737034,0.0],[-75.831162,78.737373,0.0],[-75.833663,78.737946,0.0],[-75.836277,78.738271,0.0],[-75.838774,78.738853,0.0],[-75.839831,78.739681,0.0],[-75.844776,78.740845,0.0],[-75.844048,78.742451,0.0],[-75.845469,78.742475,0.0],[-75.84691,78.742231,0.0],[-75.848649,78.741441,0.0],[-75.850574,78.740126,0.0],[-75.852404,78.739359,0.0],[-75.856589,78.739151,0.0],[-75.860936,78.738697,0.0],[-75.863969,78.73821,0.0],[-75.869398,78.738303,0.0],[-75.870698,78.738595,0.0],[-75.88445,78.738831,0.0],[-75.885584,78.73938,0.0],[-75.884381,78.742056,0.0],[-75.878848,78.741961,0.0],[-75.875811,78.742459,0.0],[-75.875699,78.742706,0.0],[-75.879963,78.74278,0.0],[-75.882473,78.743112,0.0],[-75.883724,78.743403,0.0],[-75.893267,78.743567,0.0],[-75.894929,78.743056,0.0],[-75.898275,78.741755,0.0],[-75.900005,78.740975,0.0],[-75.902811,78.740764,0.0],[-75.907456,78.739754,0.0],[-75.909236,78.738976,0.0],[-75.912041,78.738764,0.0],[-75.915195,78.737999,0.0],[-75.919494,78.737532,0.0],[-75.922422,78.737043,0.0],[-75.925524,78.736277,0.0],[-75.928736,78.735263,0.0],[-75.932479,78.733169,0.0],[-75.934202,78.732399,0.0],[-75.934431,78.731884,0.0],[-75.93401,78.729959,0.0],[-75.931399,78.729395,0.0],[-75.928836,78.729072,0.0],[-75.924797,78.728734,0.0],[-75.912426,78.728523,0.0],[-75.90419,78.728662,0.0],[-75.904079,78.728909,0.0],[-75.905328,78.729201,0.0],[-75.905089,78.729736,0.0],[-75.897658,78.730697,0.0],[-75.890965,78.730583,0.0],[-75.889619,78.73028,0.0],[-75.890219,78.728942,0.0],[-75.887726,78.72835,0.0],[-75.872669,78.728091,0.0],[-75.862907,78.728213,0.0],[-75.861469,78.728458,0.0],[-75.852893,78.729119,0.0],[-75.845937,78.729248,0.0],[-75.845811,78.729526,0.0],[-75.838967,78.729407,0.0],[-75.835224,78.728533,0.0],[-75.832436,78.728485,0.0],[-75.830941,78.728739,0.0],[-75.818572,78.728524,0.0],[-75.81696,78.729035,0.0],[-75.808819,78.728624,0.0],[-75.805943,78.729103,0.0],[-75.803083,78.729323,0.0],[-75.800346,78.729275,0.0],[-75.799157,78.728997,0.0],[-75.790933,78.728851,0.0],[-75.789641,78.728549,0.0],[-75.778692,78.728357,0.0],[-75.774408,78.728562,0.0],[-75.766129,78.728676,0.0],[-75.7619,78.728872,0.0],[-75.756302,78.729043,0.0],[-75.756174,78.729321,0.0],[-75.758848,78.729617,0.0],[-75.758228,78.730965,0.0],[-75.759104,78.732059,0.0],[-75.760396,78.732362,0.0],[-75.760858,78.734248,0.0],[-75.763295,78.73484,0.0],[-75.762187,78.737249,0.0],[-75.763556,78.737273,0.0],[-75.763068,78.738333,0.0],[-75.758585,78.739073,0.0],[-75.757105,78.742284,0.0],[-75.758348,78.742586,0.0],[-75.757731,78.743924,0.0],[-75.753552,78.74411,0.0],[-75.753305,78.744645,0.0],[-75.754255,78.745471,0.0],[-75.753884,78.746274,0.0],[-75.747031,78.746153,0.0],[-75.746655,78.746966,0.0],[-75.745115,78.747198,0.0],[-75.742497,78.746882,0.0],[-75.741076,78.746857,0.0],[-75.738082,78.747354,0.0],[-75.736579,78.747837,0.0],[-75.73208,78.748597,0.0],[-75.728617,78.749885,0.0],[-75.725553,78.75064,0.0],[-75.722558,78.751136,0.0],[-75.721946,78.752454,0.0],[-75.720326,78.752965,0.0],[-75.720064,78.753506,0.0],[-75.71721,78.753719,0.0],[-75.714218,78.754206,0.0],[-75.713969,78.754741,0.0],[-75.722199,78.754886,0.0],[-75.725117,78.754668,0.0],[-75.738958,78.754643,0.0],[-75.742022,78.753887,0.0]],[[-76.057494,78.753615,0.0],[-76.054739,78.75357,0.0],[-76.053281,78.753816,0.0],[-76.053127,78.754084,0.0],[-76.054348,78.754639,0.0],[-76.055532,78.754936,0.0],[-76.056947,78.75496,0.0],[-76.058442,78.754714,0.0],[-76.058679,78.754169,0.0],[-76.057494,78.753615,0.0]],[[-76.185241,78.736005,0.0],[-76.182019,78.737032,0.0],[-76.180611,78.737291,0.0],[-76.178773,78.738341,0.0],[-76.177163,78.73885,0.0],[-76.176824,78.739652,0.0],[-76.178098,78.739936,0.0],[-76.184973,78.740047,0.0],[-76.188869,78.740382,0.0],[-76.193024,78.740449,0.0],[-76.195055,78.735637,0.0],[-76.193833,78.735345,0.0],[-76.191179,78.73503,0.0],[-76.191525,78.734209,0.0],[-76.190141,78.734187,0.0],[-76.187284,78.734695,0.0],[-76.186827,78.735777,0.0],[-76.185241,78.736005,0.0]]]}},{"type":"Feature","properties":{"rgi_id":"RGI2000-v7.0-G-03-04291","o1region":"03"},"geometry":{"type":"Polygon","coordinates":[[[-75.518329,78.621767,0.0],[-75.510332,78.622944,0.0],[-75.50093,78.624047,0.0],[-75.488614,78.624716,0.0],[-75.474484,78.625162,0.0],[-75.457058,78.624978,0.0],[-75.439577,78.623418,0.0],[-75.426684,78.622824,0.0],[-75.395137,78.622057,0.0],[-75.364001,78.621465,0.0],[-75.356357,78.621887,0.0],[-75.351933,78.621613,0.0],[-75.347434,78.621006,0.0],[-75.340941,78.62055,0.0],[-75.33536,78.62068,0.0],[-75.322574,78.620339,0.0],[-75.318662,78.620974,0.0],[-75.308756,78.621115,0.0],[-75.300248,78.620856,0.0],[-75.283582,78.619634,0.0],[-75.278003,78.617348,0.0],[-75.26944,78.615761,0.0],[-75.263732,78.614703,0.0],[-75.248693,78.614562,0.0],[-75.232698,78.614903,0.0],[-75.226598,78.615589,0.0],[-75.224634,78.617113,0.0],[-75.221334,78.617475,0.0],[-75.212355,78.617204,0.0],[-75.208859,78.615573,0.0],[-75.209137,78.613116,0.0],[-75.208253,78.611062,0.0],[-75.205804,78.609736,0.0],[-75.184964,78.608757,0.0],[-75.159999,78.607411,0.0],[-75.153738,78.605582,0.0],[-75.140428,78.604785,0.0],[-75.133871,78.604043,0.0],[-75.126521,78.602776,0.0],[-75.119998,78.602037,0.0],[-75.112072,78.599797,0.0],[-75.106935,78.599559,0.0],[-75.101635,78.599801,0.0],[-75.097048,78.599643,0.0],[-75.094101,78.599422,0.0],[-75.092896,78.598637,0.0],[-75.092541,78.597978,0.0],[-75.094526,78.596758,0.0],[-75.094598,78.595969,0.0],[-75.097701,78.595767,0.0],[-75.101367,78.595115,0.0],[-75.104574,78.594059,0.0],[-75.113384,78.593774,0.0],[-75.124563,78.594722,0.0],[-75.1272,78.595434,0.0],[-75.127641,78.596461,0.0],[-75.125836,78.5968,0.0],[-75.117785,78.596982,0.0],[-75.111224,78.596697,0.0],[-75.10881,78.597506,0.0],[-75.110619,78.598531,0.0],[-75.114249,78.598603,0.0],[-75.117809,78.599465,0.0],[-75.123383,78.600302,0.0],[-75.131074,78.600257,0.0],[-75.137574,78.601243,0.0],[-75.141041,78.600983,0.0],[-75.144738,78.600924,0.0],[-75.150779,78.600847,0.0],[-75.153355,78.599711,0.0],[-75.15735,78.599066,0.0],[-75.15746,78.598157,0.0],[-75.155066,78.59767,0.0],[-75.15544,78.596919,0.0],[-75.154345,78.596246,0.0],[-75.152777,78.595493,0.0],[-75.141095,78.593667,0.0],[-75.134799,78.59229,0.0],[-75.131375,78.591378,0.0],[-75.114717,78.591164,0.0],[-75.102446,78.591469,0.0],[-75.093121,78.592026,0.0],[-75.086915,78.591827,0.0],[-75.080345,78.591999,0.0],[-75.076719,78.59142,0.0],[-75.074152,78.591436,0.0],[-75.072443,78.591772,0.0],[-75.06971,78.591447,0.0],[-75.062688,78.591234,0.0],[-75.059474,78.591781,0.0],[-75.054881,78.591756,0.0],[-75.046945,78.591595,0.0],[-75.04515,78.592099,0.0],[-75.036482,78.591816,0.0],[-75.032707,78.591746,0.0],[-75.029712,78.592259,0.0],[-75.019547,78.59212,0.0],[-75.008701,78.591641,0.0],[-75.005569,78.591768,0.0],[-75.002927,78.592255,0.0],[-75.004003,78.593059,0.0],[-74.997036,78.592833,0.0],[-74.990319,78.592875,0.0],[-74.98526,78.592434,0.0],[-74.980111,78.592447,0.0],[-74.972947,78.592486,0.0],[-74.964785,78.592758,0.0],[-74.953534,78.592211,0.0],[-74.950365,78.592597,0.0],[-74.945229,78.592615,0.0],[-74.936517,78.592539,0.0],[-74.929608,78.591832,0.0],[-74.912447,78.591374,0.0],[-74.908345,78.591338,0.0],[-74.902476,78.590866,0.0],[-74.89504,78.590408,0.0],[-74.886593,78.589929,0.0],[-74.875064,78.589149,0.0],[-74.868147,78.589172,0.0],[-74.85835,78.588343,0.0],[-74.851727,78.58748,0.0],[-74.845664,78.586573,0.0],[-74.842204,78.585188,0.0],[-74.842339,78.584616,0.0],[-74.840999,78.584251,0.0],[-74.839056,78.583737,0.0],[-74.83707,78.582987,0.0],[-74.837143,78.582212,0.0],[-74.83583,78.582116,0.0],[-74.834862,78.582333,0.0],[-74.832652,78.58232,0.0],[-74.830958,78.581981,0.0],[-74.827284,78.581836,0.0],[-74.824259,78.581435,0.0],[-74.823237,78.581751,0.0],[-74.820894,78.581668,0.0],[-74.818518,78.58101,0.0],[-74.817491,78.579936,0.0],[-74.815916,78.579504,0.0],[-74.816443,78.578839,0.0],[-74.814244,78.578489,0.0],[-74.812056,78.577801,0.0],[-74.814659,78.57708,0.0],[-74.817545,78.576465,0.0],[-74.818358,78.576008,0.0],[-74.818996,78.575347,0.0],[-74.817207,78.574871,0.0],[-74.814894,78.574417,0.0],[-74.814516,78.573531,0.0],[-74.817151,78.573384,0.0],[-74.820223,78.572739,0.0],[-74.820516,78.571903,0.0],[-74.821895,78.571525,0.0],[-74.822536,78.570965,0.0],[-74.825402,78.570383,0.0],[-74.825165,78.569872,0.0],[-74.823677,78.569469,0.0],[-74.824973,78.568956,0.0],[-74.827962,78.568783,0.0],[-74.832654,78.56797,0.0],[-74.83398,78.567227,0.0],[-74.837507,78.566856,0.0],[-74.837738,78.566422,0.0],[-74.836765,78.565692,0.0],[-74.838702,78.564953,0.0],[-74.839992,78.565442,0.0],[-74.842949,78.56535,0.0],[-74.843515,78.565016,0.0],[-74.840792,78.564528,0.0],[-74.842217,78.564272,0.0],[-74.847562,78.564332,0.0],[-74.848784,78.563858,0.0],[-74.846445,78.563155,0.0],[-74.847758,78.562145,0.0],[-74.854012,78.562045,0.0],[-74.861355,78.562084,0.0],[-74.865168,78.562202,0.0],[-74.868719,78.561353,0.0],[-74.871805,78.560649,0.0],[-74.876737,78.559753,0.0],[-74.879232,78.559652,0.0],[-74.881708,78.55951,0.0],[-74.883321,78.55866,0.0],[-74.887767,78.557945,0.0],[-74.889933,78.557145,0.0],[-74.890809,78.556587,0.0],[-74.8933,78.556639,0.0],[-74.896184,78.557044,0.0],[-74.899702,78.556618,0.0],[-74.903865,78.556435,0.0],[-74.908846,78.556539,0.0],[-74.911406,78.556092,0.0],[-74.916981,78.556169,0.0],[-74.92302,78.556102,0.0],[-74.928719,78.556682,0.0],[-74.938973,78.556701,0.0],[-74.94205,78.557111,0.0],[-74.951623,78.557693,0.0],[-74.960251,78.5586,0.0],[-74.965154,78.558855,0.0],[-74.970705,78.559353,0.0],[-74.978424,78.559781,0.0],[-74.988984,78.559959,0.0],[-74.990325,78.559597,0.0],[-75.002849,78.559743,0.0],[-75.005366,78.559372,0.0],[-75.016595,78.559754,0.0],[-75.023805,78.561169,0.0],[-75.02844,78.561571,0.0],[-75.032461,78.562037,0.0],[-75.034924,78.562894,0.0],[-75.040268,78.563425,0.0],[-75.045402,78.56399,0.0],[-75.051341,78.566378,0.0],[-75.051983,78.56739,0.0],[-75.053411,78.568379,0.0],[-75.059295,78.568998,0.0],[-75.06406,78.570285,0.0],[-75.065698,78.571625,0.0],[-75.067747,78.572166,0.0],[-75.072619,78.572495,0.0],[-75.077302,78.572435,0.0],[-75.081641,78.572292,0.0],[-75.084178,78.571882,0.0],[-75.092393,78.57174,0.0],[-75.095393,78.570801,0.0],[-75.097898,78.569315,0.0],[-75.099098,78.567725,0.0],[-75.098588,78.566447,0.0],[-75.100055,78.565093,0.0],[-75.106099,78.564638,0.0],[-75.109189,78.564278,0.0],[-75.115404,78.564249,0.0],[-75.120508,78.563736,0.0],[-75.134028,78.563814,0.0],[-75.141124,78.563956,0.0],[-75.143517,78.564254,0.0],[-75.146723,78.564375,0.0],[-75.14845,78.564025,0.0],[-75.159459,78.564091,0.0],[-75.162048,78.56395,0.0],[-75.174937,78.564129,0.0],[-75.180551,78.563639,0.0],[-75.187633,78.563535,0.0],[-75.191468,78.563227,0.0],[-75.193749,78.562542,0.0],[-75.198427,78.562097,0.0],[-75.204925,78.561111,0.0],[-75.209544,78.560396,0.0],[-75.214928,78.559311,0.0],[-75.218565,78.558704,0.0],[-75.229548,78.556699,0.0],[-75.241223,78.555728,0.0],[-75.245981,78.555281,0.0],[-75.257628,78.554969,0.0],[-75.26676,78.554848,0.0],[-75.271905,78.554228,0.0],[-75.280349,78.554272,0.0],[-75.285346,78.55395,0.0],[-75.293045,78.55428,0.0],[-75.29813,78.553778,0.0],[-75.305135,78.553674,0.0],[-75.310102,78.55341,0.0],[-75.316566,78.553176,0.0],[-75.325367,78.553106,0.0],[-75.330941,78.553454,0.0],[-75.336872,78.553688,0.0],[-75.343249,78.553631,0.0],[-75.350669,78.553294,0.0],[-75.356176,78.55316,0.0],[-75.359992,78.554013,0.0],[-75.366649,78.554621,0.0],[-75.374022,78.555002,0.0],[-75.382099,78.554557,0.0],[-75.387981,78.553649,0.0],[-75.392463,78.553135,0.0],[-75.39968,78.553213,0.0],[-75.403775,78.552871,0.0],[-75.408193,78.553735,0.0],[-75.414783,78.553861,0.0],[-75.419505,78.55347,0.0],[-75.425525,78.553525,0.0],[-75.431103,78.552611,0.0],[-75.438591,78.552752,0.0],[-75.443926,78.552974,0.0],[-75.445794,78.553489,0.0],[-75.449003,78.55373,0.0],[-75.454053,78.554545,0.0],[-75.460116,78.555139,0.0],[-75.466922,78.555448,0.0],[-75.47397,78.555881,0.0],[-75.481562,78.556443,0.0],[-75.486044,78.557187,0.0],[-75.489098,78.557125,0.0],[-75.493446,78.556246,0.0],[-75.497624,78.555725,0.0],[-75.503317,78.555831,0.0],[-75.507128,78.556083,0.0],[-75.509588,78.557269,0.0],[-75.513202,78.557936,0.0],[-75.511936,78.558692,0.0],[-75.50683,78.559257,0.0],[-75.505348,78.559829,0.0],[-75.507248,78.560285,0.0],[-75.511999,78.559833,0.0],[-75.517845,78.558983,0.0],[-75.522426,78.558888,0.0],[-75.527698,78.559886,0.0],[-75.530021,78.561369,0.0],[-75.531369,78.562354,0.0],[-75.529036,78.563451,0.0],[-75.53059,78.56528,0.0],[-75.534367,78.56625,0.0],[-75.522593,78.568367,0.0],[-75.516742,78.568883,0.0],[-75.512583,78.568805,0.0],[-75.506242,78.568021,0.0],[-75.501948,78.567054,0.0],[-75.485975,78.566533,0.0],[-75.47344,78.568183,0.0],[-75.474183,78.570138,0.0],[-75.481971,78.572644,0.0],[-75.486585,78.575805,0.0],[-75.488883,78.579785,0.0],[-75.489037,78.582394,0.0],[-75.491165,78.58532,0.0],[-75.491193,78.590198,0.0],[-75.487473,78.593289,0.0],[-75.486947,78.594389,0.0],[-75.489598,78.59588,0.0],[-75.495066,78.596759,0.0],[-75.497677,78.59775,0.0],[-75.50267,78.598453,0.0],[-75.506457,78.598746,0.0],[-75.515031,78.598406,0.0],[-75.520607,78.599065,0.0],[-75.527567,78.601087,0.0],[-75.534541,78.602207,0.0],[-75.536288,78.603847,0.0],[-75.536296,78.606786,0.0],[-75.530357,78.609837,0.0],[-75.52919,78.6117,0.0],[-75.529546,78.613315,0.0],[-75.536556,78.615108,0.0],[-75.545196,78.616433,0.0],[-75.550251,78.617025,0.0],[-75.550793,78.618357,0.0],[-75.553265,78.618966,0.0],[-75.548507,78.620338,0.0],[-75.537772,78.621228,0.0],[-75.530551,78.621284,0.0],[-75.518329,78.621767,0.0]]]}},{"type":"Feature","properties":{"rgi_id":"RGI2000-v7.0-G-03-04292","o1region":"03"},"geometry":{"type":"Polygon","coordinates":[[[-75.091122,78.660964,0.0],[-75.087091,78.661036,0.0],[-75.081336,78.66055,0.0],[-75.07738,78.660549,0.0],[-75.073584,78.660348,0.0],[-75.06974,78.659744,0.0],[-75.067657,78.659129,0.0],[-75.061255,78.658899,0.0],[-75.05754,78.658453,0.0],[-75.057132,78.658118,0.0],[-75.055339,78.657734,0.0],[-75.052977,78.656904,0.0],[-75.043808,78.656152,0.0],[-75.038445,78.655909,0.0],[-75.035868,78.655587,0.0],[-75.03158,78.655314,0.0],[-75.028189,78.655837,0.0],[-75.027906,78.656709,0.0],[-75.025188,78.657209,0.0],[-75.021468,78.657908,0.0],[-75.017876,78.658215,0.0],[-75.012819,78.658451,0.0],[-75.013637,78.65941,0.0],[-75.011303,78.66053,0.0],[-75.012574,78.661399,0.0],[-75.012128,78.662234,0.0],[-75.00697,78.66348,0.0],[-75.000294,78.663936,0.0],[-74.994665,78.664678,0.0],[-74.991098,78.665099,0.0],[-74.981467,78.665277,0.0],[-74.975823,78.665169,0.0],[-74.970924,78.664689,0.0],[-74.966611,78.664728,0.0],[-74.963337,78.66483,0.0],[-74.958117,78.664555,0.0],[-74.955963,78.664975,0.0],[-74.95334,78.66547,0.0],[-74.952306,78.666209,0.0],[-74.950042,78.666838,0.0],[-74.945468,78.667875,0.0],[-74.939233,78.6686,0.0],[-74.936879,78.669396,0.0],[-74.932878,78.669651,0.0],[-74.928094,78.669764,0.0],[-74.925411,78.670119,0.0],[-74.919489,78.670601,0.0],[-74.913284,78.670558,0.0],[-74.91153,78.671028,0.0],[-74.901744,78.670904,0.0],[-74.899667,78.671122,0.0],[-74.887257,78.671035,0.0],[-74.885379,78.671334,0.0],[-74.874052,78.671226,0.0],[-74.871659,78.671683,0.0],[-74.858935,78.671378,0.0],[-74.854922,78.671022,0.0],[-74.851158,78.670398,0.0],[-74.84476,78.66946,0.0],[-74.83778,78.667984,0.0],[-74.831627,78.666252,0.0],[-74.827348,78.665825,0.0],[-74.822089,78.664829,0.0],[-74.818385,78.664852,0.0],[-74.816113,78.664366,0.0],[-74.814351,78.663654,0.0],[-74.812051,78.663304,0.0],[-74.812439,78.662587,0.0],[-74.81227,78.66166,0.0],[-74.808699,78.6602,0.0],[-74.807048,78.658913,0.0],[-74.804629,78.657807,0.0],[-74.803205,78.656722,0.0],[-74.803509,78.655541,0.0],[-74.802416,78.654463,0.0],[-74.803277,78.653492,0.0],[-74.806231,78.652366,0.0],[-74.811744,78.652086,0.0],[-74.813526,78.650966,0.0],[-74.819637,78.649877,0.0],[-74.82423,78.648192,0.0],[-74.828355,78.646859,0.0],[-74.831386,78.646099,0.0],[-74.835224,78.64519,0.0],[-74.842303,78.64448,0.0],[-74.858113,78.643095,0.0],[-74.86275,78.641938,0.0],[-74.868518,78.641794,0.0],[-74.872944,78.641029,0.0],[-74.875748,78.640632,0.0],[-74.883555,78.640589,0.0],[-74.887247,78.63994,0.0],[-74.893868,78.640077,0.0],[-74.896829,78.639545,0.0],[-74.902264,78.639393,0.0],[-74.907526,78.639568,0.0],[-74.911795,78.639722,0.0],[-74.916114,78.639151,0.0],[-74.918757,78.637953,0.0],[-74.92222,78.637101,0.0],[-74.924778,78.636692,0.0],[-74.926027,78.635597,0.0],[-74.925952,78.634474,0.0],[-74.923265,78.633232,0.0],[-74.925995,78.632497,0.0],[-74.927382,78.631141,0.0],[-74.930215,78.63021,0.0],[-74.93271,78.628019,0.0],[-74.932042,78.626753,0.0],[-74.933358,78.625527,0.0],[-74.934398,78.624823,0.0],[-74.937491,78.624029,0.0],[-74.938007,78.623051,0.0],[-74.941132,78.622157,0.0],[-74.940258,78.621317,0.0],[-74.942152,78.620736,0.0],[-74.946805,78.619671,0.0],[-74.950089,78.619145,0.0],[-74.952896,78.61762,0.0],[-74.95856,78.617011,0.0],[-74.963313,78.615592,0.0],[-74.965649,78.614321,0.0],[-74.962564,78.613203,0.0],[-74.955867,78.612604,0.0],[-74.947803,78.612702,0.0],[-74.946262,78.613726,0.0],[-74.943049,78.614245,0.0],[-74.940417,78.613352,0.0],[-74.937873,78.612292,0.0],[-74.9307,78.612462,0.0],[-74.932533,78.610426,0.0],[-74.941224,78.609293,0.0],[-74.948197,78.609181,0.0],[-74.952628,78.609241,0.0],[-74.962967,78.609255,0.0],[-74.971143,78.608301,0.0],[-74.979352,78.607282,0.0],[-74.985533,78.606947,0.0],[-74.998362,78.606022,0.0],[-75.007819,78.605159,0.0],[-75.018679,78.605446,0.0],[-75.031495,78.605178,0.0],[-75.044142,78.605237,0.0],[-75.052605,78.604353,0.0],[-75.058291,78.603676,0.0],[-75.061807,78.602033,0.0],[-75.062676,78.600996,0.0],[-75.05757,78.599904,0.0],[-75.053456,78.598832,0.0],[-75.057227,78.597985,0.0],[-75.056836,78.59745,0.0],[-75.057738,78.596348,0.0],[-75.060222,78.595409,0.0],[-75.065528,78.596109,0.0],[-75.071863,78.596105,0.0],[-75.075654,78.596511,0.0],[-75.076599,78.597914,0.0],[-75.080027,78.598379,0.0],[-75.079988,78.599103,0.0],[-75.072426,78.599544,0.0],[-75.070805,78.600625,0.0],[-75.067916,78.601827,0.0],[-75.071367,78.603544,0.0],[-75.076716,78.60352,0.0],[-75.086032,78.602916,0.0],[-75.095078,78.602834,0.0],[-75.1027,78.60358,0.0],[-75.108075,78.604808,0.0],[-75.111343,78.604939,0.0],[-75.111974,78.604358,0.0],[-75.111087,78.603484,0.0],[-75.111525,78.602201,0.0],[-75.121793,78.604282,0.0],[-75.137568,78.605181,0.0],[-75.140428,78.604785,0.0],[-75.153738,78.605582,0.0],[-75.159999,78.607411,0.0],[-75.184964,78.608757,0.0],[-75.205804,78.609736,0.0],[-75.208253,78.611062,0.0],[-75.209137,78.613116,0.0],[-75.208859,78.615573,0.0],[-75.212355,78.617204,0.0],[-75.221334,78.617475,0.0],[-75.224634,78.617113,0.0],[-75.226598,78.615589,0.0],[-75.232698,78.614903,0.0],[-75.248693,78.614562,0.0],[-75.263732,78.614703,0.0],[-75.26944,78.615761,0.0],[-75.278003,78.617348,0.0],[-75.283582,78.619634,0.0],[-75.300248,78.620856,0.0],[-75.308756,78.621115,0.0],[-75.318662,78.620974,0.0],[-75.322574,78.620339,0.0],[-75.33536,78.62068,0.0],[-75.340941,78.62055,0.0],[-75.347434,78.621006,0.0],[-75.351933,78.621613,0.0],[-75.356357,78.621887,0.0],[-75.364001,78.621465,0.0],[-75.395137,78.622057,0.0],[-75.426684,78.622824,0.0],[-75.439577,78.623418,0.0],[-75.457058,78.624978,0.0],[-75.474484,78.625162,0.0],[-75.488614,78.624716,0.0],[-75.50093,78.624047,0.0],[-75.510332,78.622944,0.0],[-75.518329,78.621767,0.0],[-75.521902,78.624866,0.0],[-75.528314,78.627673,0.0],[-75.529255,78.630747,0.0],[-75.52132,78.632814,0.0],[-75.490547,78.632874,0.0],[-75.476228,78.633187,0.0],[-75.474028,78.637204,0.0],[-75.480688,78.640596,0.0],[-75.477904,78.643601,0.0],[-75.464843,78.646204,0.0],[-75.430574,78.649039,0.0],[-75.418595,78.649446,0.0],[-75.416898,78.650732,0.0],[-75.403652,78.651536,0.0],[-75.383964,78.651268,0.0],[-75.365955,78.651401,0.0],[-75.352653,78.652307,0.0],[-75.315654,78.650755,0.0],[-75.294866,78.648931,0.0],[-75.25588,78.648704,0.0],[-75.237734,78.647508,0.0],[-75.200584,78.647362,0.0],[-75.185098,78.647796,0.0],[-75.181294,78.6488,0.0],[-75.173616,78.649837,0.0],[-75.162052,78.649926,0.0],[-75.157607,78.649405,0.0],[-75.151523,78.64956,0.0],[-75.150327,78.650854,0.0],[-75.153165,78.651069,0.0],[-75.156956,78.65204,0.0],[-75.153955,78.653721,0.0],[-75.151483,78.65594,0.0],[-75.133913,78.656752,0.0],[-75.119289,78.657042,0.0],[-75.106543,78.658371,0.0],[-75.099767,78.659554,0.0],[-75.088723,78.65965,0.0],[-75.088427,78.660225,0.0],[-75.091122,78.660964,0.0]],[[-75.083396,78.655401,0.0],[-75.083676,78.65486,0.0],[-75.087104,78.654831,0.0],[-75.087971,78.654399,0.0],[-75.088379,78.653608,0.0],[-75.084514,78.653235,0.0],[-75.081614,78.653178,0.0],[-75.081743,78.652929,0.0],[-75.084717,78.652988,0.0],[-75.08893,78.65254,0.0],[-75.089353,78.651721,0.0],[-75.095052,78.651302,0.0],[-75.097015,78.650262,0.0],[-75.09582,78.649957,0.0],[-75.096099,78.649416,0.0],[-75.100405,78.649221,0.0],[-75.09946,78.648137,0.0],[-75.098168,78.647875,0.0],[-75.099649,78.647624,0.0],[-75.102195,78.648222,0.0],[-75.107427,78.648562,0.0],[-75.108691,78.648588,0.0],[-75.110305,78.648368,0.0],[-75.110989,78.647037,0.0],[-75.109802,78.646717,0.0],[-75.101836,78.646292,0.0],[-75.0976,78.646208,0.0],[-75.095991,78.646708,0.0],[-75.092052,78.646629,0.0],[-75.084997,78.646769,0.0],[-75.084718,78.647311,0.0],[-75.081832,78.647519,0.0],[-75.080281,78.64805,0.0],[-75.078807,78.648287,0.0],[-75.074794,78.648206,0.0],[-75.071622,78.648675,0.0],[-75.069883,78.649424,0.0],[-75.068409,78.64966,0.0],[-75.068121,78.650216,0.0],[-75.06877,78.651575,0.0],[-75.06821,78.652658,0.0],[-75.065253,78.653145,0.0],[-75.062529,78.653327,0.0],[-75.057721,78.652166,0.0],[-75.046643,78.651944,0.0],[-75.042218,78.652653,0.0],[-75.042073,78.652931,0.0],[-75.043341,78.653237,0.0],[-75.045608,78.654082,0.0],[-75.053787,78.654246,0.0],[-75.056055,78.65509,0.0],[-75.059716,78.655711,0.0],[-75.065001,78.656098,0.0],[-75.066123,78.656978,0.0],[-75.077083,78.656857,0.0],[-75.080372,78.655873,0.0],[-75.083396,78.655401,0.0]]]}},{"type":"Feature","properties":{"rgi_id":"RGI2000-v7.0-G-03-04293","o1region":"03"},"geometry":{"type":"Polygon","coordinates":[[[-75.189551,78.754456,0.0],[-75.182829,78.755371,0.0],[-75.178687,78.755678,0.0],[-75.168346,78.75531,0.0],[-75.155886,78.757398,0.0],[-75.137899,78.759155,0.0],[-75.118813,78.759723,0.0],[-75.085469,78.759231,0.0],[-75.058759,78.758034,0.0],[-75.045961,78.756612,0.0],[-75.029847,78.757223,0.0],[-75.009301,78.756251,0.0],[-74.98084,78.755772,0.0],[-74.957362,78.754924,0.0],[-74.932892,78.754147,0.0],[-74.899534,78.754774,0.0],[-74.863431,78.756928,0.0],[-74.842199,78.757237,0.0],[-74.819273,78.757137,0.0],[-74.812363,78.758394,0.0],[-74.802409,78.759962,0.0],[-74.785671,78.761668,0.0],[-74.775201,78.761543,0.0],[-74.765882,78.761069,0.0],[-74.76113,78.760129,0.0],[-74.759386,78.759295,0.0],[-74.761834,78.758722,0.0],[-74.761018,78.757943,0.0],[-74.761445,78.756843,0.0],[-74.760373,78.755885,0.0],[-74.761214,78.755002,0.0],[-74.762552,78.754574,0.0],[-74.76149,78.754176,0.0],[-74.762431,78.753433,0.0],[-74.763573,78.752002,0.0],[-74.762608,78.751496,0.0],[-74.763454,78.748985,0.0],[-74.762314,78.747506,0.0],[-74.758253,78.746173,0.0],[-74.75678,78.745009,0.0],[-74.755934,78.743966,0.0],[-74.753072,78.74349,0.0],[-74.755544,78.743023,0.0],[-74.756998,78.742547,0.0],[-74.760246,78.74206,0.0],[-74.763454,78.741906,0.0],[-74.764877,78.742157,0.0],[-74.765494,78.742586,0.0],[-74.769379,78.74275,0.0],[-74.770907,78.742034,0.0],[-74.773163,78.741515,0.0],[-74.777732,78.741792,0.0],[-74.779665,78.742348,0.0],[-74.783243,78.742503,0.0],[-74.786181,78.74308,0.0],[-74.791312,78.743743,0.0],[-74.800171,78.744285,0.0],[-74.804926,78.746013,0.0],[-74.809083,78.746973,0.0],[-74.812371,78.748034,0.0],[-74.813424,78.749089,0.0],[-74.817001,78.749997,0.0],[-74.819318,78.750601,0.0],[-74.823078,78.750798,0.0],[-74.828153,78.750824,0.0],[-74.833802,78.750544,0.0],[-74.835647,78.750145,0.0],[-74.839165,78.749661,0.0],[-74.844621,78.749734,0.0],[-74.849061,78.749429,0.0],[-74.861964,78.749655,0.0],[-74.864677,78.749155,0.0],[-74.873862,78.749105,0.0],[-74.877432,78.748901,0.0],[-74.88418,78.74884,0.0],[-74.885843,78.749153,0.0],[-74.889467,78.749227,0.0],[-74.893757,78.749196,0.0],[-74.89757,78.748916,0.0],[-74.904054,78.748969,0.0],[-74.909308,78.749037,0.0],[-74.914701,78.749227,0.0],[-74.916946,78.748835,0.0],[-74.921182,78.748525,0.0],[-74.924613,78.748198,0.0],[-74.929813,78.747986,0.0],[-74.931029,78.747613,0.0],[-74.93074,78.747012,0.0],[-74.929223,78.746425,0.0],[-74.930418,78.746092,0.0],[-74.930372,78.745416,0.0],[-74.932054,78.744934,0.0],[-74.933488,78.743772,0.0],[-74.93503,78.743046,0.0],[-74.936774,78.742568,0.0],[-74.93695,78.741856,0.0],[-74.939721,78.741238,0.0],[-74.941221,78.740712,0.0],[-74.942402,78.740021,0.0],[-74.942309,78.73941,0.0],[-74.943918,78.738702,0.0],[-74.944094,78.737991,0.0],[-74.944194,78.73704,0.0],[-74.945513,78.736471,0.0],[-74.945328,78.735673,0.0],[-74.947535,78.734963,0.0],[-74.947066,78.734318,0.0],[-74.94817,78.733388,0.0],[-74.950356,78.732717,0.0],[-74.94734,78.732645,0.0],[-74.942755,78.732407,0.0],[-74.940539,78.732835,0.0],[-74.933298,78.73384,0.0],[-74.928708,78.734064,0.0],[-74.924213,78.734488,0.0],[-74.919379,78.734787,0.0],[-74.918557,78.735564,0.0],[-74.918962,78.736327,0.0],[-74.917155,78.737045,0.0],[-74.917317,78.737882,0.0],[-74.915615,78.738403,0.0],[-74.915099,78.738989,0.0],[-74.913778,78.739557,0.0],[-74.912997,78.740256,0.0],[-74.916302,78.740919,0.0],[-74.917407,78.741895,0.0],[-74.91704,78.74296,0.0],[-74.917202,78.743797,0.0],[-74.9134,78.74368,0.0],[-74.907989,78.74353,0.0],[-74.90441,78.743377,0.0],[-74.90046,78.743534,0.0],[-74.894936,78.743479,0.0],[-74.888388,78.742533,0.0],[-74.885667,78.741921,0.0],[-74.882733,78.740947,0.0],[-74.876487,78.739707,0.0],[-74.877916,78.738942,0.0],[-74.876053,78.737871,0.0],[-74.873714,78.737306,0.0],[-74.873925,78.736159,0.0],[-74.872264,78.735092,0.0],[-74.87218,78.734495,0.0],[-74.875914,78.733976,0.0],[-74.882812,78.733998,0.0],[-74.888642,78.734118,0.0],[-74.895646,78.733944,0.0],[-74.896724,78.73345,0.0],[-74.900034,78.732962,0.0],[-74.906116,78.73261,0.0],[-74.910973,78.733027,0.0],[-74.913088,78.732871,0.0],[-74.913604,78.732286,0.0],[-74.915368,78.731647,0.0],[-74.91766,78.73078,0.0],[-74.918269,78.729641,0.0],[-74.9191,78.728467,0.0],[-74.916305,78.727615,0.0],[-74.914833,78.72695,0.0],[-74.91609,78.726499,0.0],[-74.919313,78.726168,0.0],[-74.919427,78.725574,0.0],[-74.9171,78.725368,0.0],[-74.918683,78.724685,0.0],[-74.92089,78.723976,0.0],[-74.924451,78.723771,0.0],[-74.928807,78.723979,0.0],[-74.933163,78.724187,0.0],[-74.939273,78.724152,0.0],[-74.942495,78.723821,0.0],[-74.944382,78.722946,0.0],[-74.945381,78.722212,0.0],[-74.947925,78.721628,0.0],[-74.950053,78.720679,0.0],[-74.948968,78.719664,0.0],[-74.945618,78.719476,0.0],[-74.942974,78.719105,0.0],[-74.944713,78.718505,0.0],[-74.948411,78.718421,0.0],[-74.954066,78.718854,0.0],[-74.960194,78.71878,0.0],[-74.9652,78.718524,0.0],[-74.970511,78.718076,0.0],[-74.986629,78.71868,0.0],[-74.99655,78.718722,0.0],[-74.99997,78.718394,0.0],[-75.010494,78.718447,0.0],[-75.013671,78.718193,0.0],[-75.020441,78.718051,0.0],[-75.024658,78.718136,0.0],[-75.028365,78.718806,0.0],[-75.03286,78.719135,0.0],[-75.03754,78.719109,0.0],[-75.044676,78.718657,0.0],[-75.051664,78.718876,0.0],[-75.054553,78.719172,0.0],[-75.058221,78.71992,0.0],[-75.067517,78.720383,0.0],[-75.076514,78.720642,0.0],[-75.082986,78.720294,0.0],[-75.088068,78.720276,0.0],[-75.091765,78.720191,0.0],[-75.09653,78.719611,0.0],[-75.100669,78.719454,0.0],[-75.105528,78.719868,0.0],[-75.110847,78.720569,0.0],[-75.116512,78.720602,0.0],[-75.121252,78.720854,0.0],[-75.126174,78.720753,0.0],[-75.131697,78.72106,0.0],[-75.136277,78.72123,0.0],[-75.140594,78.721911,0.0],[-75.145897,78.72265,0.0],[-75.150799,78.722588,0.0],[-75.155199,78.722714,0.0],[-75.160945,78.723382,0.0],[-75.166229,78.723764,0.0],[-75.169384,78.724342,0.0],[-75.170247,78.725431,0.0],[-75.172056,78.725863,0.0],[-75.174447,78.725552,0.0],[-75.177643,78.725655,0.0],[-75.181201,78.726637,0.0],[-75.184738,78.726865,0.0],[-75.189361,78.726955,0.0],[-75.193242,78.727706,0.0],[-75.19684,78.727816,0.0],[-75.199252,78.727466,0.0],[-75.204177,78.72776,0.0],[-75.21268,78.727806,0.0],[-75.21652,78.727841,0.0],[-75.223839,78.728222,0.0],[-75.227316,78.72817,0.0],[-75.229687,78.727898,0.0],[-75.23359,78.728609,0.0],[-75.235605,78.729442,0.0],[-75.24049,78.729417,0.0],[-75.244613,78.729695,0.0],[-75.245643,78.730469,0.0],[-75.250353,78.731195,0.0],[-75.248947,78.734394,0.0],[-75.246759,78.735351,0.0],[-75.253463,78.736701,0.0],[-75.257663,78.737948,0.0],[-75.260862,78.740618,0.0],[-75.267202,78.741573,0.0],[-75.266901,78.742733,0.0],[-75.264064,78.744,0.0],[-75.261389,78.743948,0.0],[-75.258315,78.744433,0.0],[-75.254281,78.744355,0.0],[-75.253152,78.74379,0.0],[-75.246274,78.743657,0.0],[-75.245867,78.744461,0.0],[-75.241341,78.745186,0.0],[-75.239709,78.745698,0.0],[-75.239306,78.746494,0.0],[-75.240426,78.747076,0.0],[-75.234794,78.747233,0.0],[-75.230658,78.747153,0.0],[-75.223148,78.748346,0.0],[-75.220405,78.748293,0.0],[-75.21604,78.748749,0.0],[-75.215343,78.748735,0.0],[-75.211903,78.748669,0.0],[-75.209074,78.748871,0.0],[-75.207537,78.749125,0.0],[-75.206853,78.750467,0.0],[-75.203836,78.750949,0.0],[-75.201944,78.751985,0.0],[-75.20019,78.752749,0.0],[-75.199913,78.753293,0.0],[-75.194381,78.753186,0.0],[-75.18983,78.753912,0.0],[-75.189551,78.754456,0.0]],[[-74.781007,78.759456,0.0],[-74.784203,78.758708,0.0],[-74.788557,78.758248,0.0],[-74.791634,78.757784,0.0],[-74.793267,78.757274,0.0],[-74.794874,78.754335,0.0],[-74.79249,78.753743,0.0],[-74.792922,78.752952,0.0],[-74.792243,78.75158,0.0],[-74.789788,78.750978,0.0],[-74.787833,78.749602,0.0],[-74.784335,78.748435,0.0],[-74.783436,78.747978,0.0],[-74.781041,78.746759,0.0],[-74.779259,78.747001,0.0],[-74.778606,78.74686,0.0],[-74.776959,78.74666,0.0],[-74.774705,78.748234,0.0],[-74.776868,78.749366,0.0],[-74.776426,78.750171,0.0],[-74.774903,78.750411,0.0],[-74.774609,78.750948,0.0],[-74.775808,78.75123,0.0],[-74.776743,78.752064,0.0],[-74.77373,78.752552,0.0],[-74.772104,78.753046,0.0],[-74.771371,78.754381,0.0],[-74.7726,78.754679,0.0],[-74.771716,78.75629,0.0],[-74.768635,78.756761,0.0],[-74.767902,78.758096,0.0],[-74.76873,78.759192,0.0],[-74.769956,78.759497,0.0],[-74.773865,78.75985,0.0],[-74.776656,78.759908,0.0],[-74.779524,78.759689,0.0],[-74.781007,78.759456,0.0]],[[-75.137836,78.75019,0.0],[-75.138528,78.748851,0.0],[-75.145347,78.748985,0.0],[-75.148384,78.748508,0.0],[-75.148922,78.747465,0.0],[-75.147776,78.746889,0.0],[-75.142294,78.746781,0.0],[-75.141051,78.746484,0.0],[-75.141195,78.746205,0.0],[-75.143959,78.74626,0.0],[-75.145434,78.746016,0.0],[-75.145563,78.745764,0.0],[-75.148521,78.745532,0.0],[-75.147501,78.744713,0.0],[-75.150537,78.744236,0.0],[-75.150815,78.743697,0.0],[-75.153578,78.743751,0.0],[-75.156023,78.744335,0.0],[-75.159979,78.744694,0.0],[-75.164124,78.744775,0.0],[-75.165187,78.745332,0.0],[-75.169241,78.745411,0.0],[-75.172466,78.744657,0.0],[-75.176703,78.744467,0.0],[-75.177661,78.742596,0.0],[-75.17628,78.742569,0.0],[-75.175308,78.741742,0.0],[-75.174111,78.741446,0.0],[-75.174383,78.740916,0.0],[-75.173412,78.740088,0.0],[-75.172076,78.740062,0.0],[-75.170557,78.740305,0.0],[-75.170004,78.741384,0.0],[-75.166973,78.741852,0.0],[-75.165273,78.742627,0.0],[-75.1632,78.743676,0.0],[-75.16173,78.743911,0.0],[-75.16044,78.743885,0.0],[-75.157913,78.743282,0.0],[-75.158454,78.74223,0.0],[-75.157303,78.741935,0.0],[-75.156241,78.741106,0.0],[-75.15357,78.741053,0.0],[-75.152101,78.741288,0.0],[-75.147869,78.741468,0.0],[-75.144782,78.741952,0.0],[-75.143077,78.742464,0.0],[-75.140119,78.742969,0.0],[-75.138463,78.743472,0.0],[-75.137786,78.744785,0.0],[-75.134971,78.745011,0.0],[-75.131934,78.745487,0.0],[-75.129031,78.745703,0.0],[-75.126035,78.746189,0.0],[-75.123271,78.746134,0.0],[-75.120414,78.746351,0.0],[-75.120279,78.746611,0.0],[-75.122908,78.746927,0.0],[-75.122494,78.747727,0.0],[-75.118348,78.747645,0.0],[-75.115304,78.74813,0.0],[-75.109868,78.748023,0.0],[-75.106916,78.748509,0.0],[-75.102724,78.748427,0.0],[-75.096681,78.749397,0.0],[-75.09365,78.749855,0.0],[-75.086686,78.749998,0.0],[-75.080927,78.75042,0.0],[-75.07484,78.75138,0.0],[-75.074563,78.751911,0.0],[-75.077328,78.751966,0.0],[-75.080229,78.75176,0.0],[-75.081888,78.751257,0.0],[-75.095574,78.751528,0.0],[-75.099542,78.752133,0.0],[-75.103636,78.75196,0.0],[-75.106681,78.751475,0.0],[-75.109545,78.75125,0.0],[-75.111197,78.750756,0.0],[-75.113962,78.75081,0.0],[-75.115163,78.751097,0.0],[-75.1165,78.751124,0.0],[-75.118022,78.750881,0.0],[-75.123598,78.750991,0.0],[-75.123188,78.751782,0.0],[-75.124436,78.75207,0.0],[-75.126965,78.752402,0.0],[-75.130923,78.752761,0.0],[-75.131892,78.753589,0.0],[-75.133228,78.753615,0.0],[-75.134755,78.753363,0.0],[-75.138068,78.752357,0.0],[-75.13991,78.751585,0.0],[-75.141566,78.751081,0.0],[-75.14184,78.750551,0.0],[-75.140647,78.750246,0.0],[-75.137836,78.75019,0.0]],[[-75.011638,78.747969,0.0],[-75.012628,78.746091,0.0],[-75.011333,78.745791,0.0],[-75.010693,78.744437,0.0],[-75.00964,78.743868,0.0],[-75.009777,78.743607,0.0],[-75.013844,78.743689,0.0],[-75.016221,78.741838,0.0],[-75.016359,78.741577,0.0],[-75.013912,78.740989,0.0],[-75.010088,78.740355,0.0],[-75.003385,78.739956,0.0],[-75.000885,78.739377,0.0],[-75.00159,78.738041,0.0],[-74.997525,78.737959,0.0],[-74.996,78.738193,0.0],[-74.99161,78.738633,0.0],[-74.989935,78.739147,0.0],[-74.986972,78.739635,0.0],[-74.985164,78.740401,0.0],[-74.976791,78.740506,0.0],[-74.973832,78.740984,0.0],[-74.969529,78.741161,0.0],[-74.964988,78.741882,0.0],[-74.963084,78.742919,0.0],[-74.961219,78.743694,0.0],[-74.95792,78.744713,0.0],[-74.956777,78.746862,0.0],[-74.955071,78.74762,0.0],[-74.954071,78.749499,0.0],[-74.969153,78.749804,0.0],[-74.980488,78.748947,0.0],[-74.982536,78.747921,0.0],[-74.986702,78.748006,0.0],[-74.996326,78.747916,0.0],[-74.997892,78.747703,0.0],[-74.999231,78.74773,0.0],[-75.001788,78.7483,0.0],[-75.005713,78.748652,0.0],[-75.011269,78.748764,0.0],[-75.011407,78.748503,0.0],[-75.010161,78.748204,0.0],[-75.011638,78.747969,0.0]],[[-75.099695,78.738363,0.0],[-75.095559,78.738282,0.0],[-75.094038,78.738528,0.0],[-75.093066,78.740399,0.0],[-75.09423,78.740694,0.0],[-75.098442,78.740778,0.0],[-75.104097,78.740339,0.0],[-75.104501,78.739547,0.0],[-75.099695,78.738363,0.0]],[[-75.049106,78.744921,0.0],[-75.052264,78.744173,0.0],[-75.055321,78.743694,0.0],[-75.056012,78.742372,0.0],[-75.054863,78.742072,0.0],[-75.052087,78.742016,0.0],[-75.049114,78.742482,0.0],[-75.045914,78.743236,0.0],[-75.045638,78.743763,0.0],[-75.046443,78.744867,0.0],[-75.049106,78.744921,0.0]],[[-74.978818,78.734049,0.0],[-74.976096,78.733994,0.0],[-74.974961,78.736138,0.0],[-74.977683,78.736193,0.0],[-74.97951,78.735421,0.0],[-74.981027,78.73518,0.0],[-74.981453,78.734374,0.0],[-74.978818,78.734049,0.0]]]}},{"type":"Feature","properties":{"rgi_id":"RGI2000-v7.0-G-03-04294","o1region":"03"},"geometry":{"type":"Polygon","coordinates":[[[-75.358793,78.764984,0.0],[-75.357575,78.764696,0.0],[-75.354946,78.764367,0.0],[-75.3481,78.764238,0.0],[-75.3477,78.76504,0.0],[-75.3388,78.765964,0.0],[-75.329445,78.765507,0.0],[-75.329709,78.76498,0.0],[-75.326297,78.763563,0.0],[-75.32377,78.763236,0.0],[-75.314067,78.763052,0.0],[-75.313929,78.763328,0.0],[-75.315262,78.763353,0.0],[-75.314997,78.763881,0.0],[-75.312115,78.764096,0.0],[-75.310468,78.764614,0.0],[-75.309804,78.765937,0.0],[-75.31104,78.766239,0.0],[-75.31175,78.767307,0.0],[-75.310075,78.76827,0.0],[-75.308077,78.769423,0.0],[-75.299821,78.769265,0.0],[-75.298316,78.769506,0.0],[-75.292009,78.768656,0.0],[-75.286091,78.768576,0.0],[-75.280008,78.768824,0.0],[-75.275263,78.768524,0.0],[-75.264295,78.768313,0.0],[-75.26416,78.768581,0.0],[-75.2436,78.768186,0.0],[-75.242325,78.767891,0.0],[-75.241218,78.767335,0.0],[-75.238503,78.767283,0.0],[-75.238604,78.767014,0.0],[-75.234654,78.766661,0.0],[-75.225028,78.766475,0.0],[-75.223481,78.766715,0.0],[-75.221868,78.767225,0.0],[-75.219772,78.768545,0.0],[-75.217056,78.768492,0.0],[-75.214615,78.767904,0.0],[-75.211966,78.767582,0.0],[-75.205125,78.767449,0.0],[-75.205402,78.766906,0.0],[-75.201312,78.766827,0.0],[-75.197701,78.768387,0.0],[-75.196098,78.768877,0.0],[-75.195405,78.77023,0.0],[-75.192073,78.771241,0.0],[-75.191795,78.771783,0.0],[-75.193171,78.77181,0.0],[-75.193034,78.772078,0.0],[-75.191391,78.772573,0.0],[-75.185511,78.773271,0.0],[-75.182347,78.774021,0.0],[-75.181522,78.775629,0.0],[-75.182249,78.776989,0.0],[-75.176519,78.777074,0.0],[-75.174158,78.776365,0.0],[-75.169803,78.775898,0.0],[-75.173813,78.775307,0.0],[-75.176892,78.77498,0.0],[-75.177455,78.774141,0.0],[-75.176062,78.773991,0.0],[-75.17701,78.773204,0.0],[-75.179316,78.772064,0.0],[-75.178045,78.770158,0.0],[-75.174182,78.768923,0.0],[-75.169442,78.768882,0.0],[-75.165198,78.769676,0.0],[-75.1581,78.769589,0.0],[-75.151745,78.770882,0.0],[-75.149269,78.771065,0.0],[-75.147031,78.770532,0.0],[-75.142251,78.770309,0.0],[-75.136053,78.771038,0.0],[-75.123179,78.770862,0.0],[-75.11663,78.770991,0.0],[-75.096189,78.770356,0.0],[-75.096932,78.768928,0.0],[-75.098625,78.768471,0.0],[-75.098317,78.767538,0.0],[-75.095871,78.767154,0.0],[-75.091551,78.767069,0.0],[-75.087582,78.767205,0.0],[-75.084351,78.766926,0.0],[-75.077555,78.767024,0.0],[-75.072966,78.767706,0.0],[-75.070659,78.766552,0.0],[-75.062824,78.765855,0.0],[-75.053489,78.764741,0.0],[-75.033881,78.764557,0.0],[-75.021281,78.764124,0.0],[-75.018576,78.76474,0.0],[-75.013136,78.764724,0.0],[-75.005871,78.765259,0.0],[-74.992964,78.765154,0.0],[-74.985204,78.76657,0.0],[-74.981932,78.76615,0.0],[-74.982635,78.76516,0.0],[-74.981216,78.76482,0.0],[-74.977421,78.764848,0.0],[-74.971017,78.764614,0.0],[-74.964924,78.76404,0.0],[-74.95811,78.763487,0.0],[-74.949168,78.763207,0.0],[-74.943855,78.762823,0.0],[-74.938276,78.762358,0.0],[-74.933998,78.761716,0.0],[-74.927578,78.761759,0.0],[-74.922366,78.762866,0.0],[-74.922324,78.763939,0.0],[-74.919227,78.764741,0.0],[-74.910428,78.764909,0.0],[-74.904959,78.764832,0.0],[-74.901084,78.765757,0.0],[-74.899618,78.766252,0.0],[-74.89656,78.766565,0.0],[-74.887122,78.767585,0.0],[-74.883613,78.767167,0.0],[-74.880254,78.767132,0.0],[-74.876302,78.767536,0.0],[-74.874488,78.768261,0.0],[-74.871146,78.768851,0.0],[-74.867517,78.769643,0.0],[-74.865295,78.770463,0.0],[-74.859832,78.770697,0.0],[-74.855613,78.771068,0.0],[-74.846481,78.771046,0.0],[-74.839309,78.770171,0.0],[-74.837682,78.769574,0.0],[-74.83235,78.76923,0.0],[-74.828455,78.768873,0.0],[-74.826214,78.769069,0.0],[-74.823943,78.769646,0.0],[-74.823042,78.77032,0.0],[-74.826613,78.770948,0.0],[-74.828183,78.771985,0.0],[-74.828679,78.773035,0.0],[-74.826887,78.774037,0.0],[-74.826548,78.775312,0.0],[-74.828298,78.7757,0.0],[-74.828212,78.776178,0.0],[-74.827071,78.77664,0.0],[-74.825447,78.777334,0.0],[-74.822868,78.778146,0.0],[-74.819307,78.7788,0.0],[-74.813525,78.778958,0.0],[-74.808365,78.778955,0.0],[-74.802676,78.778941,0.0],[-74.79419,78.778834,0.0],[-74.788938,78.778498,0.0],[-74.786721,78.777848,0.0],[-74.783296,78.777603,0.0],[-74.766848,78.777087,0.0],[-74.76185,78.777023,0.0],[-74.760344,78.776293,0.0],[-74.758648,78.775496,0.0],[-74.756091,78.774645,0.0],[-74.75547,78.773835,0.0],[-74.756118,78.772983,0.0],[-74.758004,78.771497,0.0],[-74.76026,78.769985,0.0],[-74.758608,78.769431,0.0],[-74.759909,78.768037,0.0],[-74.758641,78.76711,0.0],[-74.755684,78.766667,0.0],[-74.753581,78.765942,0.0],[-74.752628,78.765113,0.0],[-74.752284,78.764448,0.0],[-74.750401,78.763992,0.0],[-74.747,78.763271,0.0],[-74.745156,78.762219,0.0],[-74.746194,78.761305,0.0],[-74.748931,78.760531,0.0],[-74.754749,78.759648,0.0],[-74.759386,78.759295,0.0],[-74.76113,78.760129,0.0],[-74.765882,78.761069,0.0],[-74.775201,78.761543,0.0],[-74.785671,78.761668,0.0],[-74.802409,78.759962,0.0],[-74.812363,78.758394,0.0],[-74.819273,78.757137,0.0],[-74.842199,78.757237,0.0],[-74.863431,78.756928,0.0],[-74.899534,78.754774,0.0],[-74.932892,78.754147,0.0],[-74.957362,78.754924,0.0],[-74.98084,78.755772,0.0],[-75.009301,78.756251,0.0],[-75.029847,78.757223,0.0],[-75.045961,78.756612,0.0],[-75.058759,78.758034,0.0],[-75.085469,78.759231,0.0],[-75.118813,78.759723,0.0],[-75.137899,78.759155,0.0],[-75.155886,78.757398,0.0],[-75.168346,78.75531,0.0],[-75.178687,78.755678,0.0],[-75.182829,78.755371,0.0],[-75.189551,78.754456,0.0],[-75.192339,78.75451,0.0],[-75.19689,78.753784,0.0],[-75.201037,78.75359,0.0],[-75.202926,78.75282,0.0],[-75.204549,78.75231,0.0],[-75.206038,78.752065,0.0],[-75.209596,78.75052,0.0],[-75.212613,78.750038,0.0],[-75.215447,78.749827,0.0],[-75.218424,78.749336,0.0],[-75.222604,78.749417,0.0],[-75.223903,78.749716,0.0],[-75.225253,78.749743,0.0],[-75.228047,78.749522,0.0],[-75.228587,78.74846,0.0],[-75.230123,78.748206,0.0],[-75.230394,78.747671,0.0],[-75.234531,78.747751,0.0],[-75.234794,78.747233,0.0],[-75.240426,78.747076,0.0],[-75.244503,78.747155,0.0],[-75.24936,78.745608,0.0],[-75.250934,78.745379,0.0],[-75.251202,78.744848,0.0],[-75.259482,78.745008,0.0],[-75.261075,78.744486,0.0],[-75.263926,78.744273,0.0],[-75.264064,78.744,0.0],[-75.266901,78.742733,0.0],[-75.267202,78.741573,0.0],[-75.260862,78.740618,0.0],[-75.257663,78.737948,0.0],[-75.253463,78.736701,0.0],[-75.246759,78.735351,0.0],[-75.248947,78.734394,0.0],[-75.250353,78.731195,0.0],[-75.25246,78.730641,0.0],[-75.252435,78.729886,0.0],[-75.255571,78.729708,0.0],[-75.260351,78.729086,0.0],[-75.266236,78.728287,0.0],[-75.27677,78.728331,0.0],[-75.278226,78.727049,0.0],[-75.284297,78.727086,0.0],[-75.289228,78.727776,0.0],[-75.293553,78.728057,0.0],[-75.294365,78.728867,0.0],[-75.298817,78.729706,0.0],[-75.30144,78.73055,0.0],[-75.303333,78.730824,0.0],[-75.305541,78.73047,0.0],[-75.311226,78.730062,0.0],[-75.320212,78.729956,0.0],[-75.323116,78.730646,0.0],[-75.327144,78.73112,0.0],[-75.33415,78.731369,0.0],[-75.334326,78.731376,0.0],[-75.342299,78.732083,0.0],[-75.352991,78.7337,0.0],[-75.353867,78.733731,0.0],[-75.359073,78.733472,0.0],[-75.370456,78.73468,0.0],[-75.373465,78.735338,0.0],[-75.377604,78.736243,0.0],[-75.384492,78.73669,0.0],[-75.390993,78.737924,0.0],[-75.392897,78.738595,0.0],[-75.395405,78.739277,0.0],[-75.392238,78.739931,0.0],[-75.388037,78.74021,0.0],[-75.384765,78.740664,0.0],[-75.382109,78.740693,0.0],[-75.380448,78.741178,0.0],[-75.381163,78.741786,0.0],[-75.371272,78.743059,0.0],[-75.360785,78.74501,0.0],[-75.351162,78.745816,0.0],[-75.338634,78.747669,0.0],[-75.332733,78.749358,0.0],[-75.332936,78.751337,0.0],[-75.339658,78.753381,0.0],[-75.353253,78.755381,0.0],[-75.364084,78.75576,0.0],[-75.372659,78.755283,0.0],[-75.381624,78.75522,0.0],[-75.387296,78.754989,0.0],[-75.39128,78.755359,0.0],[-75.396546,78.755973,0.0],[-75.400611,78.756344,0.0],[-75.403104,78.756649,0.0],[-75.40564,78.757248,0.0],[-75.409662,78.757324,0.0],[-75.411154,78.758639,0.0],[-75.410787,78.762147,0.0],[-75.412221,78.763036,0.0],[-75.410198,78.767142,0.0],[-75.403347,78.767578,0.0],[-75.399715,78.766316,0.0],[-75.387572,78.764033,0.0],[-75.374778,78.763759,0.0],[-75.36336,78.76414,0.0],[-75.358793,78.764984,0.0]],[[-75.295977,78.763248,0.0],[-75.291813,78.763168,0.0],[-75.288787,78.763668,0.0],[-75.285954,78.763867,0.0],[-75.280322,78.76403,0.0],[-75.280187,78.764298,0.0],[-75.281287,78.764868,0.0],[-75.282526,78.765162,0.0],[-75.283817,78.765187,0.0],[-75.289495,78.765017,0.0],[-75.291143,78.764499,0.0],[-75.292648,78.764266,0.0],[-75.298103,78.76437,0.0],[-75.299646,78.764145,0.0],[-75.299784,78.763869,0.0],[-75.298545,78.763575,0.0],[-75.295977,78.763248,0.0]]]}},{"type":"Feature","properties":{"rgi_id":"RGI2000-v7.0-G-03-04296","o1region":"03"},"geometry":{"type":"Polygon","coordinates":[[[-75.090929,78.800205,0.0],[-75.093361,78.800794,0.0],[-75.09212,78.801767,0.0],[-75.087118,78.802284,0.0],[-75.081473,78.802286,0.0],[-75.077154,78.80273,0.0],[-75.073797,78.803193,0.0],[-75.0722,78.803736,0.0],[-75.070166,78.80418,0.0],[-75.069958,78.805688,0.0],[-75.07156,78.807458,0.0],[-75.074574,78.808766,0.0],[-75.077191,78.809346,0.0],[-75.078569,78.810432,0.0],[-75.078098,78.81133,0.0],[-75.079676,78.811664,0.0],[-75.079627,78.812872,0.0],[-75.079326,78.81419,0.0],[-75.077313,78.815057,0.0],[-75.070781,78.816364,0.0],[-75.068825,78.81712,0.0],[-75.067039,78.818294,0.0],[-75.070363,78.819758,0.0],[-75.066788,78.820255,0.0],[-75.04786,78.820051,0.0],[-75.043184,78.820657,0.0],[-75.039624,78.821493,0.0],[-75.037765,78.823536,0.0],[-75.029502,78.823674,0.0],[-75.026345,78.823006,0.0],[-75.026933,78.820349,0.0],[-75.030289,78.819607,0.0],[-75.032198,78.818208,0.0],[-75.029716,78.817743,0.0],[-75.025954,78.817434,0.0],[-75.023461,78.816673,0.0],[-75.01966,78.816222,0.0],[-75.014425,78.815594,0.0],[-75.014652,78.815058,0.0],[-75.016207,78.814802,0.0],[-75.017751,78.814568,0.0],[-75.020459,78.814123,0.0],[-75.028223,78.813932,0.0],[-75.033453,78.813621,0.0],[-75.036933,78.812934,0.0],[-75.038178,78.812051,0.0],[-75.038821,78.811572,0.0],[-75.037792,78.810569,0.0],[-75.037949,78.809711,0.0],[-75.039718,78.809133,0.0],[-75.040054,78.808497,0.0],[-75.037628,78.808298,0.0],[-75.036481,78.807519,0.0],[-75.042341,78.807484,0.0],[-75.04445,78.806808,0.0],[-75.045402,78.806108,0.0],[-75.043855,78.804981,0.0],[-75.041241,78.8044,0.0],[-75.034306,78.804368,0.0],[-75.032271,78.803692,0.0],[-75.026453,78.803652,0.0],[-75.019398,78.803248,0.0],[-75.01389,78.80238,0.0],[-75.003366,78.802083,0.0],[-74.997288,78.800689,0.0],[-74.998054,78.798887,0.0],[-75.000257,78.797919,0.0],[-75.00649,78.798716,0.0],[-75.013475,78.799121,0.0],[-75.019809,78.799285,0.0],[-75.027126,78.799431,0.0],[-75.032942,78.799471,0.0],[-75.03903,78.799366,0.0],[-75.042476,78.799472,0.0],[-75.046445,78.799324,0.0],[-75.049555,78.798592,0.0],[-75.051068,78.797564,0.0],[-75.054931,78.796506,0.0],[-75.061155,78.796138,0.0],[-75.064879,78.795343,0.0],[-75.073215,78.795394,0.0],[-75.076445,78.795912,0.0],[-75.080387,78.796557,0.0],[-75.083111,78.797669,0.0],[-75.081969,78.798365,0.0],[-75.083908,78.799121,0.0],[-75.085844,78.800256,0.0],[-75.090929,78.800205,0.0]]]}},{"type":"Feature","properties":{"rgi_id":"RGI2000-v7.0-G-03-04297","o1region":"03"},"geometry":{"type":"Polygon","coordinates":[[[-75.082544,78.787242,0.0],[-75.086519,78.788067,0.0],[-75.088674,78.789307,0.0],[-75.086408,78.789923,0.0],[-75.080798,78.790427,0.0],[-75.075576,78.790654,0.0],[-75.069465,78.790722,0.0],[-75.069048,78.791517,0.0],[-75.066349,78.792031,0.0],[-75.062027,78.791724,0.0],[-75.057346,78.791487,0.0],[-75.052004,78.791485,0.0],[-75.048709,78.791316,0.0],[-75.044803,78.79152,0.0],[-75.041599,78.791624,0.0],[-75.039213,78.792096,0.0],[-75.034046,78.792097,0.0],[-75.026286,78.791814,0.0],[-75.021164,78.791529,0.0],[-75.011166,78.791571,0.0],[-75.006565,78.791514,0.0],[-75.001119,78.79137,0.0],[-74.994972,78.79186,0.0],[-74.989833,78.792494,0.0],[-74.982825,78.792942,0.0],[-74.981548,78.793332,0.0],[-74.978953,78.793523,0.0],[-74.97483,78.793855,0.0],[-74.97311,78.79428,0.0],[-74.970666,78.79436,0.0],[-74.968647,78.794805,0.0],[-74.966884,78.794769,0.0],[-74.965864,78.794357,0.0],[-74.966904,78.79373,0.0],[-74.966491,78.793288,0.0],[-74.966042,78.792674,0.0],[-74.963915,78.792319,0.0],[-74.964821,78.791957,0.0],[-74.966273,78.791677,0.0],[-74.966226,78.791327,0.0],[-74.968111,78.790464,0.0],[-74.976855,78.789434,0.0],[-74.978348,78.789188,0.0],[-74.979889,78.788954,0.0],[-74.983249,78.788795,0.0],[-74.992598,78.788526,0.0],[-74.997504,78.788111,0.0],[-74.998396,78.787436,0.0],[-75.001062,78.787109,0.0],[-75.003941,78.786716,0.0],[-75.008202,78.786782,0.0],[-75.011055,78.787032,0.0],[-75.014837,78.786939,0.0],[-75.017848,78.786683,0.0],[-75.020784,78.786041,0.0],[-75.024221,78.785892,0.0],[-75.028242,78.785343,0.0],[-75.034324,78.785368,0.0],[-75.037424,78.785688,0.0],[-75.039976,78.785912,0.0],[-75.045301,78.78578,0.0],[-75.046666,78.785041,0.0],[-75.051207,78.784954,0.0],[-75.056753,78.785524,0.0],[-75.063731,78.786107,0.0],[-75.068431,78.786651,0.0],[-75.074491,78.786979,0.0],[-75.078789,78.787272,0.0],[-75.082544,78.787242,0.0]]]}},{"type":"Feature","properties":{"rgi_id":"RGI2000-v7.0-G-03-04298","o1region":"03"},"geometry":{"type":"Polygon","coordinates":[[[-75.071913,78.783742,0.0],[-75.068149,78.783113,0.0],[-75.063993,78.782892,0.0],[-75.05924,78.782451,0.0],[-75.05634,78.781874,0.0],[-75.048493,78.780887,0.0],[-75.042085,78.780551,0.0],[-75.035813,78.779283,0.0],[-75.03076,78.779079,0.0],[-75.026796,78.779173,0.0],[-75.023745,78.778211,0.0],[-75.020228,78.777795,0.0],[-75.015891,78.777965,0.0],[-75.012901,78.777856,0.0],[-75.010193,78.777594,0.0],[-75.007096,78.777393,0.0],[-75.001141,78.777551,0.0],[-74.990147,78.777442,0.0],[-74.987544,78.777693,0.0],[-74.977121,78.777553,0.0],[-74.973532,78.778277,0.0],[-74.968754,78.778562,0.0],[-74.964177,78.778469,0.0],[-74.959611,78.778689,0.0],[-74.957176,78.778917,0.0],[-74.954062,78.77875,0.0],[-74.950031,78.778634,0.0],[-74.94704,78.778557,0.0],[-74.944739,78.778215,0.0],[-74.944151,78.777649,0.0],[-74.941445,78.777386,0.0],[-74.938258,78.777356,0.0],[-74.93539,78.776397,0.0],[-74.93542,78.775012,0.0],[-74.935934,78.774053,0.0],[-74.933575,78.773764,0.0],[-74.93317,78.773235,0.0],[-74.929834,78.772821,0.0],[-74.930212,78.772447,0.0],[-74.935996,78.771941,0.0],[-74.94053,78.771444,0.0],[-74.944258,78.770792,0.0],[-74.949451,78.770724,0.0],[-74.953856,78.770467,0.0],[-74.960321,78.769969,0.0],[-74.964911,78.769409,0.0],[-74.970853,78.769553,0.0],[-74.97471,78.769074,0.0],[-74.978307,78.768614,0.0],[-74.978498,78.768255,0.0],[-74.981235,78.767799,0.0],[-74.984125,78.767605,0.0],[-74.988219,78.767868,0.0],[-74.991086,78.768699,0.0],[-74.99863,78.769443,0.0],[-75.001687,78.769917,0.0],[-75.011006,78.77031,0.0],[-75.01519,78.769904,0.0],[-75.029713,78.769963,0.0],[-75.034552,78.769636,0.0],[-75.054167,78.769755,0.0],[-75.055914,78.77046,0.0],[-75.057664,78.770907,0.0],[-75.060166,78.770931,0.0],[-75.064089,78.770261,0.0],[-75.065275,78.769512,0.0],[-75.067047,78.769096,0.0],[-75.068768,78.769916,0.0],[-75.077041,78.770286,0.0],[-75.076377,78.771304,0.0],[-75.072992,78.771959,0.0],[-75.070443,78.772784,0.0],[-75.064582,78.773364,0.0],[-75.062686,78.774202,0.0],[-75.06805,78.775082,0.0],[-75.083674,78.77583,0.0],[-75.08631,78.775598,0.0],[-75.082962,78.774914,0.0],[-75.084169,78.774628,0.0],[-75.09123,78.774794,0.0],[-75.09321,78.774549,0.0],[-75.097384,78.774868,0.0],[-75.101423,78.774789,0.0],[-75.105785,78.775055,0.0],[-75.112304,78.776008,0.0],[-75.114404,78.775569,0.0],[-75.118022,78.775193,0.0],[-75.123156,78.7755,0.0],[-75.135905,78.775673,0.0],[-75.141785,78.776845,0.0],[-75.146344,78.776986,0.0],[-75.14713,78.777259,0.0],[-75.144848,78.777833,0.0],[-75.143437,78.77873,0.0],[-75.134306,78.778811,0.0],[-75.126898,78.779636,0.0],[-75.12287,78.780673,0.0],[-75.119284,78.781816,0.0],[-75.112467,78.782458,0.0],[-75.099334,78.782296,0.0],[-75.092884,78.783188,0.0],[-75.0837,78.783104,0.0],[-75.071913,78.783742,0.0]]]}},{"type":"Feature","properties":{"rgi_id":"RGI2000-v7.0-G-03-04360","o1region":"03"},"geometry":{"type":"Polygon","coordinates":[[[-74.426152,78.723548,0.0],[-74.418071,78.719843,0.0],[-74.394515,78.721571,0.0],[-74.392109,78.717865,0.0],[-74.402954,78.71279,0.0],[-74.414243,78.713713,0.0],[-74.422059,78.713942,0.0],[-74.423276,78.709037,0.0],[-74.432789,78.711109,0.0],[-74.443608,78.711425,0.0],[-74.450733,78.712007,0.0],[-74.447273,78.713632,0.0],[-74.451831,78.716987,0.0],[-74.441236,78.717874,0.0],[-74.440015,78.719475,0.0],[-74.426152,78.723548,0.0]]]}}]}
