{"type":"FeatureCollection","features":[{"type":"Feature","properties":{"rgi_id":"RGI2000-v7.0-G-05-04957","o1region":"05"},"geometry":{"type":"Polygon","coordinates":[[[-47.942334,61.17482,0.0],[-47.942438,61.173745,0.0],[-47.941881,61.173732,0.0],[-47.941907,61.173463,0.0],[-47.942464,61.173476,0.0],[-47.942516,61.172938,0.0],[-47.944744,61.172988,0.0],[-47.94477,61.172719,0.0],[-47.945327,61.172732,0.0],[-47.945353,61.172463,0.0],[-47.943125,61.172413,0.0],[-47.943099,61.172681,0.0],[-47.940315,61.172619,0.0],[-47.940341,61.17235,0.0],[-47.940898,61.172362,0.0],[-47.940924,61.172093,0.0],[-47.942038,61.172118,0.0],[-47.942064,61.171849,0.0],[-47.943734,61.171887,0.0],[-47.94376,61.171618,0.0],[-47.944874,61.171643,0.0],[-47.9449,61.171374,0.0],[-47.944343,61.171362,0.0],[-47.944474,61.170017,0.0],[-47.943917,61.170005,0.0],[-47.943943,61.169736,0.0],[-47.9445,61.169748,0.0],[-47.944526,61.169479,0.0],[-47.945639,61.169504,0.0],[-47.945613,61.169773,0.0],[-47.945056,61.169761,0.0],[-47.944978,61.170568,0.0],[-47.945535,61.17058,0.0],[-47.945431,61.171656,0.0],[-47.946545,61.171681,0.0],[-47.946493,61.172219,0.0],[-47.945936,61.172206,0.0],[-47.94591,61.172475,0.0],[-47.946467,61.172488,0.0],[-47.946415,61.173026,0.0],[-47.947529,61.173051,0.0],[-47.947477,61.173589,0.0],[-47.946363,61.173564,0.0],[-47.946311,61.174102,0.0],[-47.945754,61.174089,0.0],[-47.945832,61.173282,0.0],[-47.944718,61.173257,0.0],[-47.944614,61.174333,0.0],[-47.944057,61.17432,0.0],[-47.944031,61.174589,0.0],[-47.943474,61.174577,0.0],[-47.943448,61.174846,0.0],[-47.942334,61.17482,0.0]]]}},{"type":"Feature","properties":{"rgi_id":"RGI2000-v7.0-G-05-04958","o1region":"05"},"geometry":{"type":"Polygon","coordinates":[[[-47.920298,61.177555,0.0],[-47.920325,61.177286,0.0],[-47.920882,61.177299,0.0],[-47.920908,61.17703,0.0],[-47.921465,61.177043,0.0],[-47.921491,61.176774,0.0],[-47.922605,61.176799,0.0],[-47.92271,61.175723,0.0],[-47.924381,61.175761,0.0],[-47.924407,61.175492,0.0],[-47.924964,61.175505,0.0],[-47.924938,61.175774,0.0],[-47.927166,61.175825,0.0],[-47.927139,61.176093,0.0],[-47.926582,61.176081,0.0],[-47.926556,61.17635,0.0],[-47.925999,61.176337,0.0],[-47.925973,61.176606,0.0],[-47.925416,61.176593,0.0],[-47.92539,61.176862,0.0],[-47.924833,61.17685,0.0],[-47.924807,61.177119,0.0],[-47.92425,61.177106,0.0],[-47.924197,61.177644,0.0],[-47.925868,61.177682,0.0],[-47.925894,61.177413,0.0],[-47.926451,61.177426,0.0],[-47.926399,61.177963,0.0],[-47.927513,61.177989,0.0],[-47.927487,61.178258,0.0],[-47.928044,61.17827,0.0],[-47.927991,61.178808,0.0],[-47.927434,61.178796,0.0],[-47.927408,61.179064,0.0],[-47.926851,61.179052,0.0],[-47.926799,61.17959,0.0],[-47.927356,61.179602,0.0],[-47.92733,61.179871,0.0],[-47.926773,61.179859,0.0],[-47.926746,61.180128,0.0],[-47.925632,61.180102,0.0],[-47.925659,61.179833,0.0],[-47.925102,61.179821,0.0],[-47.925128,61.179552,0.0],[-47.924571,61.179539,0.0],[-47.924597,61.17927,0.0],[-47.92404,61.179257,0.0],[-47.924092,61.17872,0.0],[-47.924649,61.178732,0.0],[-47.924702,61.178194,0.0],[-47.924145,61.178182,0.0],[-47.924171,61.177913,0.0],[-47.923614,61.1779,0.0],[-47.923666,61.177362,0.0],[-47.922553,61.177337,0.0],[-47.922526,61.177606,0.0],[-47.921969,61.177593,0.0],[-47.921996,61.177324,0.0],[-47.921439,61.177312,0.0],[-47.921412,61.17758,0.0],[-47.920298,61.177555,0.0]]]}},{"type":"Feature","properties":{"rgi_id":"RGI2000-v7.0-G-05-04959","o1region":"05"},"geometry":{"type":"Polygon","coordinates":[[[-47.920298,61.177555,0.0],[-47.920272,61.177824,0.0],[-47.919715,61.177811,0.0],[-47.919689,61.17808,0.0],[-47.919132,61.178068,0.0],[-47.919079,61.178606,0.0],[-47.918522,61.178593,0.0],[-47.918496,61.178862,0.0],[-47.917939,61.178849,0.0],[-47.917913,61.179118,0.0],[-47.917356,61.179105,0.0],[-47.917329,61.179374,0.0],[-47.916772,61.179362,0.0],[-47.916746,61.179631,0.0],[-47.915632,61.179605,0.0],[-47.915606,61.179874,0.0],[-47.915049,61.179861,0.0],[-47.915023,61.18013,0.0],[-47.914465,61.180118,0.0],[-47.914439,61.180387,0.0],[-47.913325,61.180361,0.0],[-47.913351,61.180092,0.0],[-47.91168,61.180054,0.0],[-47.911707,61.179785,0.0],[-47.91115,61.179772,0.0],[-47.911202,61.179235,0.0],[-47.911759,61.179247,0.0],[-47.911733,61.179516,0.0],[-47.912847,61.179542,0.0],[-47.912926,61.178735,0.0],[-47.913483,61.178748,0.0],[-47.913509,61.178479,0.0],[-47.914623,61.178504,0.0],[-47.91465,61.178235,0.0],[-47.915207,61.178248,0.0],[-47.915233,61.177979,0.0],[-47.914676,61.177966,0.0],[-47.914702,61.177697,0.0],[-47.915259,61.17771,0.0],[-47.915286,61.177441,0.0],[-47.914172,61.177416,0.0],[-47.914145,61.177684,0.0],[-47.913031,61.177659,0.0],[-47.913005,61.177928,0.0],[-47.911334,61.17789,0.0],[-47.911387,61.177352,0.0],[-47.911944,61.177365,0.0],[-47.91197,61.177096,0.0],[-47.913641,61.177134,0.0],[-47.91372,61.176327,0.0],[-47.914277,61.17634,0.0],[-47.914303,61.176071,0.0],[-47.912075,61.17602,0.0],[-47.912102,61.175751,0.0],[-47.913215,61.175777,0.0],[-47.913268,61.175239,0.0],[-47.913825,61.175251,0.0],[-47.913799,61.17552,0.0],[-47.91547,61.175558,0.0],[-47.915417,61.176096,0.0],[-47.915974,61.176109,0.0],[-47.915948,61.176378,0.0],[-47.916505,61.176391,0.0],[-47.916399,61.177466,0.0],[-47.916956,61.177479,0.0],[-47.91693,61.177748,0.0],[-47.918044,61.177773,0.0],[-47.91807,61.177504,0.0],[-47.920298,61.177555,0.0]]]}},{"type":"Feature","properties":{"rgi_id":"RGI2000-v7.0-G-05-04960","o1region":"05"},"geometry":{"type":"Polygon","coordinates":[[[-47.885527,61.179185,0.0],[-47.883856,61.179147,0.0],[-47.883936,61.17834,0.0],[-47.88505,61.178366,0.0],[-47.885077,61.178097,0.0],[-47.886191,61.178122,0.0],[-47.88627,61.177315,0.0],[-47.887941,61.177354,0.0],[-47.887888,61.177892,0.0],[-47.888445,61.177905,0.0],[-47.888418,61.178173,0.0],[-47.889532,61.178199,0.0],[-47.889559,61.17793,0.0],[-47.890116,61.177943,0.0],[-47.890142,61.177674,0.0],[-47.891256,61.1777,0.0],[-47.891097,61.179313,0.0],[-47.889983,61.179288,0.0],[-47.89001,61.179019,0.0],[-47.889453,61.179006,0.0],[-47.889426,61.179275,0.0],[-47.888869,61.179262,0.0],[-47.888816,61.1798,0.0],[-47.887702,61.179774,0.0],[-47.887676,61.180043,0.0],[-47.886562,61.180018,0.0],[-47.886535,61.180287,0.0],[-47.885421,61.180261,0.0],[-47.885448,61.179992,0.0],[-47.886005,61.180005,0.0],[-47.886058,61.179467,0.0],[-47.887172,61.179493,0.0],[-47.887225,61.178955,0.0],[-47.886668,61.178942,0.0],[-47.886694,61.178673,0.0],[-47.886137,61.17866,0.0],[-47.886111,61.178929,0.0],[-47.885554,61.178916,0.0],[-47.885527,61.179185,0.0]],[[-47.88558,61.178647,0.0],[-47.885023,61.178634,0.0],[-47.884997,61.178903,0.0],[-47.885554,61.178916,0.0],[-47.88558,61.178647,0.0]]]}},{"type":"Feature","properties":{"rgi_id":"RGI2000-v7.0-G-05-04961","o1region":"05"},"geometry":{"type":"Polygon","coordinates":[[[-47.851014,61.20615,0.0],[-47.850457,61.206137,0.0],[-47.85043,61.206406,0.0],[-47.849872,61.206393,0.0],[-47.849845,61.206662,0.0],[-47.849288,61.206649,0.0],[-47.849369,61.205842,0.0],[-47.849926,61.205855,0.0],[-47.84998,61.205317,0.0],[-47.851652,61.205356,0.0],[-47.851786,61.204011,0.0],[-47.851229,61.203998,0.0],[-47.851283,61.203461,0.0],[-47.85184,61.203473,0.0],[-47.851867,61.203205,0.0],[-47.852982,61.20323,0.0],[-47.853009,61.202962,0.0],[-47.854123,61.202987,0.0],[-47.85415,61.202719,0.0],[-47.856937,61.202783,0.0],[-47.856884,61.203321,0.0],[-47.857441,61.203334,0.0],[-47.857414,61.203603,0.0],[-47.857972,61.203616,0.0],[-47.857864,61.204692,0.0],[-47.857307,61.204679,0.0],[-47.85728,61.204948,0.0],[-47.856723,61.204935,0.0],[-47.856696,61.205204,0.0],[-47.855581,61.205178,0.0],[-47.855554,61.205447,0.0],[-47.854997,61.205434,0.0],[-47.85497,61.205703,0.0],[-47.854412,61.20569,0.0],[-47.854386,61.205959,0.0],[-47.853271,61.205933,0.0],[-47.853244,61.206202,0.0],[-47.852129,61.206176,0.0],[-47.852156,61.205907,0.0],[-47.851041,61.205881,0.0],[-47.851014,61.20615,0.0]],[[-47.851068,61.205612,0.0],[-47.85051,61.205599,0.0],[-47.850483,61.205868,0.0],[-47.851041,61.205881,0.0],[-47.851068,61.205612,0.0]],[[-47.853962,61.204601,0.0],[-47.852848,61.204575,0.0],[-47.852821,61.204844,0.0],[-47.853936,61.20487,0.0],[-47.853962,61.204601,0.0]]]}},{"type":"Feature","properties":{"rgi_id":"RGI2000-v7.0-G-05-04962","o1region":"05"},"geometry":{"type":"Polygon","coordinates":[[[-47.918815,61.267008,0.0],[-47.918841,61.266739,0.0],[-47.919399,61.266752,0.0],[-47.919426,61.266483,0.0],[-47.919984,61.266495,0.0],[-47.920011,61.266226,0.0],[-47.919452,61.266214,0.0],[-47.919479,61.265945,0.0],[-47.91892,61.265932,0.0],[-47.918946,61.265663,0.0],[-47.916712,61.265612,0.0],[-47.916686,61.265881,0.0],[-47.915569,61.265856,0.0],[-47.915542,61.266125,0.0],[-47.913867,61.266087,0.0],[-47.913893,61.265818,0.0],[-47.914452,61.26583,0.0],[-47.914478,61.265561,0.0],[-47.915595,61.265587,0.0],[-47.915622,61.265318,0.0],[-47.91618,61.265331,0.0],[-47.916206,61.265062,0.0],[-47.917324,61.265087,0.0],[-47.917403,61.26428,0.0],[-47.920195,61.264344,0.0],[-47.920143,61.264882,0.0],[-47.92126,61.264907,0.0],[-47.921207,61.265445,0.0],[-47.922883,61.265483,0.0],[-47.922856,61.265752,0.0],[-47.923415,61.265765,0.0],[-47.923388,61.266034,0.0],[-47.924506,61.266059,0.0],[-47.924558,61.265521,0.0],[-47.925117,61.265534,0.0],[-47.924985,61.266878,0.0],[-47.924427,61.266866,0.0],[-47.924453,61.266597,0.0],[-47.923894,61.266584,0.0],[-47.923921,61.266315,0.0],[-47.921128,61.266252,0.0],[-47.921102,61.266521,0.0],[-47.920543,61.266508,0.0],[-47.920517,61.266777,0.0],[-47.919958,61.266764,0.0],[-47.919905,61.267302,0.0],[-47.919347,61.267289,0.0],[-47.919373,61.26702,0.0],[-47.918815,61.267008,0.0]]]}},{"type":"Feature","properties":{"rgi_id":"RGI2000-v7.0-G-05-04963","o1region":"05"},"geometry":{"type":"Polygon","coordinates":[[[-47.946263,61.26682,0.0],[-47.946289,61.266551,0.0],[-47.945731,61.266539,0.0],[-47.945705,61.266808,0.0],[-47.944588,61.266782,0.0],[-47.944614,61.266514,0.0],[-47.943497,61.266488,0.0],[-47.943523,61.266219,0.0],[-47.942964,61.266207,0.0],[-47.943017,61.265669,0.0],[-47.944134,61.265694,0.0],[-47.94416,61.265425,0.0],[-47.946394,61.265475,0.0],[-47.94642,61.265207,0.0],[-47.948096,61.265244,0.0],[-47.948122,61.264975,0.0],[-47.950356,61.265026,0.0],[-47.95033,61.265295,0.0],[-47.953123,61.265357,0.0],[-47.953097,61.265626,0.0],[-47.954214,61.265651,0.0],[-47.954188,61.26592,0.0],[-47.954746,61.265933,0.0],[-47.954694,61.266471,0.0],[-47.954136,61.266458,0.0],[-47.95411,61.266727,0.0],[-47.951317,61.266664,0.0],[-47.951291,61.266933,0.0],[-47.946263,61.26682,0.0]]]}},{"type":"Feature","properties":{"rgi_id":"RGI2000-v7.0-G-05-04964","o1region":"05"},"geometry":{"type":"Polygon","coordinates":[[[-47.952423,61.261029,0.0],[-47.952449,61.26076,0.0],[-47.953566,61.260785,0.0],[-47.953592,61.260516,0.0],[-47.95415,61.260529,0.0],[-47.954176,61.26026,0.0],[-47.953618,61.260247,0.0],[-47.953644,61.259978,0.0],[-47.95141,61.259928,0.0],[-47.951384,61.260197,0.0],[-47.950826,61.260185,0.0],[-47.9508,61.260454,0.0],[-47.950241,61.260441,0.0],[-47.950293,61.259903,0.0],[-47.949176,61.259878,0.0],[-47.949202,61.259609,0.0],[-47.950878,61.259647,0.0],[-47.950904,61.259378,0.0],[-47.951462,61.25939,0.0],[-47.951436,61.259659,0.0],[-47.953112,61.259697,0.0],[-47.953164,61.259159,0.0],[-47.953722,61.259172,0.0],[-47.953748,61.258903,0.0],[-47.954307,61.258915,0.0],[-47.954463,61.257302,0.0],[-47.953905,61.257289,0.0],[-47.953931,61.25702,0.0],[-47.953372,61.257007,0.0],[-47.95345,61.256201,0.0],[-47.955126,61.256238,0.0],[-47.9551,61.256507,0.0],[-47.955658,61.25652,0.0],[-47.955606,61.257058,0.0],[-47.956164,61.25707,0.0],[-47.956138,61.257339,0.0],[-47.956697,61.257352,0.0],[-47.956749,61.256814,0.0],[-47.95619,61.256801,0.0],[-47.956242,61.256263,0.0],[-47.957359,61.256288,0.0],[-47.957333,61.256557,0.0],[-47.95845,61.256582,0.0],[-47.958346,61.257658,0.0],[-47.957787,61.257646,0.0],[-47.957709,61.258453,0.0],[-47.957151,61.25844,0.0],[-47.957125,61.258709,0.0],[-47.956566,61.258696,0.0],[-47.956514,61.259234,0.0],[-47.955956,61.259222,0.0],[-47.95593,61.259491,0.0],[-47.955371,61.259478,0.0],[-47.955293,61.260285,0.0],[-47.954735,61.260272,0.0],[-47.954683,61.26081,0.0],[-47.954124,61.260798,0.0],[-47.954098,61.261067,0.0],[-47.952423,61.261029,0.0]]]}},{"type":"Feature","properties":{"rgi_id":"RGI2000-v7.0-G-05-04965","o1region":"05"},"geometry":{"type":"Polygon","coordinates":[[[-47.965346,61.26051,0.0],[-47.965372,61.260241,0.0],[-47.96593,61.260254,0.0],[-47.965982,61.259716,0.0],[-47.965424,61.259704,0.0],[-47.965553,61.258359,0.0],[-47.966112,61.258371,0.0],[-47.966164,61.257833,0.0],[-47.966722,61.257846,0.0],[-47.966748,61.257577,0.0],[-47.967307,61.257589,0.0],[-47.967333,61.257321,0.0],[-47.968449,61.257346,0.0],[-47.968475,61.257077,0.0],[-47.967917,61.257064,0.0],[-47.967943,61.256795,0.0],[-47.968501,61.256808,0.0],[-47.968527,61.256539,0.0],[-47.970761,61.256589,0.0],[-47.970787,61.25632,0.0],[-47.971904,61.256345,0.0],[-47.971852,61.256882,0.0],[-47.971293,61.25687,0.0],[-47.971267,61.257139,0.0],[-47.970151,61.257114,0.0],[-47.970125,61.257383,0.0],[-47.969566,61.25737,0.0],[-47.96954,61.257639,0.0],[-47.968982,61.257627,0.0],[-47.968904,61.258434,0.0],[-47.968346,61.258421,0.0],[-47.968372,61.258152,0.0],[-47.967813,61.25814,0.0],[-47.967787,61.258409,0.0],[-47.967229,61.258396,0.0],[-47.967099,61.259741,0.0],[-47.967658,61.259754,0.0],[-47.967554,61.260829,0.0],[-47.966995,61.260817,0.0],[-47.967021,61.260548,0.0],[-47.965346,61.26051,0.0]]]}},{"type":"Feature","properties":{"rgi_id":"RGI2000-v7.0-G-05-04966","o1region":"05"},"geometry":{"type":"Polygon","coordinates":[[[-47.711578,61.283974,0.0],[-47.711606,61.283705,0.0],[-47.711047,61.283691,0.0],[-47.711103,61.283154,0.0],[-47.710545,61.28314,0.0],[-47.710573,61.282871,0.0],[-47.710014,61.282858,0.0],[-47.710098,61.282051,0.0],[-47.710657,61.282065,0.0],[-47.710629,61.282334,0.0],[-47.712305,61.282374,0.0],[-47.712333,61.282105,0.0],[-47.711775,61.282092,0.0],[-47.711803,61.281823,0.0],[-47.712362,61.281836,0.0],[-47.71239,61.281568,0.0],[-47.712948,61.281581,0.0],[-47.713089,61.280237,0.0],[-47.714206,61.280264,0.0],[-47.714235,61.279995,0.0],[-47.713676,61.279981,0.0],[-47.713704,61.279712,0.0],[-47.713145,61.279699,0.0],[-47.71323,61.278892,0.0],[-47.713788,61.278906,0.0],[-47.713817,61.278637,0.0],[-47.714375,61.27865,0.0],[-47.714319,61.279188,0.0],[-47.714878,61.279202,0.0],[-47.714821,61.279739,0.0],[-47.715939,61.279767,0.0],[-47.715911,61.280035,0.0],[-47.716469,61.280049,0.0],[-47.716385,61.280856,0.0],[-47.715826,61.280842,0.0],[-47.715798,61.281111,0.0],[-47.715239,61.281097,0.0],[-47.715099,61.282442,0.0],[-47.71454,61.282428,0.0],[-47.714484,61.282966,0.0],[-47.713925,61.282953,0.0],[-47.713897,61.283221,0.0],[-47.71278,61.283194,0.0],[-47.712723,61.283732,0.0],[-47.712164,61.283719,0.0],[-47.712136,61.283987,0.0],[-47.711578,61.283974,0.0]],[[-47.714066,61.281608,0.0],[-47.713507,61.281595,0.0],[-47.713479,61.281863,0.0],[-47.714038,61.281877,0.0],[-47.714066,61.281608,0.0]]]}},{"type":"Feature","properties":{"rgi_id":"RGI2000-v7.0-G-05-04967","o1region":"05"},"geometry":{"type":"Polygon","coordinates":[[[-47.807173,61.368471,0.0],[-47.807256,61.367664,0.0],[-47.806695,61.367651,0.0],[-47.806832,61.366307,0.0],[-47.806272,61.366293,0.0],[-47.8063,61.366024,0.0],[-47.80686,61.366038,0.0],[-47.806915,61.3655,0.0],[-47.807475,61.365513,0.0],[-47.807502,61.365244,0.0],[-47.808063,61.365257,0.0],[-47.808118,61.364719,0.0],[-47.806997,61.364693,0.0],[-47.807052,61.364155,0.0],[-47.807612,61.364168,0.0],[-47.80764,61.3639,0.0],[-47.8082,61.363913,0.0],[-47.808227,61.363644,0.0],[-47.809348,61.36367,0.0],[-47.80943,61.362863,0.0],[-47.80999,61.362877,0.0],[-47.810045,61.362339,0.0],[-47.810605,61.362352,0.0],[-47.81055,61.36289,0.0],[-47.811671,61.362916,0.0],[-47.811616,61.363454,0.0],[-47.812176,61.363467,0.0],[-47.812149,61.363736,0.0],[-47.811589,61.363723,0.0],[-47.811561,61.363992,0.0],[-47.811001,61.363978,0.0],[-47.810974,61.364247,0.0],[-47.809853,61.364221,0.0],[-47.809798,61.364759,0.0],[-47.809238,61.364746,0.0],[-47.809156,61.365552,0.0],[-47.808596,61.365539,0.0],[-47.808404,61.367422,0.0],[-47.808964,61.367435,0.0],[-47.808909,61.367973,0.0],[-47.81003,61.367999,0.0],[-47.810002,61.368268,0.0],[-47.808882,61.368241,0.0],[-47.808854,61.36851,0.0],[-47.807173,61.368471,0.0]]]}},{"type":"Feature","properties":{"rgi_id":"RGI2000-v7.0-G-05-04968","o1region":"05"},"geometry":{"type":"Polygon","coordinates":[[[-47.814498,61.373764,0.0],[-47.813377,61.373738,0.0],[-47.813349,61.374007,0.0],[-47.812789,61.373994,0.0],[-47.812762,61.374263,0.0],[-47.812201,61.374249,0.0],[-47.812146,61.374787,0.0],[-47.811586,61.374774,0.0],[-47.811531,61.375312,0.0],[-47.809289,61.375259,0.0],[-47.809235,61.375797,0.0],[-47.810916,61.375837,0.0],[-47.810861,61.376374,0.0],[-47.810301,61.376361,0.0],[-47.810273,61.37663,0.0],[-47.809713,61.376617,0.0],[-47.809685,61.376886,0.0],[-47.809125,61.376873,0.0],[-47.809097,61.377142,0.0],[-47.808537,61.377128,0.0],[-47.80851,61.377397,0.0],[-47.805147,61.377318,0.0],[-47.805174,61.377049,0.0],[-47.805735,61.377063,0.0],[-47.80579,61.376525,0.0],[-47.80691,61.376551,0.0],[-47.806965,61.376013,0.0],[-47.807526,61.376027,0.0],[-47.807553,61.375758,0.0],[-47.805872,61.375718,0.0],[-47.805899,61.375449,0.0],[-47.80646,61.375462,0.0],[-47.806542,61.374656,0.0],[-47.805982,61.374643,0.0],[-47.806009,61.374374,0.0],[-47.80713,61.3744,0.0],[-47.807157,61.374131,0.0],[-47.807718,61.374144,0.0],[-47.807745,61.373875,0.0],[-47.808866,61.373902,0.0],[-47.808756,61.374977,0.0],[-47.809317,61.37499,0.0],[-47.809344,61.374722,0.0],[-47.810465,61.374748,0.0],[-47.810493,61.374479,0.0],[-47.811053,61.374492,0.0],[-47.81108,61.374223,0.0],[-47.811641,61.374236,0.0],[-47.811668,61.373967,0.0],[-47.811108,61.373954,0.0],[-47.811163,61.373416,0.0],[-47.811723,61.37343,0.0],[-47.81186,61.372085,0.0],[-47.81242,61.372098,0.0],[-47.812475,61.37156,0.0],[-47.811354,61.371534,0.0],[-47.811382,61.371265,0.0],[-47.811942,61.371278,0.0],[-47.81197,61.371009,0.0],[-47.81253,61.371023,0.0],[-47.812557,61.370754,0.0],[-47.813678,61.37078,0.0],[-47.813705,61.370511,0.0],[-47.815386,61.37055,0.0],[-47.815469,61.369744,0.0],[-47.814908,61.369731,0.0],[-47.814853,61.370268,0.0],[-47.813733,61.370242,0.0],[-47.813788,61.369704,0.0],[-47.814348,61.369717,0.0],[-47.814375,61.369449,0.0],[-47.814936,61.369462,0.0],[-47.81499,61.368924,0.0],[-47.816111,61.36895,0.0],[-47.816084,61.369219,0.0],[-47.816644,61.369232,0.0],[-47.816589,61.36977,0.0],[-47.81715,61.369783,0.0],[-47.817204,61.369245,0.0],[-47.818325,61.369272,0.0],[-47.818352,61.369003,0.0],[-47.818913,61.369016,0.0],[-47.818858,61.369554,0.0],[-47.818298,61.36954,0.0],[-47.81827,61.369809,0.0],[-47.81771,61.369796,0.0],[-47.817655,61.370334,0.0],[-47.816535,61.370308,0.0],[-47.81637,61.371921,0.0],[-47.81581,61.371908,0.0],[-47.815728,61.372715,0.0],[-47.815168,61.372702,0.0],[-47.81514,61.372971,0.0],[-47.81458,61.372958,0.0],[-47.814498,61.373764,0.0]],[[-47.814662,61.372151,0.0],[-47.814102,61.372138,0.0],[-47.814019,61.372944,0.0],[-47.81458,61.372958,0.0],[-47.814662,61.372151,0.0]],[[-47.813036,61.371574,0.0],[-47.813008,61.371842,0.0],[-47.813569,61.371856,0.0],[-47.813596,61.371587,0.0],[-47.813036,61.371574,0.0]]]}},{"type":"Feature","properties":{"rgi_id":"RGI2000-v7.0-G-05-04969","o1region":"05"},"geometry":{"type":"Polygon","coordinates":[[[-47.834689,61.379627,0.0],[-47.834744,61.379089,0.0],[-47.834183,61.379076,0.0],[-47.83421,61.378807,0.0],[-47.833089,61.378781,0.0],[-47.833144,61.378243,0.0],[-47.834825,61.378282,0.0],[-47.834852,61.378013,0.0],[-47.834292,61.378,0.0],[-47.834482,61.376118,0.0],[-47.835043,61.376131,0.0],[-47.83507,61.375862,0.0],[-47.83451,61.375849,0.0],[-47.834537,61.37558,0.0],[-47.833976,61.375567,0.0],[-47.833949,61.375836,0.0],[-47.832828,61.37581,0.0],[-47.832801,61.376079,0.0],[-47.832241,61.376066,0.0],[-47.832349,61.37499,0.0],[-47.83291,61.375003,0.0],[-47.832937,61.374734,0.0],[-47.834058,61.37476,0.0],[-47.834194,61.373416,0.0],[-47.834754,61.373429,0.0],[-47.834782,61.37316,0.0],[-47.835342,61.373173,0.0],[-47.835288,61.373711,0.0],[-47.835848,61.373724,0.0],[-47.835658,61.375606,0.0],[-47.836218,61.375619,0.0],[-47.836082,61.376964,0.0],[-47.836643,61.376977,0.0],[-47.836616,61.377246,0.0],[-47.836055,61.377233,0.0],[-47.836028,61.377502,0.0],[-47.836588,61.377515,0.0],[-47.836534,61.378053,0.0],[-47.835973,61.37804,0.0],[-47.835837,61.379384,0.0],[-47.835277,61.379371,0.0],[-47.83525,61.37964,0.0],[-47.834689,61.379627,0.0]],[[-47.834058,61.37476,0.0],[-47.834004,61.375298,0.0],[-47.834564,61.375311,0.0],[-47.834618,61.374773,0.0],[-47.834058,61.37476,0.0]]]}},{"type":"Feature","properties":{"rgi_id":"RGI2000-v7.0-G-05-04970","o1region":"05"},"geometry":{"type":"Polygon","coordinates":[[[-47.89702,61.436588,0.0],[-47.897047,61.43632,0.0],[-47.893678,61.436243,0.0],[-47.893704,61.435974,0.0],[-47.893143,61.435961,0.0],[-47.893223,61.435154,0.0],[-47.893785,61.435167,0.0],[-47.893811,61.434898,0.0],[-47.892127,61.43486,0.0],[-47.892153,61.434591,0.0],[-47.891592,61.434578,0.0],[-47.891672,61.433771,0.0],[-47.892795,61.433797,0.0],[-47.892769,61.434066,0.0],[-47.896699,61.434155,0.0],[-47.896673,61.434424,0.0],[-47.896111,61.434411,0.0],[-47.896084,61.43468,0.0],[-47.895523,61.434668,0.0],[-47.895469,61.435205,0.0],[-47.897154,61.435244,0.0],[-47.897181,61.434975,0.0],[-47.897742,61.434988,0.0],[-47.897715,61.435257,0.0],[-47.899962,61.435308,0.0],[-47.899935,61.435577,0.0],[-47.899373,61.435564,0.0],[-47.89932,61.436102,0.0],[-47.898758,61.436089,0.0],[-47.898732,61.436358,0.0],[-47.89817,61.436345,0.0],[-47.898143,61.436614,0.0],[-47.89702,61.436588,0.0]]]}},{"type":"Feature","properties":{"rgi_id":"RGI2000-v7.0-G-05-04971","o1region":"05"},"geometry":{"type":"Polygon","coordinates":[[[-47.750129,61.576832,0.0],[-47.750185,61.576294,0.0],[-47.750749,61.576307,0.0],[-47.750778,61.576038,0.0],[-47.751906,61.576065,0.0],[-47.751934,61.575796,0.0],[-47.752498,61.57581,0.0],[-47.752526,61.575541,0.0],[-47.753654,61.575568,0.0],[-47.753738,61.574761,0.0],[-47.754302,61.574775,0.0],[-47.75433,61.574506,0.0],[-47.754894,61.574519,0.0],[-47.754951,61.573981,0.0],[-47.755515,61.573995,0.0],[-47.755543,61.573726,0.0],[-47.756107,61.573739,0.0],[-47.756135,61.57347,0.0],[-47.757263,61.573497,0.0],[-47.757291,61.573228,0.0],[-47.757855,61.573242,0.0],[-47.757883,61.572973,0.0],[-47.758447,61.572986,0.0],[-47.758475,61.572717,0.0],[-47.759603,61.572744,0.0],[-47.759631,61.572475,0.0],[-47.760195,61.572489,0.0],[-47.760167,61.572757,0.0],[-47.760731,61.572771,0.0],[-47.760703,61.57304,0.0],[-47.760139,61.573026,0.0],[-47.760111,61.573295,0.0],[-47.758419,61.573255,0.0],[-47.758391,61.573524,0.0],[-47.758955,61.573537,0.0],[-47.758927,61.573806,0.0],[-47.759491,61.57382,0.0],[-47.759435,61.574357,0.0],[-47.758307,61.574331,0.0],[-47.758278,61.574599,0.0],[-47.757714,61.574586,0.0],[-47.757658,61.575124,0.0],[-47.755966,61.575084,0.0],[-47.755938,61.575353,0.0],[-47.75481,61.575326,0.0],[-47.754754,61.575863,0.0],[-47.755318,61.575877,0.0],[-47.75529,61.576146,0.0],[-47.755854,61.576159,0.0],[-47.755826,61.576428,0.0],[-47.755262,61.576415,0.0],[-47.755233,61.576684,0.0],[-47.753541,61.576643,0.0],[-47.753513,61.576912,0.0],[-47.750129,61.576832,0.0]],[[-47.757235,61.573766,0.0],[-47.756671,61.573753,0.0],[-47.756643,61.574022,0.0],[-47.757207,61.574035,0.0],[-47.757235,61.573766,0.0]]]}},{"type":"Feature","properties":{"rgi_id":"RGI2000-v7.0-G-05-04972","o1region":"05"},"geometry":{"type":"Polygon","coordinates":[[[-47.729566,61.584158,0.0],[-47.729594,61.583889,0.0],[-47.72903,61.583875,0.0],[-47.729059,61.583606,0.0],[-47.728494,61.583593,0.0],[-47.728523,61.583324,0.0],[-47.729087,61.583338,0.0],[-47.729115,61.583069,0.0],[-47.729679,61.583082,0.0],[-47.729708,61.582813,0.0],[-47.728579,61.582786,0.0],[-47.728608,61.582517,0.0],[-47.729736,61.582544,0.0],[-47.729764,61.582276,0.0],[-47.730329,61.582289,0.0],[-47.730357,61.58202,0.0],[-47.730921,61.582034,0.0],[-47.730893,61.582303,0.0],[-47.732021,61.58233,0.0],[-47.732049,61.582061,0.0],[-47.734306,61.582115,0.0],[-47.734391,61.581308,0.0],[-47.734955,61.581322,0.0],[-47.734898,61.581859,0.0],[-47.737155,61.581913,0.0],[-47.737126,61.582182,0.0],[-47.736562,61.582169,0.0],[-47.736534,61.582438,0.0],[-47.735406,61.582411,0.0],[-47.735349,61.582948,0.0],[-47.733093,61.582894,0.0],[-47.733064,61.583163,0.0],[-47.7325,61.58315,0.0],[-47.732472,61.583419,0.0],[-47.731908,61.583405,0.0],[-47.731879,61.583674,0.0],[-47.731315,61.58366,0.0],[-47.731287,61.583929,0.0],[-47.730723,61.583916,0.0],[-47.730694,61.584185,0.0],[-47.729566,61.584158,0.0]]]}},{"type":"Feature","properties":{"rgi_id":"RGI2000-v7.0-G-05-04973","o1region":"05"},"geometry":{"type":"Polygon","coordinates":[[[-47.690306,61.581055,0.0],[-47.689742,61.581041,0.0],[-47.689684,61.581579,0.0],[-47.68912,61.581566,0.0],[-47.689178,61.581028,0.0],[-47.688613,61.581014,0.0],[-47.688642,61.580745,0.0],[-47.688078,61.580732,0.0],[-47.688049,61.581,0.0],[-47.685229,61.580932,0.0],[-47.685172,61.58147,0.0],[-47.6863,61.581497,0.0],[-47.686214,61.582304,0.0],[-47.685085,61.582276,0.0],[-47.685057,61.582545,0.0],[-47.683928,61.582518,0.0],[-47.683957,61.582249,0.0],[-47.683393,61.582235,0.0],[-47.683422,61.581966,0.0],[-47.682294,61.581939,0.0],[-47.682207,61.582746,0.0],[-47.681643,61.582732,0.0],[-47.681787,61.581388,0.0],[-47.682351,61.581401,0.0],[-47.682437,61.580595,0.0],[-47.68413,61.580636,0.0],[-47.684158,61.580367,0.0],[-47.685286,61.580394,0.0],[-47.685258,61.580663,0.0],[-47.68695,61.580704,0.0],[-47.686979,61.580435,0.0],[-47.689799,61.580504,0.0],[-47.689914,61.579428,0.0],[-47.690478,61.579442,0.0],[-47.690507,61.579173,0.0],[-47.689942,61.579159,0.0],[-47.69,61.578622,0.0],[-47.691128,61.578649,0.0],[-47.691157,61.57838,0.0],[-47.692285,61.578408,0.0],[-47.692256,61.578676,0.0],[-47.691692,61.578663,0.0],[-47.691577,61.579738,0.0],[-47.691013,61.579725,0.0],[-47.690784,61.581875,0.0],[-47.691348,61.581889,0.0],[-47.691262,61.582696,0.0],[-47.690134,61.582668,0.0],[-47.690306,61.581055,0.0]]]}},{"type":"Feature","properties":{"rgi_id":"RGI2000-v7.0-G-05-04974","o1region":"05"},"geometry":{"type":"Polygon","coordinates":[[[-47.748242,61.648757,0.0],[-47.748327,61.64795,0.0],[-47.748892,61.647964,0.0],[-47.748949,61.647426,0.0],[-47.749514,61.647439,0.0],[-47.749542,61.64717,0.0],[-47.750108,61.647184,0.0],[-47.750136,61.646915,0.0],[-47.750701,61.646928,0.0],[-47.750729,61.64666,0.0],[-47.750164,61.646646,0.0],[-47.750192,61.646377,0.0],[-47.750758,61.646391,0.0],[-47.750814,61.645853,0.0],[-47.75251,61.645893,0.0],[-47.752566,61.645355,0.0],[-47.753697,61.645382,0.0],[-47.753612,61.646189,0.0],[-47.754178,61.646202,0.0],[-47.754093,61.647009,0.0],[-47.753528,61.646996,0.0],[-47.753499,61.647264,0.0],[-47.752369,61.647238,0.0],[-47.752341,61.647506,0.0],[-47.75121,61.64748,0.0],[-47.751125,61.648286,0.0],[-47.749995,61.648259,0.0],[-47.749966,61.648528,0.0],[-47.749401,61.648515,0.0],[-47.749373,61.648784,0.0],[-47.748242,61.648757,0.0]]]}},{"type":"Feature","properties":{"rgi_id":"RGI2000-v7.0-G-05-04975","o1region":"05"},"geometry":{"type":"Polygon","coordinates":[[[-47.765327,61.669648,0.0],[-47.765355,61.669379,0.0],[-47.763092,61.669325,0.0],[-47.76312,61.669056,0.0],[-47.763686,61.66907,0.0],[-47.763714,61.668801,0.0],[-47.76428,61.668814,0.0],[-47.764308,61.668545,0.0],[-47.764874,61.668559,0.0],[-47.764902,61.66829,0.0],[-47.765468,61.668303,0.0],[-47.765552,61.667497,0.0],[-47.767815,61.66755,0.0],[-47.767843,61.667281,0.0],[-47.76954,61.667321,0.0],[-47.769512,61.66759,0.0],[-47.768946,61.667577,0.0],[-47.76889,61.668114,0.0],[-47.768324,61.668101,0.0],[-47.768296,61.66837,0.0],[-47.768862,61.668383,0.0],[-47.768834,61.668652,0.0],[-47.769965,61.668679,0.0],[-47.769909,61.669217,0.0],[-47.769343,61.669203,0.0],[-47.769315,61.669472,0.0],[-47.768749,61.669459,0.0],[-47.768777,61.66919,0.0],[-47.766515,61.669137,0.0],[-47.766486,61.669405,0.0],[-47.765921,61.669392,0.0],[-47.765893,61.669661,0.0],[-47.765327,61.669648,0.0]]]}},{"type":"Feature","properties":{"rgi_id":"RGI2000-v7.0-G-05-04976","o1region":"05"},"geometry":{"type":"Polygon","coordinates":[[[-47.771666,61.67411,0.0],[-47.769969,61.67407,0.0],[-47.769941,61.674339,0.0],[-47.769375,61.674325,0.0],[-47.769403,61.674057,0.0],[-47.768837,61.674043,0.0],[-47.768809,61.674312,0.0],[-47.766546,61.674259,0.0],[-47.766518,61.674528,0.0],[-47.76482,61.674487,0.0],[-47.764876,61.67395,0.0],[-47.76714,61.674003,0.0],[-47.767168,61.673734,0.0],[-47.768299,61.673761,0.0],[-47.768328,61.673492,0.0],[-47.770025,61.673532,0.0],[-47.770053,61.673263,0.0],[-47.770619,61.673277,0.0],[-47.770647,61.673008,0.0],[-47.771213,61.673021,0.0],[-47.771241,61.672752,0.0],[-47.772373,61.672779,0.0],[-47.772401,61.67251,0.0],[-47.772966,61.672523,0.0],[-47.773023,61.671986,0.0],[-47.773588,61.671999,0.0],[-47.77356,61.672268,0.0],[-47.774126,61.672281,0.0],[-47.774098,61.67255,0.0],[-47.774664,61.672563,0.0],[-47.774608,61.673101,0.0],[-47.774042,61.673088,0.0],[-47.773986,61.673626,0.0],[-47.772854,61.673599,0.0],[-47.77277,61.674406,0.0],[-47.771638,61.674379,0.0],[-47.771666,61.67411,0.0]]]}},{"type":"Feature","properties":{"rgi_id":"RGI2000-v7.0-G-05-04977","o1region":"05"},"geometry":{"type":"Polygon","coordinates":[[[-47.740572,61.683885,0.0],[-47.740601,61.683616,0.0],[-47.741167,61.68363,0.0],[-47.741223,61.683092,0.0],[-47.740657,61.683079,0.0],[-47.740742,61.682272,0.0],[-47.741308,61.682286,0.0],[-47.741337,61.682017,0.0],[-47.741903,61.68203,0.0],[-47.741931,61.681761,0.0],[-47.741365,61.681748,0.0],[-47.741422,61.68121,0.0],[-47.742554,61.681237,0.0],[-47.742469,61.682044,0.0],[-47.743601,61.682071,0.0],[-47.743572,61.682339,0.0],[-47.744704,61.682366,0.0],[-47.744676,61.682635,0.0],[-47.745808,61.682662,0.0],[-47.745779,61.682931,0.0],[-47.746345,61.682944,0.0],[-47.74626,61.683751,0.0],[-47.746826,61.683765,0.0],[-47.746798,61.684033,0.0],[-47.747364,61.684047,0.0],[-47.747251,61.685122,0.0],[-47.746685,61.685109,0.0],[-47.746713,61.68484,0.0],[-47.746147,61.684827,0.0],[-47.746232,61.68402,0.0],[-47.745666,61.684007,0.0],[-47.745694,61.683738,0.0],[-47.744562,61.683711,0.0],[-47.744591,61.683442,0.0],[-47.744025,61.683428,0.0],[-47.743968,61.683966,0.0],[-47.744534,61.68398,0.0],[-47.744421,61.685055,0.0],[-47.745553,61.685082,0.0],[-47.745524,61.685351,0.0],[-47.743826,61.68531,0.0],[-47.743855,61.685042,0.0],[-47.743289,61.685028,0.0],[-47.743374,61.684222,0.0],[-47.741676,61.684181,0.0],[-47.741704,61.683912,0.0],[-47.740572,61.683885,0.0]]]}},{"type":"Feature","properties":{"rgi_id":"RGI2000-v7.0-G-05-04978","o1region":"05"},"geometry":{"type":"Polygon","coordinates":[[[-47.732902,61.686667,0.0],[-47.732987,61.685861,0.0],[-47.732421,61.685847,0.0],[-47.732506,61.685041,0.0],[-47.73194,61.685027,0.0],[-47.732026,61.684221,0.0],[-47.732592,61.684234,0.0],[-47.732648,61.683696,0.0],[-47.732082,61.683683,0.0],[-47.732111,61.683414,0.0],[-47.728149,61.683319,0.0],[-47.728121,61.683588,0.0],[-47.725857,61.683534,0.0],[-47.725828,61.683803,0.0],[-47.725262,61.683789,0.0],[-47.725319,61.683252,0.0],[-47.723621,61.683211,0.0],[-47.723678,61.682673,0.0],[-47.72481,61.6827,0.0],[-47.724839,61.682431,0.0],[-47.727103,61.682486,0.0],[-47.727131,61.682217,0.0],[-47.728263,61.682244,0.0],[-47.728235,61.682513,0.0],[-47.729367,61.68254,0.0],[-47.729338,61.682809,0.0],[-47.732734,61.68289,0.0],[-47.732705,61.683159,0.0],[-47.734403,61.683199,0.0],[-47.734375,61.683468,0.0],[-47.738337,61.683562,0.0],[-47.738308,61.683831,0.0],[-47.740006,61.683872,0.0],[-47.739978,61.684141,0.0],[-47.739412,61.684127,0.0],[-47.739355,61.684665,0.0],[-47.738789,61.684651,0.0],[-47.738732,61.685189,0.0],[-47.7376,61.685162,0.0],[-47.737572,61.685431,0.0],[-47.73644,61.685404,0.0],[-47.736468,61.685135,0.0],[-47.735336,61.685108,0.0],[-47.735308,61.685377,0.0],[-47.734742,61.685364,0.0],[-47.734657,61.68617,0.0],[-47.734091,61.686157,0.0],[-47.734062,61.686426,0.0],[-47.733496,61.686412,0.0],[-47.733468,61.686681,0.0],[-47.732902,61.686667,0.0]],[[-47.733638,61.685068,0.0],[-47.733667,61.684799,0.0],[-47.734233,61.684812,0.0],[-47.734261,61.684543,0.0],[-47.733129,61.684516,0.0],[-47.733072,61.685054,0.0],[-47.733638,61.685068,0.0]]]}},{"type":"Feature","properties":{"rgi_id":"RGI2000-v7.0-G-05-04979","o1region":"05"},"geometry":{"type":"Polygon","coordinates":[[[-47.745384,61.675913,0.0],[-47.744818,61.6759,0.0],[-47.74479,61.676169,0.0],[-47.742527,61.676115,0.0],[-47.742498,61.676384,0.0],[-47.741367,61.676357,0.0],[-47.741423,61.675819,0.0],[-47.740857,61.675806,0.0],[-47.740886,61.675537,0.0],[-47.735793,61.675415,0.0],[-47.735765,61.675684,0.0],[-47.734633,61.675657,0.0],[-47.73469,61.675119,0.0],[-47.735256,61.675133,0.0],[-47.735313,61.674595,0.0],[-47.735878,61.674609,0.0],[-47.735907,61.67434,0.0],[-47.736473,61.674353,0.0],[-47.736501,61.674084,0.0],[-47.735935,61.674071,0.0],[-47.735964,61.673802,0.0],[-47.734832,61.673775,0.0],[-47.734804,61.674044,0.0],[-47.733672,61.674017,0.0],[-47.733644,61.674286,0.0],[-47.733078,61.674272,0.0],[-47.733049,61.674541,0.0],[-47.731918,61.674514,0.0],[-47.731833,61.675321,0.0],[-47.730701,61.675294,0.0],[-47.730615,61.6761,0.0],[-47.73005,61.676087,0.0],[-47.730021,61.676356,0.0],[-47.727758,61.676302,0.0],[-47.727815,61.675764,0.0],[-47.728946,61.675791,0.0],[-47.728975,61.675522,0.0],[-47.729541,61.675536,0.0],[-47.729598,61.674998,0.0],[-47.728466,61.674971,0.0],[-47.728495,61.674702,0.0],[-47.727929,61.674688,0.0],[-47.727957,61.674419,0.0],[-47.727391,61.674406,0.0],[-47.727448,61.673868,0.0],[-47.726317,61.673841,0.0],[-47.726345,61.673572,0.0],[-47.726911,61.673586,0.0],[-47.726939,61.673317,0.0],[-47.728071,61.673344,0.0],[-47.728043,61.673613,0.0],[-47.728608,61.673626,0.0],[-47.728637,61.673358,0.0],[-47.729768,61.673385,0.0],[-47.729797,61.673116,0.0],[-47.731494,61.673156,0.0],[-47.731523,61.672887,0.0],[-47.732088,61.672901,0.0],[-47.732117,61.672632,0.0],[-47.732683,61.672646,0.0],[-47.732711,61.672377,0.0],[-47.73158,61.67235,0.0],[-47.731608,61.672081,0.0],[-47.732174,61.672094,0.0],[-47.732231,61.671557,0.0],[-47.732796,61.67157,0.0],[-47.732825,61.671301,0.0],[-47.731693,61.671274,0.0],[-47.73175,61.670736,0.0],[-47.734013,61.67079,0.0],[-47.733985,61.671059,0.0],[-47.735682,61.6711,0.0],[-47.735654,61.671369,0.0],[-47.737351,61.671409,0.0],[-47.737266,61.672216,0.0],[-47.738963,61.672256,0.0],[-47.738991,61.671987,0.0],[-47.739557,61.672001,0.0],[-47.739585,61.671732,0.0],[-47.742414,61.671799,0.0],[-47.742443,61.671531,0.0],[-47.744706,61.671584,0.0],[-47.744677,61.671853,0.0],[-47.745809,61.67188,0.0],[-47.745781,61.672149,0.0],[-47.746346,61.672163,0.0],[-47.746233,61.673238,0.0],[-47.745102,61.673211,0.0],[-47.745017,61.674018,0.0],[-47.745582,61.674031,0.0],[-47.745526,61.674569,0.0],[-47.746657,61.674596,0.0],[-47.746629,61.674865,0.0],[-47.746063,61.674851,0.0],[-47.74595,61.675927,0.0],[-47.746516,61.67594,0.0],[-47.746431,61.676747,0.0],[-47.745865,61.676733,0.0],[-47.745893,61.676465,0.0],[-47.745327,61.676451,0.0],[-47.745384,61.675913,0.0]]]}},{"type":"Feature","properties":{"rgi_id":"RGI2000-v7.0-G-05-04980","o1region":"05"},"geometry":{"type":"Polygon","coordinates":[[[-47.713571,61.687013,0.0],[-47.7136,61.686744,0.0],[-47.712468,61.686717,0.0],[-47.712439,61.686986,0.0],[-47.711873,61.686972,0.0],[-47.711902,61.686704,0.0],[-47.711336,61.68669,0.0],[-47.711421,61.685883,0.0],[-47.710855,61.68587,0.0],[-47.710941,61.685063,0.0],[-47.710375,61.68505,0.0],[-47.710519,61.683705,0.0],[-47.712216,61.683746,0.0],[-47.712188,61.684015,0.0],[-47.712754,61.684029,0.0],[-47.712639,61.685104,0.0],[-47.713205,61.685118,0.0],[-47.713177,61.685386,0.0],[-47.713743,61.6854,0.0],[-47.713714,61.685669,0.0],[-47.71428,61.685683,0.0],[-47.714337,61.685145,0.0],[-47.714903,61.685158,0.0],[-47.714875,61.685427,0.0],[-47.715441,61.685441,0.0],[-47.715412,61.68571,0.0],[-47.715978,61.685723,0.0],[-47.715892,61.68653,0.0],[-47.71476,61.686503,0.0],[-47.714732,61.686772,0.0],[-47.714166,61.686758,0.0],[-47.714137,61.687027,0.0],[-47.713571,61.687013,0.0]]]}},{"type":"Feature","properties":{"rgi_id":"RGI2000-v7.0-G-05-04981","o1region":"05"},"geometry":{"type":"Polygon","coordinates":[[[-47.802138,61.64275,0.0],[-47.802165,61.642481,0.0],[-47.8016,61.642468,0.0],[-47.801711,61.641392,0.0],[-47.802277,61.641406,0.0],[-47.802388,61.64033,0.0],[-47.803518,61.640357,0.0],[-47.803546,61.640088,0.0],[-47.804111,61.640101,0.0],[-47.804083,61.64037,0.0],[-47.804649,61.640383,0.0],[-47.804621,61.640652,0.0],[-47.805751,61.640678,0.0],[-47.805696,61.641216,0.0],[-47.806261,61.641229,0.0],[-47.806206,61.641767,0.0],[-47.80564,61.641754,0.0],[-47.805557,61.642561,0.0],[-47.803861,61.642521,0.0],[-47.803833,61.64279,0.0],[-47.802138,61.64275,0.0]]]}},{"type":"Feature","properties":{"rgi_id":"RGI2000-v7.0-G-05-04982","o1region":"05"},"geometry":{"type":"Polygon","coordinates":[[[-47.811459,61.640272,0.0],[-47.811487,61.640004,0.0],[-47.810922,61.63999,0.0],[-47.810894,61.640259,0.0],[-47.810329,61.640246,0.0],[-47.810301,61.640515,0.0],[-47.808605,61.640475,0.0],[-47.808633,61.640206,0.0],[-47.809198,61.64022,0.0],[-47.809254,61.639682,0.0],[-47.809819,61.639695,0.0],[-47.809847,61.639426,0.0],[-47.810977,61.639453,0.0],[-47.811005,61.639184,0.0],[-47.81157,61.639197,0.0],[-47.811653,61.63839,0.0],[-47.812218,61.638403,0.0],[-47.812246,61.638134,0.0],[-47.812811,61.638148,0.0],[-47.812839,61.637879,0.0],[-47.813404,61.637892,0.0],[-47.813459,61.637354,0.0],[-47.812894,61.637341,0.0],[-47.812922,61.637072,0.0],[-47.813487,61.637085,0.0],[-47.813515,61.636816,0.0],[-47.81521,61.636856,0.0],[-47.815238,61.636587,0.0],[-47.816368,61.636613,0.0],[-47.816341,61.636882,0.0],[-47.815775,61.636869,0.0],[-47.815748,61.637138,0.0],[-47.814617,61.637112,0.0],[-47.814562,61.637649,0.0],[-47.815692,61.637676,0.0],[-47.815665,61.637945,0.0],[-47.814534,61.637918,0.0],[-47.814507,61.638187,0.0],[-47.813942,61.638174,0.0],[-47.813914,61.638443,0.0],[-47.813349,61.63843,0.0],[-47.813321,61.638699,0.0],[-47.812191,61.638672,0.0],[-47.812163,61.638941,0.0],[-47.814424,61.638994,0.0],[-47.814396,61.639263,0.0],[-47.813831,61.63925,0.0],[-47.813775,61.639787,0.0],[-47.81321,61.639774,0.0],[-47.813183,61.640043,0.0],[-47.812617,61.64003,0.0],[-47.812562,61.640568,0.0],[-47.811997,61.640554,0.0],[-47.812024,61.640286,0.0],[-47.811459,61.640272,0.0]]]}},{"type":"Feature","properties":{"rgi_id":"RGI2000-v7.0-G-05-04983","o1region":"05"},"geometry":{"type":"Polygon","coordinates":[[[-47.794522,61.634216,0.0],[-47.794578,61.633678,0.0],[-47.795143,61.633691,0.0],[-47.795199,61.633154,0.0],[-47.794069,61.633127,0.0],[-47.794041,61.633396,0.0],[-47.792911,61.63337,0.0],[-47.792855,61.633907,0.0],[-47.79229,61.633894,0.0],[-47.792401,61.632818,0.0],[-47.794096,61.632858,0.0],[-47.794124,61.632589,0.0],[-47.795254,61.632616,0.0],[-47.795227,61.632885,0.0],[-47.795792,61.632898,0.0],[-47.79582,61.632629,0.0],[-47.798645,61.632695,0.0],[-47.798673,61.632426,0.0],[-47.800368,61.632466,0.0],[-47.800396,61.632197,0.0],[-47.801526,61.632224,0.0],[-47.801498,61.632493,0.0],[-47.800933,61.632479,0.0],[-47.800877,61.633017,0.0],[-47.801443,61.63303,0.0],[-47.801387,61.633568,0.0],[-47.802517,61.633595,0.0],[-47.802489,61.633863,0.0],[-47.797404,61.633744,0.0],[-47.797376,61.634013,0.0],[-47.796811,61.634,0.0],[-47.796838,61.633731,0.0],[-47.795708,61.633705,0.0],[-47.79568,61.633974,0.0],[-47.795115,61.63396,0.0],[-47.795087,61.634229,0.0],[-47.794522,61.634216,0.0]]]}},{"type":"Feature","properties":{"rgi_id":"RGI2000-v7.0-G-05-04984","o1region":"05"},"geometry":{"type":"Polygon","coordinates":[[[-47.853935,61.640448,0.0],[-47.854044,61.639372,0.0],[-47.852348,61.639333,0.0],[-47.852403,61.638795,0.0],[-47.851838,61.638782,0.0],[-47.851865,61.638513,0.0],[-47.850735,61.638487,0.0],[-47.850844,61.637412,0.0],[-47.849149,61.637373,0.0],[-47.849176,61.637104,0.0],[-47.848611,61.637091,0.0],[-47.848638,61.636822,0.0],[-47.849769,61.636848,0.0],[-47.849796,61.636579,0.0],[-47.850361,61.636592,0.0],[-47.850389,61.636323,0.0],[-47.850954,61.636336,0.0],[-47.850926,61.636605,0.0],[-47.852622,61.636644,0.0],[-47.852595,61.636913,0.0],[-47.853725,61.636939,0.0],[-47.853698,61.637208,0.0],[-47.854828,61.637234,0.0],[-47.854855,61.636965,0.0],[-47.855421,61.636978,0.0],[-47.855448,61.636709,0.0],[-47.856578,61.636735,0.0],[-47.856606,61.636466,0.0],[-47.857736,61.636492,0.0],[-47.857791,61.635954,0.0],[-47.858356,61.635967,0.0],[-47.858383,61.635698,0.0],[-47.858948,61.635711,0.0],[-47.858921,61.63598,0.0],[-47.859486,61.635993,0.0],[-47.859431,61.636531,0.0],[-47.859997,61.636544,0.0],[-47.859969,61.636813,0.0],[-47.860535,61.636826,0.0],[-47.860371,61.638439,0.0],[-47.859806,61.638426,0.0],[-47.859833,61.638158,0.0],[-47.859268,61.638145,0.0],[-47.859295,61.637876,0.0],[-47.85873,61.637863,0.0],[-47.858703,61.638132,0.0],[-47.857572,61.638106,0.0],[-47.857545,61.638375,0.0],[-47.856414,61.638349,0.0],[-47.856387,61.638617,0.0],[-47.855822,61.638604,0.0],[-47.855794,61.638873,0.0],[-47.85636,61.638886,0.0],[-47.856332,61.639155,0.0],[-47.858028,61.639194,0.0],[-47.857973,61.639732,0.0],[-47.856278,61.639693,0.0],[-47.85625,61.639962,0.0],[-47.855685,61.639949,0.0],[-47.855658,61.640218,0.0],[-47.854527,61.640192,0.0],[-47.8545,61.640461,0.0],[-47.853935,61.640448,0.0]],[[-47.857736,61.636492,0.0],[-47.857709,61.636761,0.0],[-47.857143,61.636748,0.0],[-47.857116,61.637017,0.0],[-47.858246,61.637043,0.0],[-47.858274,61.636774,0.0],[-47.858839,61.636787,0.0],[-47.858866,61.636518,0.0],[-47.857736,61.636492,0.0]]]}},{"type":"Feature","properties":{"rgi_id":"RGI2000-v7.0-G-05-04985","o1region":"05"},"geometry":{"type":"Polygon","coordinates":[[[-47.883735,61.637087,0.0],[-47.883762,61.636818,0.0],[-47.882066,61.63678,0.0],[-47.882093,61.636511,0.0],[-47.882659,61.636524,0.0],[-47.882686,61.636255,0.0],[-47.882121,61.636242,0.0],[-47.882148,61.635973,0.0],[-47.881017,61.635947,0.0],[-47.881044,61.635678,0.0],[-47.884435,61.635756,0.0],[-47.884408,61.636024,0.0],[-47.885539,61.63605,0.0],[-47.885566,61.635781,0.0],[-47.885001,61.635768,0.0],[-47.885028,61.6355,0.0],[-47.884463,61.635487,0.0],[-47.88449,61.635218,0.0],[-47.883924,61.635205,0.0],[-47.883952,61.634936,0.0],[-47.882821,61.63491,0.0],[-47.882902,61.634103,0.0],[-47.885728,61.634168,0.0],[-47.885701,61.634437,0.0],[-47.886266,61.63445,0.0],[-47.886239,61.634719,0.0],[-47.886804,61.634731,0.0],[-47.886723,61.635538,0.0],[-47.886158,61.635525,0.0],[-47.886131,61.635794,0.0],[-47.886696,61.635807,0.0],[-47.886669,61.636076,0.0],[-47.888365,61.636115,0.0],[-47.888311,61.636652,0.0],[-47.886615,61.636614,0.0],[-47.886588,61.636883,0.0],[-47.884892,61.636844,0.0],[-47.884865,61.637113,0.0],[-47.883735,61.637087,0.0]]]}},{"type":"Feature","properties":{"rgi_id":"RGI2000-v7.0-G-05-04986","o1region":"05"},"geometry":{"type":"Polygon","coordinates":[[[-47.901876,61.6313,0.0],[-47.901903,61.631031,0.0],[-47.901338,61.631019,0.0],[-47.901365,61.63075,0.0],[-47.90193,61.630763,0.0],[-47.90201,61.629956,0.0],[-47.89975,61.629905,0.0],[-47.899777,61.629636,0.0],[-47.899212,61.629623,0.0],[-47.899239,61.629354,0.0],[-47.898109,61.629328,0.0],[-47.898136,61.629059,0.0],[-47.89644,61.629021,0.0],[-47.896467,61.628752,0.0],[-47.895902,61.628739,0.0],[-47.895929,61.62847,0.0],[-47.895364,61.628457,0.0],[-47.895391,61.628188,0.0],[-47.894261,61.628163,0.0],[-47.894288,61.627894,0.0],[-47.893723,61.627881,0.0],[-47.893858,61.626536,0.0],[-47.894423,61.626549,0.0],[-47.894396,61.626818,0.0],[-47.895526,61.626844,0.0],[-47.89558,61.626306,0.0],[-47.896145,61.626319,0.0],[-47.896118,61.626588,0.0],[-47.896683,61.626601,0.0],[-47.89671,61.626332,0.0],[-47.89784,61.626357,0.0],[-47.897894,61.62582,0.0],[-47.898459,61.625832,0.0],[-47.898513,61.625294,0.0],[-47.899078,61.625307,0.0],[-47.899105,61.625038,0.0],[-47.89967,61.625051,0.0],[-47.899724,61.624513,0.0],[-47.900289,61.624526,0.0],[-47.900315,61.624257,0.0],[-47.90088,61.62427,0.0],[-47.900934,61.623732,0.0],[-47.902629,61.623771,0.0],[-47.902602,61.62404,0.0],[-47.903167,61.624052,0.0],[-47.903194,61.623783,0.0],[-47.903759,61.623796,0.0],[-47.903786,61.623527,0.0],[-47.904351,61.62354,0.0],[-47.904512,61.621927,0.0],[-47.903947,61.621914,0.0],[-47.903974,61.621645,0.0],[-47.902844,61.621619,0.0],[-47.902817,61.621888,0.0],[-47.901688,61.621863,0.0],[-47.901661,61.622132,0.0],[-47.900531,61.622106,0.0],[-47.900504,61.622375,0.0],[-47.898244,61.622324,0.0],[-47.898217,61.622592,0.0],[-47.897652,61.62258,0.0],[-47.897625,61.622849,0.0],[-47.893106,61.622746,0.0],[-47.893079,61.623015,0.0],[-47.892514,61.623002,0.0],[-47.892541,61.622733,0.0],[-47.890846,61.622695,0.0],[-47.890873,61.622426,0.0],[-47.891438,61.622438,0.0],[-47.891492,61.621901,0.0],[-47.892057,61.621913,0.0],[-47.892084,61.621645,0.0],[-47.893214,61.62167,0.0],[-47.893187,61.621939,0.0],[-47.893751,61.621952,0.0],[-47.893778,61.621683,0.0],[-47.895473,61.621722,0.0],[-47.895446,61.621991,0.0],[-47.896576,61.622016,0.0],[-47.896603,61.621747,0.0],[-47.898863,61.621799,0.0],[-47.898917,61.621261,0.0],[-47.901741,61.621325,0.0],[-47.901795,61.620787,0.0],[-47.90462,61.620851,0.0],[-47.904566,61.621389,0.0],[-47.905696,61.621414,0.0],[-47.90575,61.620877,0.0],[-47.906315,61.620889,0.0],[-47.906341,61.62062,0.0],[-47.906906,61.620633,0.0],[-47.90688,61.620902,0.0],[-47.907444,61.620915,0.0],[-47.907418,61.621184,0.0],[-47.907983,61.621197,0.0],[-47.907902,61.622003,0.0],[-47.907337,61.621991,0.0],[-47.907256,61.622797,0.0],[-47.906691,61.622785,0.0],[-47.906665,61.623053,0.0],[-47.9061,61.623041,0.0],[-47.906046,61.623579,0.0],[-47.905481,61.623566,0.0],[-47.905454,61.623835,0.0],[-47.904889,61.623822,0.0],[-47.904862,61.624091,0.0],[-47.904297,61.624078,0.0],[-47.90427,61.624347,0.0],[-47.903705,61.624334,0.0],[-47.903625,61.625141,0.0],[-47.902495,61.625115,0.0],[-47.902468,61.625384,0.0],[-47.901903,61.625371,0.0],[-47.901849,61.625909,0.0],[-47.901284,61.625896,0.0],[-47.901257,61.626165,0.0],[-47.900692,61.626153,0.0],[-47.900719,61.625884,0.0],[-47.899024,61.625845,0.0],[-47.898943,61.626652,0.0],[-47.899508,61.626665,0.0],[-47.899454,61.627203,0.0],[-47.900019,61.627215,0.0],[-47.899965,61.627753,0.0],[-47.8994,61.62774,0.0],[-47.89932,61.628547,0.0],[-47.901015,61.628586,0.0],[-47.900934,61.629392,0.0],[-47.903194,61.629444,0.0],[-47.903033,61.631057,0.0],[-47.902468,61.631044,0.0],[-47.902441,61.631313,0.0],[-47.901876,61.6313,0.0]],[[-47.895984,61.622272,0.0],[-47.895957,61.622541,0.0],[-47.897087,61.622567,0.0],[-47.897114,61.622298,0.0],[-47.895984,61.622272,0.0]]]}},{"type":"Feature","properties":{"rgi_id":"RGI2000-v7.0-G-05-04987","o1region":"05"},"geometry":{"type":"Polygon","coordinates":[[[-48.014104,61.99386,0.0],[-48.01421,61.992784,0.0],[-48.014782,61.992796,0.0],[-48.014834,61.992258,0.0],[-48.015406,61.992271,0.0],[-48.015459,61.991733,0.0],[-48.016031,61.991745,0.0],[-48.016162,61.990401,0.0],[-48.016734,61.990413,0.0],[-48.01676,61.990144,0.0],[-48.017332,61.990156,0.0],[-48.017358,61.989888,0.0],[-48.019074,61.989925,0.0],[-48.0191,61.989656,0.0],[-48.019672,61.989668,0.0],[-48.019698,61.989399,0.0],[-48.020842,61.989424,0.0],[-48.020868,61.989155,0.0],[-48.02144,61.989167,0.0],[-48.021492,61.988629,0.0],[-48.022064,61.988642,0.0],[-48.02209,61.988373,0.0],[-48.022662,61.988385,0.0],[-48.022583,61.989192,0.0],[-48.023155,61.989204,0.0],[-48.023103,61.989742,0.0],[-48.021959,61.989717,0.0],[-48.021933,61.989986,0.0],[-48.020789,61.989962,0.0],[-48.02071,61.990769,0.0],[-48.020139,61.990756,0.0],[-48.020112,61.991025,0.0],[-48.019541,61.991013,0.0],[-48.019488,61.991551,0.0],[-48.018916,61.991538,0.0],[-48.018864,61.992076,0.0],[-48.018292,61.992064,0.0],[-48.018239,61.992602,0.0],[-48.017667,61.992589,0.0],[-48.017615,61.993127,0.0],[-48.016471,61.993102,0.0],[-48.016445,61.993371,0.0],[-48.015873,61.993359,0.0],[-48.015846,61.993628,0.0],[-48.015275,61.993615,0.0],[-48.015248,61.993884,0.0],[-48.014104,61.99386,0.0]]]}},{"type":"Feature","properties":{"rgi_id":"RGI2000-v7.0-G-05-04989","o1region":"05"},"geometry":{"type":"Polygon","coordinates":[[[-47.768851,61.130085,0.0],[-47.768879,61.129816,0.0],[-47.769435,61.129829,0.0],[-47.769463,61.12956,0.0],[-47.767794,61.12952,0.0],[-47.767822,61.129251,0.0],[-47.767266,61.129238,0.0],[-47.767321,61.1287,0.0],[-47.766765,61.128687,0.0],[-47.766792,61.128418,0.0],[-47.766236,61.128405,0.0],[-47.766291,61.127867,0.0],[-47.766847,61.12788,0.0],[-47.766875,61.127611,0.0],[-47.767987,61.127638,0.0],[-47.767932,61.128176,0.0],[-47.7696,61.128216,0.0],[-47.769627,61.127947,0.0],[-47.770183,61.12796,0.0],[-47.770211,61.127691,0.0],[-47.769655,61.127678,0.0],[-47.76971,61.12714,0.0],[-47.769154,61.127127,0.0],[-47.769181,61.126858,0.0],[-47.770293,61.126884,0.0],[-47.770238,61.127422,0.0],[-47.770794,61.127436,0.0],[-47.770767,61.127704,0.0],[-47.771879,61.127731,0.0],[-47.771797,61.128538,0.0],[-47.772353,61.128551,0.0],[-47.772298,61.129089,0.0],[-47.771742,61.129076,0.0],[-47.771714,61.129344,0.0],[-47.771158,61.129331,0.0],[-47.771131,61.1296,0.0],[-47.770575,61.129587,0.0],[-47.770547,61.129856,0.0],[-47.769991,61.129842,0.0],[-47.769964,61.130111,0.0],[-47.768851,61.130085,0.0]]]}},{"type":"Feature","properties":{"rgi_id":"RGI2000-v7.0-G-05-04990","o1region":"05"},"geometry":{"type":"Polygon","coordinates":[[[-47.753168,61.125396,0.0],[-47.753251,61.124589,0.0],[-47.753807,61.124603,0.0],[-47.753834,61.124334,0.0],[-47.75439,61.124347,0.0],[-47.754445,61.123809,0.0],[-47.755001,61.123823,0.0],[-47.755084,61.123016,0.0],[-47.75564,61.123029,0.0],[-47.755723,61.122222,0.0],[-47.756279,61.122236,0.0],[-47.756334,61.121698,0.0],[-47.75689,61.121711,0.0],[-47.756917,61.121442,0.0],[-47.758029,61.121469,0.0],[-47.758057,61.1212,0.0],[-47.759169,61.121227,0.0],[-47.759196,61.120958,0.0],[-47.759752,61.120971,0.0],[-47.75978,61.120702,0.0],[-47.760891,61.120729,0.0],[-47.760864,61.120998,0.0],[-47.760308,61.120985,0.0],[-47.76028,61.121254,0.0],[-47.759724,61.12124,0.0],[-47.759697,61.121509,0.0],[-47.758585,61.121482,0.0],[-47.758558,61.121751,0.0],[-47.758002,61.121738,0.0],[-47.757891,61.122814,0.0],[-47.758447,61.122827,0.0],[-47.758392,61.123365,0.0],[-47.757836,61.123351,0.0],[-47.757809,61.12362,0.0],[-47.757253,61.123607,0.0],[-47.757197,61.124145,0.0],[-47.756642,61.124131,0.0],[-47.756614,61.1244,0.0],[-47.756058,61.124387,0.0],[-47.75603,61.124656,0.0],[-47.754362,61.124616,0.0],[-47.754335,61.124885,0.0],[-47.753779,61.124871,0.0],[-47.753724,61.125409,0.0],[-47.753168,61.125396,0.0]]]}},{"type":"Feature","properties":{"rgi_id":"RGI2000-v7.0-G-05-04991","o1region":"05"},"geometry":{"type":"Polygon","coordinates":[[[-47.722952,61.121162,0.0],[-47.72298,61.120893,0.0],[-47.723536,61.120907,0.0],[-47.723592,61.120369,0.0],[-47.723036,61.120355,0.0],[-47.723092,61.119818,0.0],[-47.724203,61.119845,0.0],[-47.724231,61.119576,0.0],[-47.725343,61.119603,0.0],[-47.725371,61.119334,0.0],[-47.726482,61.119361,0.0],[-47.72651,61.119092,0.0],[-47.727066,61.119105,0.0],[-47.727094,61.118836,0.0],[-47.72765,61.11885,0.0],[-47.727678,61.118581,0.0],[-47.728233,61.118594,0.0],[-47.728261,61.118326,0.0],[-47.728817,61.118339,0.0],[-47.728873,61.117801,0.0],[-47.729429,61.117815,0.0],[-47.729456,61.117546,0.0],[-47.730012,61.117559,0.0],[-47.73004,61.11729,0.0],[-47.730596,61.117304,0.0],[-47.730624,61.117035,0.0],[-47.731735,61.117062,0.0],[-47.731763,61.116793,0.0],[-47.732319,61.116806,0.0],[-47.732291,61.117075,0.0],[-47.732847,61.117089,0.0],[-47.732819,61.117358,0.0],[-47.731707,61.117331,0.0],[-47.731652,61.117868,0.0],[-47.73054,61.117842,0.0],[-47.730512,61.11811,0.0],[-47.729957,61.118097,0.0],[-47.729929,61.118366,0.0],[-47.729373,61.118352,0.0],[-47.729345,61.118621,0.0],[-47.728789,61.118608,0.0],[-47.728734,61.119146,0.0],[-47.728178,61.119132,0.0],[-47.72815,61.119401,0.0],[-47.727594,61.119388,0.0],[-47.727566,61.119657,0.0],[-47.72701,61.119643,0.0],[-47.726983,61.119912,0.0],[-47.726427,61.119899,0.0],[-47.726371,61.120436,0.0],[-47.725815,61.120423,0.0],[-47.725787,61.120692,0.0],[-47.724676,61.120665,0.0],[-47.72462,61.121203,0.0],[-47.722952,61.121162,0.0]]]}},{"type":"Feature","properties":{"rgi_id":"RGI2000-v7.0-G-05-04992","o1region":"05"},"geometry":{"type":"Polygon","coordinates":[[[-47.788322,61.119497,0.0],[-47.788377,61.118959,0.0],[-47.788933,61.118972,0.0],[-47.78896,61.118703,0.0],[-47.790072,61.11873,0.0],[-47.790099,61.118461,0.0],[-47.790655,61.118474,0.0],[-47.79071,61.117936,0.0],[-47.791265,61.11795,0.0],[-47.791293,61.117681,0.0],[-47.79296,61.11772,0.0],[-47.792988,61.117451,0.0],[-47.794655,61.117491,0.0],[-47.794682,61.117222,0.0],[-47.795238,61.117235,0.0],[-47.795211,61.117504,0.0],[-47.796879,61.117544,0.0],[-47.796851,61.117812,0.0],[-47.797407,61.117826,0.0],[-47.797353,61.118363,0.0],[-47.796797,61.11835,0.0],[-47.79677,61.118619,0.0],[-47.796214,61.118606,0.0],[-47.796241,61.118337,0.0],[-47.795685,61.118324,0.0],[-47.795658,61.118593,0.0],[-47.793434,61.11854,0.0],[-47.793407,61.118809,0.0],[-47.791739,61.118769,0.0],[-47.791712,61.119038,0.0],[-47.791156,61.119025,0.0],[-47.791129,61.119294,0.0],[-47.790017,61.119268,0.0],[-47.78999,61.119537,0.0],[-47.788322,61.119497,0.0]]]}},{"type":"Feature","properties":{"rgi_id":"RGI2000-v7.0-G-05-04993","o1region":"05"},"geometry":{"type":"Polygon","coordinates":[[[-47.723712,61.081554,0.0],[-47.723684,61.081823,0.0],[-47.723129,61.081809,0.0],[-47.723101,61.082078,0.0],[-47.725877,61.082146,0.0],[-47.725905,61.081877,0.0],[-47.727016,61.081904,0.0],[-47.726988,61.082173,0.0],[-47.727543,61.082186,0.0],[-47.727515,61.082455,0.0],[-47.724739,61.082388,0.0],[-47.724711,61.082657,0.0],[-47.723601,61.08263,0.0],[-47.723573,61.082899,0.0],[-47.724128,61.082912,0.0],[-47.724045,61.083719,0.0],[-47.725155,61.083746,0.0],[-47.7251,61.084283,0.0],[-47.724544,61.08427,0.0],[-47.724517,61.084539,0.0],[-47.723961,61.084525,0.0],[-47.723934,61.084794,0.0],[-47.723378,61.084781,0.0],[-47.72335,61.08505,0.0],[-47.72224,61.085023,0.0],[-47.722268,61.084754,0.0],[-47.722823,61.084767,0.0],[-47.722851,61.084498,0.0],[-47.722296,61.084485,0.0],[-47.722323,61.084216,0.0],[-47.721768,61.084203,0.0],[-47.72174,61.084471,0.0],[-47.721185,61.084458,0.0],[-47.721129,61.084996,0.0],[-47.720019,61.084969,0.0],[-47.720047,61.0847,0.0],[-47.720602,61.084713,0.0],[-47.72063,61.084444,0.0],[-47.719519,61.084417,0.0],[-47.719464,61.084955,0.0],[-47.718908,61.084942,0.0],[-47.718853,61.08548,0.0],[-47.716076,61.085412,0.0],[-47.716104,61.085143,0.0],[-47.714439,61.085103,0.0],[-47.714466,61.084834,0.0],[-47.715022,61.084847,0.0],[-47.71505,61.084578,0.0],[-47.715605,61.084592,0.0],[-47.715633,61.084323,0.0],[-47.716743,61.08435,0.0],[-47.716687,61.084888,0.0],[-47.717243,61.084901,0.0],[-47.717271,61.084632,0.0],[-47.717826,61.084646,0.0],[-47.717854,61.084377,0.0],[-47.717298,61.084364,0.0],[-47.717326,61.084095,0.0],[-47.718992,61.084135,0.0],[-47.71902,61.083866,0.0],[-47.719575,61.08388,0.0],[-47.719603,61.083611,0.0],[-47.720158,61.083624,0.0],[-47.72013,61.083893,0.0],[-47.721241,61.08392,0.0],[-47.721297,61.083382,0.0],[-47.720741,61.083369,0.0],[-47.720769,61.0831,0.0],[-47.72188,61.083127,0.0],[-47.721907,61.082858,0.0],[-47.719131,61.082791,0.0],[-47.719159,61.082522,0.0],[-47.716383,61.082454,0.0],[-47.716411,61.082185,0.0],[-47.716966,61.082199,0.0],[-47.716994,61.08193,0.0],[-47.717549,61.081943,0.0],[-47.717577,61.081675,0.0],[-47.719798,61.081729,0.0],[-47.719882,61.080922,0.0],[-47.720437,61.080935,0.0],[-47.720492,61.080398,0.0],[-47.722158,61.080438,0.0],[-47.72213,61.080707,0.0],[-47.72102,61.08068,0.0],[-47.720936,61.081487,0.0],[-47.723712,61.081554,0.0]],[[-47.723018,61.082885,0.0],[-47.72299,61.083154,0.0],[-47.723545,61.083167,0.0],[-47.723573,61.082899,0.0],[-47.723018,61.082885,0.0]],[[-47.720381,61.081473,0.0],[-47.720353,61.081742,0.0],[-47.720908,61.081756,0.0],[-47.720936,61.081487,0.0],[-47.720381,61.081473,0.0]],[[-47.722351,61.083947,0.0],[-47.722907,61.083961,0.0],[-47.722934,61.083692,0.0],[-47.722379,61.083678,0.0],[-47.722351,61.083947,0.0]]]}}]}
