{"type":"FeatureCollection","features":[{"type":"Feature","properties":{"rgi_id":"RGI2000-v7.0-G-12-01983","o1region":"12"},"geometry":{"type":"Polygon","coordinates":[[[47.990558,41.175738,0.0],[47.990225,41.175613,0.0],[47.990123,41.175574,0.0],[47.990069,41.175522,0.0],[47.989939,41.17543,0.0],[47.989808,41.175338,0.0],[47.989678,41.175246,0.0],[47.989665,41.175242,0.0],[47.989574,41.175172,0.0],[47.98914,41.175069,0.0],[47.988754,41.174908,0.0],[47.988373,41.174841,0.0],[47.988147,41.174866,0.0],[47.987923,41.174929,0.0],[47.987699,41.175011,0.0],[47.987423,41.175038,0.0],[47.987271,41.175022,0.0],[47.986964,41.174935,0.0],[47.986655,41.174791,0.0],[47.986372,41.174665,0.0],[47.986091,41.174596,0.0],[47.985792,41.174585,0.0],[47.985743,41.174598,0.0],[47.985434,41.174737,0.0],[47.985329,41.174859,0.0],[47.985256,41.174992,0.0],[47.985217,41.175184,0.0],[47.985223,41.175315,0.0],[47.985138,41.17552,0.0],[47.985096,41.17564,0.0],[47.984992,41.175785,0.0],[47.984903,41.175907,0.0],[47.984783,41.176029,0.0],[47.984662,41.17614,0.0],[47.98451,41.176275,0.0],[47.984405,41.176396,0.0],[47.984363,41.176517,0.0],[47.984342,41.176732,0.0],[47.984458,41.176872,0.0],[47.984536,41.176901,0.0],[47.984556,41.176904,0.0],[47.984909,41.176895,0.0],[47.985056,41.176815,0.0],[47.985072,41.176605,0.0],[47.985069,41.176542,0.0],[47.985198,41.176509,0.0],[47.98535,41.176616,0.0],[47.985581,41.176706,0.0],[47.985864,41.176813,0.0],[47.986118,41.176863,0.0],[47.986574,41.17689,0.0],[47.986977,41.176879,0.0],[47.987282,41.176929,0.0],[47.987638,41.176996,0.0],[47.987887,41.177075,0.0],[47.988075,41.177175,0.0],[47.988099,41.177187,0.0],[47.988232,41.177254,0.0],[47.988256,41.177265,0.0],[47.988412,41.177357,0.0],[47.9885,41.177392,0.0],[47.988663,41.177442,0.0],[47.988671,41.177446,0.0],[47.988809,41.177521,0.0],[47.989081,41.177621,0.0],[47.989257,41.177665,0.0],[47.989274,41.177666,0.0],[47.989558,41.177692,0.0],[47.989706,41.177722,0.0],[47.989719,41.177724,0.0],[47.989876,41.177756,0.0],[47.990116,41.177833,0.0],[47.990338,41.177851,0.0],[47.990448,41.177848,0.0],[47.990636,41.177819,0.0],[47.990773,41.177709,0.0],[47.990766,41.177554,0.0],[47.990693,41.177341,0.0],[47.99064,41.177223,0.0],[47.990492,41.177096,0.0],[47.990346,41.177005,0.0],[47.990248,41.176924,0.0],[47.990099,41.176773,0.0],[47.989981,41.176597,0.0],[47.990023,41.176477,0.0],[47.990163,41.17645,0.0],[47.990386,41.176479,0.0],[47.990717,41.176828,0.0],[47.990866,41.176991,0.0],[47.991077,41.177117,0.0],[47.991252,41.17716,0.0],[47.991347,41.177157,0.0],[47.991439,41.177107,0.0],[47.991434,41.176988,0.0],[47.991378,41.176811,0.0],[47.991293,41.176658,0.0],[47.991239,41.176517,0.0],[47.9911,41.176235,0.0],[47.991088,41.176203,0.0],[47.990679,41.175814,0.0],[47.990558,41.175738,0.0]]]}},{"type":"Feature","properties":{"rgi_id":"RGI2000-v7.0-G-12-01984","o1region":"12"},"geometry":{"type":"Polygon","coordinates":[[[47.989616,41.167811,0.0],[47.98968,41.167917,0.0],[47.989866,41.168122,0.0],[47.990103,41.168326,0.0],[47.990296,41.168412,0.0],[47.990342,41.168453,0.0],[47.990558,41.168633,0.0],[47.990795,41.168856,0.0],[47.990918,41.169053,0.0],[47.991023,41.169279,0.0],[47.991109,41.169505,0.0],[47.991119,41.1696,0.0],[47.991141,41.16979,0.0],[47.99113,41.169836,0.0],[47.991077,41.170064,0.0],[47.990962,41.170438,0.0],[47.990942,41.170517,0.0],[47.990882,41.170755,0.0],[47.9908,41.171029,0.0],[47.990658,41.171233,0.0],[47.990511,41.171337,0.0],[47.990322,41.171414,0.0],[47.990288,41.171428,0.0],[47.989992,41.171579,0.0],[47.989809,41.171712,0.0],[47.989702,41.171858,0.0],[47.989694,41.172087,0.0],[47.989725,41.172372,0.0],[47.989831,41.172612,0.0],[47.989842,41.172623,0.0],[47.990048,41.172807,0.0],[47.990339,41.172971,0.0],[47.990497,41.17311,0.0],[47.990506,41.173138,0.0],[47.990541,41.173252,0.0],[47.990792,41.173359,0.0],[47.990964,41.173384,0.0],[47.991325,41.173417,0.0],[47.991627,41.173409,0.0],[47.99164,41.17341,0.0],[47.991912,41.17343,0.0],[47.992216,41.173465,0.0],[47.992424,41.173505,0.0],[47.992483,41.173516,0.0],[47.99255,41.173514,0.0],[47.992672,41.173511,0.0],[47.992972,41.173431,0.0],[47.993209,41.17332,0.0],[47.993223,41.173305,0.0],[47.99323,41.172904,0.0],[47.993134,41.172468,0.0],[47.992791,41.172134,0.0],[47.99275,41.171952,0.0],[47.992732,41.171922,0.0],[47.99273,41.171859,0.0],[47.992729,41.171844,0.0],[47.992723,41.171708,0.0],[47.992804,41.171406,0.0],[47.992983,41.171186,0.0],[47.993632,41.170898,0.0],[47.993934,41.170876,0.0],[47.994445,41.170877,0.0],[47.994861,41.17088,0.0],[47.995428,41.170865,0.0],[47.995784,41.170785,0.0],[47.99602,41.170564,0.0],[47.996024,41.170373,0.0],[47.99585,41.170154,0.0],[47.995587,41.169922,0.0],[47.995259,41.169645,0.0],[47.995128,41.169553,0.0],[47.99499,41.169375,0.0],[47.994984,41.169319,0.0],[47.994821,41.169091,0.0],[47.994612,41.168668,0.0],[47.994314,41.168361,0.0],[47.993961,41.168084,0.0],[47.993646,41.167821,0.0],[47.993524,41.167708,0.0],[47.993382,41.16741,0.0],[47.99338,41.16737,0.0],[47.99337,41.167156,0.0],[47.993358,41.166885,0.0],[47.993132,41.16649,0.0],[47.992775,41.166142,0.0],[47.992326,41.165825,0.0],[47.991821,41.165538,0.0],[47.991151,41.165369,0.0],[47.990504,41.1653,0.0],[47.989692,41.165322,0.0],[47.989303,41.165518,0.0],[47.989026,41.165668,0.0],[47.988921,41.165856,0.0],[47.988817,41.166059,0.0],[47.9888,41.166097,0.0],[47.988697,41.166334,0.0],[47.988766,41.16659,0.0],[47.988911,41.166872,0.0],[47.989034,41.167083,0.0],[47.989176,41.167294,0.0],[47.989416,41.167588,0.0],[47.989557,41.167756,0.0],[47.989616,41.167811,0.0]]]}},{"type":"Feature","properties":{"rgi_id":"RGI2000-v7.0-G-12-01985","o1region":"12"},"geometry":{"type":"Polygon","coordinates":[[[47.999617,41.261584,0.0],[47.999768,41.261737,0.0],[47.999998,41.261845,0.0],[48.000281,41.261908,0.0],[48.000411,41.261939,0.0],[48.000552,41.261973,0.0],[48.000668,41.262005,0.0],[48.000824,41.262049,0.0],[48.000951,41.262258,0.0],[48.001128,41.262408,0.0],[48.001303,41.262503,0.0],[48.001575,41.262639,0.0],[48.001829,41.262804,0.0],[48.002118,41.262925,0.0],[48.002387,41.262954,0.0],[48.002409,41.262953,0.0],[48.002559,41.262921,0.0],[48.002695,41.26286,0.0],[48.002832,41.262799,0.0],[48.002916,41.262721,0.0],[48.002987,41.262604,0.0],[48.003005,41.262452,0.0],[48.002999,41.262318,0.0],[48.002997,41.262276,0.0],[48.002974,41.262246,0.0],[48.002974,41.262234,0.0],[48.002929,41.262177,0.0],[48.002848,41.262065,0.0],[48.002808,41.261995,0.0],[48.002742,41.261944,0.0],[48.002598,41.261833,0.0],[48.002441,41.261723,0.0],[48.002362,41.261639,0.0],[48.002257,41.261556,0.0],[48.002063,41.261456,0.0],[48.001908,41.261394,0.0],[48.00174,41.261303,0.0],[48.001596,41.261202,0.0],[48.001409,41.260978,0.0],[48.001288,41.260819,0.0],[48.001232,41.260706,0.0],[48.00111,41.260518,0.0],[48.001002,41.260369,0.0],[48.000829,41.260164,0.0],[48.000633,41.260026,0.0],[48.000523,41.259967,0.0],[48.000382,41.25993,0.0],[48.000287,41.259911,0.0],[48.000162,41.259885,0.0],[48.000075,41.259852,0.0],[47.999979,41.259812,0.0],[47.999853,41.259758,0.0],[47.999766,41.259717,0.0],[47.999594,41.259664,0.0],[47.999453,41.259647,0.0],[47.999274,41.259664,0.0],[47.999252,41.259671,0.0],[47.999131,41.259769,0.0],[47.99906,41.259886,0.0],[47.999042,41.260039,0.0],[47.999061,41.260191,0.0],[47.999161,41.260436,0.0],[47.999219,41.260587,0.0],[47.999287,41.260699,0.0],[47.999383,41.260878,0.0],[47.999474,41.26119,0.0],[47.999544,41.26135,0.0],[47.99959,41.261521,0.0],[47.999617,41.261584,0.0]]]}},{"type":"Feature","properties":{"rgi_id":"RGI2000-v7.0-G-12-01986","o1region":"12"},"geometry":{"type":"Polygon","coordinates":[[[48.003693,41.265658,0.0],[48.00357,41.265626,0.0],[48.003427,41.265544,0.0],[48.003273,41.265491,0.0],[48.003133,41.265466,0.0],[48.003032,41.265469,0.0],[48.002984,41.265508,0.0],[48.002991,41.26567,0.0],[48.003036,41.265812,0.0],[48.003092,41.265944,0.0],[48.003158,41.265999,0.0],[48.003302,41.266119,0.0],[48.003409,41.26625,0.0],[48.003515,41.266352,0.0],[48.003652,41.266587,0.0],[48.003772,41.266727,0.0],[48.003787,41.26678,0.0],[48.003818,41.266897,0.0],[48.00386,41.267019,0.0],[48.003869,41.267046,0.0],[48.004049,41.267244,0.0],[48.004265,41.267286,0.0],[48.004341,41.267284,0.0],[48.004392,41.267282,0.0],[48.004527,41.267212,0.0],[48.004636,41.267114,0.0],[48.004694,41.266998,0.0],[48.00469,41.266912,0.0],[48.004733,41.266749,0.0],[48.004752,41.266606,0.0],[48.004771,41.266462,0.0],[48.004778,41.266338,0.0],[48.004791,41.266081,0.0],[48.004684,41.26595,0.0],[48.004514,41.26583,0.0],[48.004349,41.265806,0.0],[48.004083,41.265785,0.0],[48.003976,41.265772,0.0],[48.003875,41.26576,0.0],[48.003804,41.265729,0.0],[48.003693,41.265658,0.0]]]}},{"type":"Feature","properties":{"rgi_id":"RGI2000-v7.0-G-12-01987","o1region":"12"},"geometry":{"type":"Polygon","coordinates":[[[48.007568,41.270265,0.0],[48.007696,41.27017,0.0],[48.007826,41.269955,0.0],[48.007817,41.269842,0.0],[48.007856,41.269662,0.0],[48.008008,41.269527,0.0],[48.008224,41.269414,0.0],[48.008442,41.269337,0.0],[48.008674,41.269247,0.0],[48.008838,41.269148,0.0],[48.008859,41.269135,0.0],[48.008964,41.269025,0.0],[48.009068,41.26888,0.0],[48.009076,41.268713,0.0],[48.009017,41.268464,0.0],[48.008852,41.268313,0.0],[48.008515,41.268191,0.0],[48.008214,41.268175,0.0],[48.007884,41.268196,0.0],[48.007699,41.268296,0.0],[48.007562,41.268419,0.0],[48.007488,41.268516,0.0],[48.007431,41.268648,0.0],[48.007371,41.268721,0.0],[48.007126,41.268883,0.0],[48.006941,41.268983,0.0],[48.006882,41.268999,0.0],[48.006848,41.269021,0.0],[48.006693,41.269097,0.0],[48.006555,41.269184,0.0],[48.006466,41.269305,0.0],[48.006318,41.269512,0.0],[48.006233,41.269728,0.0],[48.006272,41.269882,0.0],[48.006309,41.269976,0.0],[48.006358,41.270047,0.0],[48.006457,41.270148,0.0],[48.006474,41.270163,0.0],[48.006669,41.270277,0.0],[48.006814,41.270345,0.0],[48.007099,41.270373,0.0],[48.007304,41.270367,0.0],[48.007568,41.270265,0.0]]]}},{"type":"Feature","properties":{"rgi_id":"RGI2000-v7.0-G-12-01988","o1region":"12"},"geometry":{"type":"Polygon","coordinates":[[[48.012334,41.277286,0.0],[48.012406,41.277416,0.0],[48.012509,41.277436,0.0],[48.012668,41.277455,0.0],[48.012802,41.277452,0.0],[48.012928,41.277449,0.0],[48.013045,41.277416,0.0],[48.01309,41.277367,0.0],[48.013126,41.277283,0.0],[48.013128,41.277229,0.0],[48.013107,41.277188,0.0],[48.013026,41.277061,0.0],[48.012939,41.27682,0.0],[48.012931,41.276649,0.0],[48.013035,41.276446,0.0],[48.01327,41.276183,0.0],[48.013693,41.275914,0.0],[48.014119,41.275689,0.0],[48.014582,41.275462,0.0],[48.015161,41.27529,0.0],[48.015467,41.275161,0.0],[48.015848,41.274761,0.0],[48.015895,41.274544,0.0],[48.015885,41.27433,0.0],[48.015779,41.274075,0.0],[48.015597,41.273837,0.0],[48.015375,41.273542,0.0],[48.015218,41.273418,0.0],[48.014987,41.273352,0.0],[48.01466,41.273232,0.0],[48.014258,41.273157,0.0],[48.01391,41.272977,0.0],[48.013694,41.272968,0.0],[48.013292,41.273036,0.0],[48.012995,41.273158,0.0],[48.012853,41.273372,0.0],[48.012509,41.27359,0.0],[48.012141,41.27377,0.0],[48.011966,41.273989,0.0],[48.011706,41.27411,0.0],[48.011215,41.274152,0.0],[48.011043,41.274113,0.0],[48.010789,41.273963,0.0],[48.010667,41.273766,0.0],[48.010582,41.273582,0.0],[48.01047,41.273199,0.0],[48.010403,41.272986,0.0],[48.010239,41.272719,0.0],[48.010138,41.272579,0.0],[48.010019,41.272453,0.0],[48.009882,41.272371,0.0],[48.009709,41.272318,0.0],[48.009439,41.272211,0.0],[48.009132,41.272133,0.0],[48.008807,41.272056,0.0],[48.008425,41.272009,0.0],[48.008047,41.272019,0.0],[48.00763,41.27203,0.0],[48.007119,41.272043,0.0],[48.006722,41.272053,0.0],[48.006454,41.272003,0.0],[48.005974,41.271873,0.0],[48.00576,41.27175,0.0],[48.005582,41.271583,0.0],[48.005458,41.271357,0.0],[48.00539,41.271116,0.0],[48.005222,41.270763,0.0],[48.005112,41.270423,0.0],[48.005108,41.270383,0.0],[48.004991,41.270237,0.0],[48.004797,41.270159,0.0],[48.004729,41.270159,0.0],[48.00472,41.270166,0.0],[48.004657,41.270217,0.0],[48.004156,41.270445,0.0],[48.0038,41.27054,0.0],[48.003617,41.270688,0.0],[48.003438,41.270907,0.0],[48.003202,41.271127,0.0],[48.002533,41.271557,0.0],[48.002743,41.271645,0.0],[48.002976,41.271705,0.0],[48.003331,41.272028,0.0],[48.003679,41.272407,0.0],[48.004077,41.272825,0.0],[48.004803,41.273463,0.0],[48.005314,41.273972,0.0],[48.005804,41.274317,0.0],[48.007176,41.274281,0.0],[48.007838,41.274264,0.0],[48.008986,41.274496,0.0],[48.009996,41.274469,0.0],[48.011018,41.274729,0.0],[48.011678,41.275331,0.0],[48.011959,41.275943,0.0],[48.012115,41.276606,0.0],[48.012335,41.277268,0.0],[48.012334,41.277286,0.0]]]}},{"type":"Feature","properties":{"rgi_id":"RGI2000-v7.0-G-12-01989","o1region":"12"},"geometry":{"type":"Polygon","coordinates":[[[48.005966,41.275621,0.0],[48.005955,41.275757,0.0],[48.005948,41.275776,0.0],[48.005888,41.275949,0.0],[48.005888,41.275949,0.0],[48.00587,41.276121,0.0],[48.005878,41.276293,0.0],[48.005959,41.276405,0.0],[48.00614,41.276495,0.0],[48.006474,41.276601,0.0],[48.006704,41.276671,0.0],[48.006741,41.276693,0.0],[48.006799,41.276695,0.0],[48.006975,41.276819,0.0],[48.007213,41.277042,0.0],[48.00749,41.277306,0.0],[48.007618,41.277515,0.0],[48.007737,41.27764,0.0],[48.007886,41.278007,0.0],[48.007928,41.27811,0.0],[48.007945,41.278124,0.0],[48.008087,41.278334,0.0],[48.008188,41.278475,0.0],[48.008368,41.27867,0.0],[48.008508,41.278838,0.0],[48.008595,41.278942,0.0],[48.008707,41.279021,0.0],[48.00881,41.279056,0.0],[48.009038,41.279069,0.0],[48.009164,41.279066,0.0],[48.009392,41.27906,0.0],[48.00954,41.278999,0.0],[48.009687,41.2789,0.0],[48.00976,41.278822,0.0],[48.009834,41.278801,0.0],[48.009935,41.278798,0.0],[48.010138,41.278812,0.0],[48.010217,41.278867,0.0],[48.010372,41.278939,0.0],[48.010479,41.27907,0.0],[48.010638,41.279237,0.0],[48.010794,41.279329,0.0],[48.010997,41.279361,0.0],[48.011073,41.279359,0.0],[48.011298,41.279296,0.0],[48.011441,41.279121,0.0],[48.011609,41.278926,0.0],[48.011683,41.278832,0.0],[48.011766,41.278484,0.0],[48.011748,41.278396,0.0],[48.011716,41.278125,0.0],[48.011705,41.277868,0.0],[48.011806,41.277594,0.0],[48.011986,41.277389,0.0],[48.012329,41.277327,0.0],[48.012335,41.277268,0.0],[48.012115,41.276606,0.0],[48.011959,41.275943,0.0],[48.011678,41.275331,0.0],[48.011018,41.274729,0.0],[48.009996,41.274469,0.0],[48.008986,41.274496,0.0],[48.007838,41.274264,0.0],[48.007176,41.274281,0.0],[48.005804,41.274317,0.0],[48.00606,41.274739,0.0],[48.005995,41.275384,0.0],[48.005966,41.275621,0.0]]]}},{"type":"Feature","properties":{"rgi_id":"RGI2000-v7.0-G-12-01990","o1region":"12"},"geometry":{"type":"Polygon","coordinates":[[[47.998292,41.276719,0.0],[47.998412,41.276859,0.0],[47.998499,41.276915,0.0],[47.998555,41.276951,0.0],[47.998711,41.277052,0.0],[47.998882,41.2772,0.0],[47.998965,41.27734,0.0],[47.999115,41.277488,0.0],[47.999312,41.277614,0.0],[47.999551,41.277865,0.0],[47.99975,41.278074,0.0],[47.999876,41.278328,0.0],[47.999972,41.278769,0.0],[48.000004,41.279054,0.0],[48.000147,41.279293,0.0],[48.000478,41.279471,0.0],[48.000824,41.279576,0.0],[48.001033,41.279599,0.0],[48.001239,41.279551,0.0],[48.001387,41.279461,0.0],[48.001529,41.279257,0.0],[48.00165,41.278997,0.0],[48.001737,41.278823,0.0],[48.001821,41.278592,0.0],[48.001961,41.278345,0.0],[48.002041,41.278015,0.0],[48.002045,41.278001,0.0],[48.002038,41.277943,0.0],[48.002004,41.277615,0.0],[48.001897,41.277361,0.0],[48.001773,41.277135,0.0],[48.001625,41.27681,0.0],[48.001574,41.276511,0.0],[48.001619,41.276253,0.0],[48.001665,41.276008,0.0],[48.001883,41.275817,0.0],[48.002159,41.275638,0.0],[48.002458,41.27553,0.0],[48.002909,41.275447,0.0],[48.003321,41.27535,0.0],[48.003714,41.27524,0.0],[48.00422,41.275127,0.0],[48.004637,41.275116,0.0],[48.004963,41.275207,0.0],[48.005129,41.275518,0.0],[48.005143,41.275817,0.0],[48.005126,41.275879,0.0],[48.005194,41.275919,0.0],[48.005403,41.275928,0.0],[48.005659,41.275894,0.0],[48.00588803477844,41.275948899722174,0.0],[48.005947813358226,41.275776538150446,0.0],[48.00596495016287,41.27563397980455,0.0],[48.005966,41.275621,0.0],[48.005995,41.275384,0.0],[48.00606,41.274739,0.0],[48.005804,41.274317,0.0],[48.005314,41.273972,0.0],[48.004819,41.273521,0.0],[48.004803,41.273463,0.0],[48.004077,41.272825,0.0],[48.003679,41.272407,0.0],[48.003331,41.272028,0.0],[48.002976,41.271705,0.0],[48.002743,41.271645,0.0],[48.002177,41.27141,0.0],[48.002136,41.271411,0.0],[48.001787,41.271385,0.0],[48.001454,41.271358,0.0],[48.001157,41.271425,0.0],[48.000862,41.271516,0.0],[48.000521,41.271656,0.0],[48.000292,41.271829,0.0],[48.00014,41.271976,0.0],[47.999911,41.272149,0.0],[47.999697,41.272297,0.0],[47.999402,41.272412,0.0],[47.998955,41.272638,0.0],[47.99876,41.272858,0.0],[47.99848,41.27296,0.0],[47.998089,41.273042,0.0],[47.997714,41.273123,0.0],[47.997466,41.273225,0.0],[47.997156,41.273364,0.0],[47.996879,41.273526,0.0],[47.996525,41.273714,0.0],[47.996295,41.273875,0.0],[47.996177,41.274045,0.0],[47.996,41.274229,0.0],[47.996174,41.27462,0.0],[47.996285,41.274846,0.0],[47.996446,41.275052,0.0],[47.996704,41.275159,0.0],[47.997036,41.275227,0.0],[47.997366,41.275257,0.0],[47.997619,41.275269,0.0],[47.997824,41.27534,0.0],[47.997829,41.275435,0.0],[47.99784,41.275683,0.0],[47.997843,41.275759,0.0],[47.997853,41.275968,0.0],[47.997914,41.276195,0.0],[47.998006,41.276382,0.0],[47.998135,41.276516,0.0],[47.998292,41.276719,0.0]]]}},{"type":"Feature","properties":{"rgi_id":"RGI2000-v7.0-G-12-01991","o1region":"12"},"geometry":{"type":"Polygon","coordinates":[[[47.993862,41.275301,0.0],[47.993734,41.275405,0.0],[47.99364,41.275422,0.0],[47.993362,41.275429,0.0],[47.99302,41.2754,0.0],[47.992728,41.275379,0.0],[47.992371,41.275396,0.0],[47.992344,41.275406,0.0],[47.992123,41.275546,0.0],[47.991978,41.275702,0.0],[47.99186,41.275877,0.0],[47.991845,41.276106,0.0],[47.992006,41.276311,0.0],[47.992375,41.276411,0.0],[47.992624,41.276411,0.0],[47.992838,41.276405,0.0],[47.993066,41.276399,0.0],[47.993393,41.276372,0.0],[47.993656,41.276327,0.0],[47.993905,41.276244,0.0],[47.994143,41.27619,0.0],[47.994469,41.276134,0.0],[47.995049,41.276119,0.0],[47.995129,41.276117,0.0],[47.995489,41.275981,0.0],[47.995503,41.275972,0.0],[47.995647,41.275797,0.0],[47.995788,41.275565,0.0],[47.995776,41.275317,0.0],[47.995734,41.275238,0.0],[47.995624,41.275164,0.0],[47.995411,41.275069,0.0],[47.995124,41.275005,0.0],[47.994876,41.274969,0.0],[47.994517,41.274992,0.0],[47.994272,41.275027,0.0],[47.994258,41.275028,0.0],[47.993939,41.275199,0.0],[47.993862,41.275301,0.0]]]}},{"type":"Feature","properties":{"rgi_id":"RGI2000-v7.0-G-12-01992","o1region":"12"},"geometry":{"type":"Polygon","coordinates":[[[47.995243,41.267466,0.0],[47.995334,41.267381,0.0],[47.995393,41.267284,0.0],[47.99548,41.267115,0.0],[47.995613,41.26692,0.0],[47.995586,41.266671,0.0],[47.995531,41.266518,0.0],[47.995524,41.266363,0.0],[47.995518,41.266232,0.0],[47.995574,41.266076,0.0],[47.995695,41.265953,0.0],[47.995862,41.265806,0.0],[47.996015,41.265695,0.0],[47.996167,41.26556,0.0],[47.9963,41.265366,0.0],[47.996386,41.265173,0.0],[47.996362,41.265007,0.0],[47.996337,41.264773,0.0],[47.996235,41.264641,0.0],[47.996166,41.264523,0.0],[47.9961,41.264442,0.0],[47.996077,41.264299,0.0],[47.996041,41.264193,0.0],[47.996005,41.26411,0.0],[47.995893,41.264066,0.0],[47.995625,41.264073,0.0],[47.995325,41.26408,0.0],[47.995151,41.264061,0.0],[47.994991,41.26403,0.0],[47.994878,41.263961,0.0],[47.994794,41.263856,0.0],[47.994709,41.263727,0.0],[47.994609,41.263611,0.0],[47.994478,41.263519,0.0],[47.994304,41.263499,0.0],[47.994083,41.263505,0.0],[47.993881,41.26357,0.0],[47.993695,41.263658,0.0],[47.993586,41.26371,0.0],[47.993467,41.263855,0.0],[47.993348,41.264001,0.0],[47.993195,41.264112,0.0],[47.992946,41.26419,0.0],[47.992759,41.264243,0.0],[47.992634,41.264282,0.0],[47.992494,41.264333,0.0],[47.992388,41.264419,0.0],[47.992315,41.264564,0.0],[47.992259,41.26472,0.0],[47.992252,41.264911,0.0],[47.992258,41.265042,0.0],[47.992309,41.265124,0.0],[47.992394,41.265253,0.0],[47.992399,41.26536,0.0],[47.992357,41.265468,0.0],[47.992299,41.265577,0.0],[47.992193,41.265687,0.0],[47.992167,41.265807,0.0],[47.992202,41.265877,0.0],[47.99219,41.265961,0.0],[47.992149,41.266105,0.0],[47.992059,41.266215,0.0],[47.991953,41.266301,0.0],[47.991876,41.266391,0.0],[47.991849,41.266458,0.0],[47.991792,41.266591,0.0],[47.991774,41.266877,0.0],[47.991904,41.266969,0.0],[47.992113,41.267035,0.0],[47.99232,41.267078,0.0],[47.992591,41.267142,0.0],[47.992706,41.267246,0.0],[47.992807,41.267363,0.0],[47.992844,41.267481,0.0],[47.992849,41.2676,0.0],[47.992823,41.26772,0.0],[47.992749,41.267841,0.0],[47.99271,41.268009,0.0],[47.99273,41.268104,0.0],[47.992796,41.268161,0.0],[47.993021,41.268251,0.0],[47.993257,41.268233,0.0],[47.993507,41.268167,0.0],[47.993646,41.268115,0.0],[47.993944,41.26806,0.0],[47.994147,41.268007,0.0],[47.994428,41.267952,0.0],[47.994725,41.267885,0.0],[47.994926,41.267784,0.0],[47.995095,41.267673,0.0],[47.99517,41.267599,0.0],[47.995243,41.267466,0.0]]]}},{"type":"Feature","properties":{"rgi_id":"RGI2000-v7.0-G-12-01993","o1region":"12"},"geometry":{"type":"Polygon","coordinates":[[[48.017067,41.271394,0.0],[48.017284,41.271061,0.0],[48.017288,41.271047,0.0],[48.017444,41.270729,0.0],[48.017621,41.270453,0.0],[48.018203,41.270351,0.0],[48.01843,41.270346,0.0],[48.018635,41.270269,0.0],[48.018763,41.270151,0.0],[48.01891,41.270061,0.0],[48.019133,41.26997,0.0],[48.019455,41.269961,0.0],[48.01968,41.269912,0.0],[48.019885,41.269836,0.0],[48.020108,41.269744,0.0],[48.020234,41.269598,0.0],[48.020263,41.269411,0.0],[48.020256,41.26924,0.0],[48.02021,41.269069,0.0],[48.020106,41.268872,0.0],[48.019753,41.268624,0.0],[48.01954,41.268515,0.0],[48.019236,41.268494,0.0],[48.019047,41.268499,0.0],[48.018709,41.26858,0.0],[48.018449,41.268687,0.0],[48.018075,41.268796,0.0],[48.017869,41.268845,0.0],[48.017703,41.268849,0.0],[48.017502,41.268909,0.0],[48.017034,41.269035,0.0],[48.016788,41.269097,0.0],[48.016744,41.269117,0.0],[48.016411,41.269298,0.0],[48.01621,41.26946,0.0],[48.015925,41.269839,0.0],[48.015856,41.269984,0.0],[48.015788,41.270172,0.0],[48.01553,41.270322,0.0],[48.015326,41.270427,0.0],[48.014892,41.270453,0.0],[48.014747,41.270444,0.0],[48.014628,41.270488,0.0],[48.014382,41.270495,0.0],[48.014117,41.270502,0.0],[48.013794,41.270481,0.0],[48.013641,41.270457,0.0],[48.013511,41.270503,0.0],[48.013171,41.270526,0.0],[48.013002,41.270559,0.0],[48.012782,41.270722,0.0],[48.012674,41.270854,0.0],[48.012628,41.271084,0.0],[48.012676,41.271311,0.0],[48.012837,41.271522,0.0],[48.012976,41.271647,0.0],[48.013191,41.271784,0.0],[48.013328,41.271895,0.0],[48.013491,41.272134,0.0],[48.013484,41.272391,0.0],[48.013485,41.27242,0.0],[48.013532,41.272604,0.0],[48.013632,41.27273,0.0],[48.013923,41.27288,0.0],[48.014067,41.272973,0.0],[48.014177,41.273045,0.0],[48.014637,41.273108,0.0],[48.014788,41.273129,0.0],[48.015185,41.273119,0.0],[48.015564,41.273109,0.0],[48.01596,41.27307,0.0],[48.016391,41.272973,0.0],[48.016669,41.272822,0.0],[48.016926,41.272658,0.0],[48.017085,41.272397,0.0],[48.017277,41.272034,0.0],[48.017267,41.27182,0.0],[48.017249,41.271742,0.0],[48.017218,41.27171,0.0],[48.017107,41.271598,0.0],[48.017075,41.271565,0.0],[48.017067,41.271394,0.0]]]}}]}
