{"type":"FeatureCollection","features":[{"type":"Feature","properties":{"rgi_id":"RGI2000-v7.0-G-05-19380","o1region":"05"},"geometry":{"type":"Polygon","coordinates":[[[-43.169023,83.087732,0.0],[-43.155273,83.087679,0.0],[-43.155347,83.087403,0.0],[-43.133577,83.087318,0.0],[-43.133614,83.08718,0.0],[-43.124448,83.087144,0.0],[-43.124486,83.087006,0.0],[-43.121049,83.086993,0.0],[-43.121086,83.086855,0.0],[-43.115358,83.086832,0.0],[-43.115396,83.086694,0.0],[-43.107376,83.086662,0.0],[-43.107414,83.086525,0.0],[-43.106269,83.08652,0.0],[-43.106155,83.086934,0.0],[-43.103864,83.086925,0.0],[-43.103902,83.086787,0.0],[-43.100465,83.086773,0.0],[-43.100503,83.086635,0.0],[-43.097066,83.086621,0.0],[-43.097104,83.086483,0.0],[-43.094813,83.086474,0.0],[-43.094889,83.086198,0.0],[-43.092598,83.086189,0.0],[-43.092636,83.086051,0.0],[-43.090345,83.086042,0.0],[-43.090383,83.085904,0.0],[-43.084656,83.085881,0.0],[-43.084694,83.085743,0.0],[-43.080112,83.085725,0.0],[-43.08015,83.085587,0.0],[-43.074423,83.085564,0.0],[-43.074462,83.085426,0.0],[-43.068735,83.085403,0.0],[-43.068812,83.085127,0.0],[-43.065376,83.085113,0.0],[-43.065453,83.084837,0.0],[-43.063163,83.084828,0.0],[-43.063201,83.08469,0.0],[-43.062056,83.084685,0.0],[-43.062095,83.084547,0.0],[-43.057514,83.084529,0.0],[-43.057553,83.084391,0.0],[-43.055262,83.084381,0.0],[-43.055301,83.084243,0.0],[-43.054156,83.084239,0.0],[-43.054234,83.083963,0.0],[-43.053089,83.083958,0.0],[-43.053128,83.08382,0.0],[-43.051983,83.083816,0.0],[-43.052021,83.083678,0.0],[-43.050876,83.083673,0.0],[-43.050954,83.083397,0.0],[-43.049809,83.083393,0.0],[-43.049848,83.083255,0.0],[-43.048703,83.08325,0.0],[-43.048742,83.083112,0.0],[-43.047597,83.083107,0.0],[-43.047675,83.082832,0.0],[-43.045385,83.082822,0.0],[-43.045424,83.082684,0.0],[-43.04428,83.08268,0.0],[-43.044358,83.082404,0.0],[-43.043213,83.082399,0.0],[-43.043252,83.082261,0.0],[-43.042107,83.082256,0.0],[-43.042146,83.082118,0.0],[-43.041001,83.082114,0.0],[-43.041041,83.081976,0.0],[-43.038751,83.081966,0.0],[-43.038869,83.081553,0.0],[-43.037724,83.081548,0.0],[-43.037763,83.08141,0.0],[-43.036618,83.081405,0.0],[-43.036658,83.081267,0.0],[-43.035513,83.081263,0.0],[-43.035552,83.081125,0.0],[-43.034407,83.08112,0.0],[-43.034447,83.080982,0.0],[-43.032157,83.080973,0.0],[-43.032197,83.080835,0.0],[-43.031052,83.08083,0.0],[-43.031092,83.080692,0.0],[-43.028802,83.080683,0.0],[-43.028842,83.080545,0.0],[-43.027697,83.08054,0.0],[-43.027737,83.080402,0.0],[-43.026592,83.080397,0.0],[-43.026631,83.080259,0.0],[-43.024342,83.08025,0.0],[-43.024382,83.080112,0.0],[-43.023237,83.080107,0.0],[-43.023277,83.079969,0.0],[-43.022132,83.079965,0.0],[-43.022172,83.079827,0.0],[-43.019883,83.079817,0.0],[-43.019923,83.079679,0.0],[-43.018778,83.079675,0.0],[-43.018818,83.079537,0.0],[-43.016529,83.079527,0.0],[-43.016569,83.079389,0.0],[-43.015424,83.079384,0.0],[-43.015464,83.079246,0.0],[-43.016608,83.079251,0.0],[-43.016648,83.079113,0.0],[-43.021225,83.079132,0.0],[-43.021265,83.078995,0.0],[-43.023553,83.079004,0.0],[-43.023593,83.078866,0.0],[-43.027026,83.07888,0.0],[-43.027065,83.078743,0.0],[-43.030498,83.078757,0.0],[-43.030537,83.078619,0.0],[-43.036259,83.078643,0.0],[-43.036298,83.078505,0.0],[-43.040875,83.078524,0.0],[-43.040914,83.078386,0.0],[-43.044347,83.0784,0.0],[-43.044425,83.078124,0.0],[-43.045569,83.078129,0.0],[-43.045608,83.077991,0.0],[-43.046752,83.077995,0.0],[-43.046791,83.077858,0.0],[-43.047935,83.077862,0.0],[-43.047974,83.077724,0.0],[-43.050262,83.077734,0.0],[-43.050301,83.077596,0.0],[-43.051445,83.077601,0.0],[-43.051484,83.077463,0.0],[-43.052628,83.077467,0.0],[-43.052706,83.077192,0.0],[-43.054994,83.077201,0.0],[-43.055033,83.077063,0.0],[-43.056177,83.077068,0.0],[-43.056216,83.07693,0.0],[-43.05736,83.076934,0.0],[-43.057399,83.076797,0.0],[-43.060831,83.076811,0.0],[-43.060908,83.076535,0.0],[-43.062052,83.076539,0.0],[-43.062129,83.076264,0.0],[-43.064417,83.076273,0.0],[-43.064456,83.076135,0.0],[-43.0656,83.07614,0.0],[-43.065677,83.075864,0.0],[-43.066821,83.075869,0.0],[-43.066898,83.075593,0.0],[-43.068042,83.075597,0.0],[-43.068119,83.075322,0.0],[-43.069263,83.075326,0.0],[-43.069725,83.073671,0.0],[-43.070869,83.073676,0.0],[-43.070946,83.0734,0.0],[-43.072089,83.073405,0.0],[-43.072166,83.073129,0.0],[-43.073309,83.073134,0.0],[-43.073386,83.072858,0.0],[-43.07453,83.072862,0.0],[-43.074607,83.072587,0.0],[-43.07575,83.072591,0.0],[-43.075827,83.072315,0.0],[-43.07697,83.07232,0.0],[-43.077047,83.072044,0.0],[-43.07819,83.072049,0.0],[-43.078267,83.071773,0.0],[-43.07941,83.071778,0.0],[-43.079486,83.071502,0.0],[-43.081773,83.071511,0.0],[-43.081811,83.071373,0.0],[-43.082954,83.071378,0.0],[-43.082992,83.07124,0.0],[-43.084135,83.071245,0.0],[-43.084212,83.070969,0.0],[-43.085355,83.070973,0.0],[-43.085393,83.070835,0.0],[-43.086536,83.07084,0.0],[-43.086574,83.070702,0.0],[-43.087717,83.070707,0.0],[-43.087755,83.070569,0.0],[-43.088898,83.070573,0.0],[-43.088936,83.070436,0.0],[-43.090079,83.07044,0.0],[-43.090117,83.070302,0.0],[-43.092403,83.070311,0.0],[-43.092441,83.070174,0.0],[-43.093584,83.070178,0.0],[-43.093622,83.07004,0.0],[-43.095908,83.070049,0.0],[-43.095946,83.069911,0.0],[-43.098232,83.069921,0.0],[-43.09827,83.069783,0.0],[-43.102841,83.069801,0.0],[-43.102879,83.069663,0.0],[-43.114307,83.069709,0.0],[-43.114382,83.069433,0.0],[-43.122382,83.069465,0.0],[-43.122419,83.069327,0.0],[-43.144132,83.069412,0.0],[-43.144169,83.069274,0.0],[-43.146455,83.069283,0.0],[-43.146492,83.069145,0.0],[-43.148777,83.069154,0.0],[-43.148851,83.068878,0.0],[-43.151136,83.068887,0.0],[-43.151173,83.068749,0.0],[-43.153459,83.068758,0.0],[-43.153532,83.068482,0.0],[-43.15696,83.068496,0.0],[-43.156997,83.068358,0.0],[-43.15814,83.068362,0.0],[-43.158176,83.068224,0.0],[-43.159319,83.068229,0.0],[-43.159356,83.068091,0.0],[-43.160498,83.068095,0.0],[-43.160535,83.067957,0.0],[-43.163963,83.067971,0.0],[-43.163999,83.067833,0.0],[-43.165142,83.067837,0.0],[-43.165179,83.067699,0.0],[-43.166321,83.067704,0.0],[-43.166358,83.067566,0.0],[-43.168643,83.067575,0.0],[-43.168716,83.067299,0.0],[-43.169858,83.067303,0.0],[-43.169895,83.067165,0.0],[-43.174465,83.067183,0.0],[-43.174501,83.067045,0.0],[-43.175643,83.067049,0.0],[-43.17568,83.066911,0.0],[-43.176822,83.066916,0.0],[-43.176859,83.066778,0.0],[-43.180286,83.066791,0.0],[-43.180358,83.066515,0.0],[-43.182643,83.066524,0.0],[-43.182679,83.066386,0.0],[-43.184964,83.066395,0.0],[-43.185,83.066257,0.0],[-43.186142,83.066261,0.0],[-43.186179,83.066123,0.0],[-43.188463,83.066132,0.0],[-43.188499,83.065994,0.0],[-43.191926,83.066007,0.0],[-43.191962,83.065869,0.0],[-43.195389,83.065882,0.0],[-43.195425,83.065744,0.0],[-43.198851,83.065757,0.0],[-43.198887,83.06562,0.0],[-43.201172,83.065628,0.0],[-43.201244,83.065352,0.0],[-43.20467,83.065365,0.0],[-43.204706,83.065227,0.0],[-43.208132,83.06524,0.0],[-43.208168,83.065102,0.0],[-43.211594,83.065115,0.0],[-43.21163,83.064977,0.0],[-43.215056,83.06499,0.0],[-43.215092,83.064852,0.0],[-43.218518,83.064865,0.0],[-43.218554,83.064727,0.0],[-43.220838,83.064736,0.0],[-43.220873,83.064598,0.0],[-43.2243,83.064611,0.0],[-43.224335,83.064473,0.0],[-43.227761,83.064486,0.0],[-43.227796,83.064348,0.0],[-43.231222,83.064361,0.0],[-43.231258,83.064223,0.0],[-43.234684,83.064236,0.0],[-43.234719,83.064098,0.0],[-43.237003,83.064106,0.0],[-43.237038,83.063968,0.0],[-43.23818,83.063972,0.0],[-43.238215,83.063835,0.0],[-43.243925,83.063856,0.0],[-43.24396,83.063718,0.0],[-43.246244,83.063726,0.0],[-43.246314,83.06345,0.0],[-43.247455,83.063455,0.0],[-43.24749,83.063317,0.0],[-43.249774,83.063325,0.0],[-43.249844,83.063049,0.0],[-43.250986,83.063054,0.0],[-43.251055,83.062778,0.0],[-43.252197,83.062782,0.0],[-43.252232,83.062644,0.0],[-43.253374,83.062648,0.0],[-43.253409,83.06251,0.0],[-43.25455,83.062514,0.0],[-43.254585,83.062377,0.0],[-43.255727,83.062381,0.0],[-43.255762,83.062243,0.0],[-43.256903,83.062247,0.0],[-43.256938,83.062109,0.0],[-43.25808,83.062113,0.0],[-43.258114,83.061975,0.0],[-43.262681,83.061992,0.0],[-43.262646,83.06213,0.0],[-43.263788,83.062134,0.0],[-43.263165,83.064617,0.0],[-43.264307,83.064621,0.0],[-43.264099,83.065448,0.0],[-43.266384,83.065457,0.0],[-43.265796,83.067801,0.0],[-43.264653,83.067797,0.0],[-43.264584,83.068073,0.0],[-43.263441,83.068069,0.0],[-43.263407,83.068207,0.0],[-43.262264,83.068203,0.0],[-43.262229,83.068341,0.0],[-43.261087,83.068336,0.0],[-43.261052,83.068474,0.0],[-43.259909,83.06847,0.0],[-43.259875,83.068608,0.0],[-43.258732,83.068604,0.0],[-43.258662,83.06888,0.0],[-43.25752,83.068876,0.0],[-43.257485,83.069013,0.0],[-43.256342,83.069009,0.0],[-43.256307,83.069147,0.0],[-43.254022,83.069139,0.0],[-43.253917,83.069553,0.0],[-43.252774,83.069548,0.0],[-43.252739,83.069686,0.0],[-43.251596,83.069682,0.0],[-43.251527,83.069958,0.0],[-43.250384,83.069954,0.0],[-43.250314,83.07023,0.0],[-43.249171,83.070225,0.0],[-43.248891,83.071329,0.0],[-43.250034,83.071333,0.0],[-43.249999,83.071471,0.0],[-43.251143,83.071475,0.0],[-43.251038,83.071889,0.0],[-43.252181,83.071893,0.0],[-43.252146,83.072031,0.0],[-43.25329,83.072035,0.0],[-43.253255,83.072173,0.0],[-43.254398,83.072177,0.0],[-43.254363,83.072315,0.0],[-43.255507,83.072319,0.0],[-43.255472,83.072457,0.0],[-43.256615,83.072461,0.0],[-43.25658,83.072599,0.0],[-43.257724,83.072604,0.0],[-43.257689,83.072741,0.0],[-43.258832,83.072746,0.0],[-43.258728,83.073159,0.0],[-43.259872,83.073164,0.0],[-43.259733,83.073715,0.0],[-43.260876,83.07372,0.0],[-43.260807,83.073995,0.0],[-43.263094,83.074004,0.0],[-43.262608,83.075935,0.0],[-43.261464,83.07593,0.0],[-43.261395,83.076206,0.0],[-43.260251,83.076202,0.0],[-43.260147,83.076616,0.0],[-43.257859,83.076607,0.0],[-43.257824,83.076745,0.0],[-43.25668,83.076741,0.0],[-43.25661,83.077017,0.0],[-43.255466,83.077013,0.0],[-43.255431,83.077151,0.0],[-43.254287,83.077147,0.0],[-43.254182,83.07756,0.0],[-43.251894,83.077552,0.0],[-43.251929,83.077414,0.0],[-43.250785,83.07741,0.0],[-43.25075,83.077548,0.0],[-43.249605,83.077543,0.0],[-43.249571,83.077681,0.0],[-43.248426,83.077677,0.0],[-43.248391,83.077815,0.0],[-43.247247,83.077811,0.0],[-43.247212,83.077949,0.0],[-43.246068,83.077945,0.0],[-43.245963,83.078358,0.0],[-43.244818,83.078354,0.0],[-43.244783,83.078492,0.0],[-43.243639,83.078488,0.0],[-43.243604,83.078626,0.0],[-43.242459,83.078622,0.0],[-43.242424,83.078759,0.0],[-43.24128,83.078755,0.0],[-43.241245,83.078893,0.0],[-43.237811,83.07888,0.0],[-43.237776,83.079018,0.0],[-43.236632,83.079014,0.0],[-43.236561,83.07929,0.0],[-43.233128,83.079277,0.0],[-43.233093,83.079415,0.0],[-43.231948,83.079411,0.0],[-43.231913,83.079549,0.0],[-43.230768,83.079544,0.0],[-43.230733,83.079682,0.0],[-43.228444,83.079674,0.0],[-43.228408,83.079812,0.0],[-43.227264,83.079808,0.0],[-43.227157,83.080221,0.0],[-43.226013,83.080217,0.0],[-43.225977,83.080355,0.0],[-43.224833,83.080351,0.0],[-43.224797,83.080489,0.0],[-43.223653,83.080484,0.0],[-43.223582,83.08076,0.0],[-43.222437,83.080756,0.0],[-43.222259,83.081445,0.0],[-43.223404,83.08145,0.0],[-43.223013,83.082967,0.0],[-43.220723,83.082958,0.0],[-43.220616,83.083372,0.0],[-43.219471,83.083368,0.0],[-43.219436,83.083506,0.0],[-43.218291,83.083501,0.0],[-43.218255,83.083639,0.0],[-43.21711,83.083635,0.0],[-43.217074,83.083773,0.0],[-43.215929,83.083769,0.0],[-43.215893,83.083907,0.0],[-43.213603,83.083898,0.0],[-43.213567,83.084036,0.0],[-43.211276,83.084027,0.0],[-43.211241,83.084165,0.0],[-43.210095,83.084161,0.0],[-43.21006,83.084299,0.0],[-43.207769,83.08429,0.0],[-43.207697,83.084566,0.0],[-43.206552,83.084562,0.0],[-43.20648,83.084838,0.0],[-43.205335,83.084833,0.0],[-43.205299,83.084971,0.0],[-43.204154,83.084967,0.0],[-43.204118,83.085105,0.0],[-43.202972,83.0851,0.0],[-43.202936,83.085238,0.0],[-43.201791,83.085234,0.0],[-43.201683,83.085648,0.0],[-43.200537,83.085643,0.0],[-43.200465,83.085919,0.0],[-43.19932,83.085915,0.0],[-43.199284,83.086053,0.0],[-43.198138,83.086048,0.0],[-43.198102,83.086186,0.0],[-43.195811,83.086178,0.0],[-43.195775,83.086316,0.0],[-43.194629,83.086311,0.0],[-43.194593,83.086449,0.0],[-43.192302,83.086441,0.0],[-43.192266,83.086578,0.0],[-43.189974,83.08657,0.0],[-43.189938,83.086708,0.0],[-43.187647,83.086699,0.0],[-43.18761,83.086837,0.0],[-43.185319,83.086828,0.0],[-43.185283,83.086966,0.0],[-43.182991,83.086957,0.0],[-43.182919,83.087233,0.0],[-43.178335,83.087216,0.0],[-43.178299,83.087353,0.0],[-43.174862,83.08734,0.0],[-43.174825,83.087478,0.0],[-43.172534,83.087469,0.0],[-43.172497,83.087607,0.0],[-43.16906,83.087594,0.0],[-43.169023,83.087732,0.0]]]}},{"type":"Feature","properties":{"rgi_id":"RGI2000-v7.0-G-05-19381","o1region":"05"},"geometry":{"type":"Polygon","coordinates":[[[-43.152168,83.13944,0.0],[-43.163264,83.139483,0.0],[-43.163301,83.139345,0.0],[-43.164456,83.139349,0.0],[-43.164493,83.139211,0.0],[-43.166802,83.13922,0.0],[-43.166839,83.139082,0.0],[-43.167993,83.139087,0.0],[-43.16803,83.138949,0.0],[-43.169185,83.138953,0.0],[-43.169258,83.138677,0.0],[-43.170413,83.138682,0.0],[-43.17056,83.13813,0.0],[-43.171715,83.138134,0.0],[-43.171936,83.137307,0.0],[-43.170781,83.137302,0.0],[-43.170818,83.137164,0.0],[-43.169664,83.13716,0.0],[-43.169701,83.137022,0.0],[-43.167393,83.137013,0.0],[-43.16743,83.136875,0.0],[-43.163968,83.136862,0.0],[-43.164005,83.136724,0.0],[-43.160542,83.136711,0.0],[-43.160579,83.136573,0.0],[-43.157117,83.13656,0.0],[-43.15708,83.136698,0.0],[-43.153618,83.136684,0.0],[-43.153581,83.136822,0.0],[-43.150582,83.136811,0.0],[-43.150311,83.13636,0.0],[-43.143583,83.136418,0.0],[-43.143099,83.135614,0.0],[-43.129645,83.13573,0.0],[-43.129163,83.134926,0.0],[-43.102255,83.135155,0.0],[-43.101776,83.134351,0.0],[-43.061417,83.134693,0.0],[-43.061891,83.135497,0.0],[-43.059217,83.13552,0.0],[-43.059227,83.135483,0.0],[-43.058074,83.135478,0.0],[-43.058113,83.13534,0.0],[-43.055805,83.135331,0.0],[-43.055884,83.135055,0.0],[-43.05473,83.13505,0.0],[-43.054769,83.134913,0.0],[-43.052462,83.134903,0.0],[-43.05254,83.134627,0.0],[-43.049079,83.134613,0.0],[-43.049119,83.134475,0.0],[-43.043351,83.134452,0.0],[-43.04343,83.134176,0.0],[-43.035355,83.134143,0.0],[-43.035315,83.134281,0.0],[-43.033008,83.134271,0.0],[-43.032969,83.134409,0.0],[-43.030661,83.1344,0.0],[-43.030622,83.134538,0.0],[-43.028315,83.134528,0.0],[-43.028235,83.134804,0.0],[-43.025928,83.134795,0.0],[-43.025888,83.134932,0.0],[-43.009737,83.134866,0.0],[-43.009697,83.135004,0.0],[-42.9947,83.134941,0.0],[-42.99474,83.134803,0.0],[-42.991279,83.134789,0.0],[-42.99132,83.134651,0.0],[-42.989013,83.134641,0.0],[-42.989053,83.134503,0.0],[-42.9879,83.134498,0.0],[-42.98794,83.13436,0.0],[-42.985633,83.134351,0.0],[-42.985674,83.134213,0.0],[-42.98452,83.134208,0.0],[-42.984561,83.13407,0.0],[-42.9811,83.134055,0.0],[-42.981141,83.133918,0.0],[-42.979988,83.133913,0.0],[-42.980028,83.133775,0.0],[-42.976568,83.13376,0.0],[-42.976609,83.133622,0.0],[-42.975455,83.133617,0.0],[-42.975496,83.133479,0.0],[-42.974343,83.133475,0.0],[-42.974384,83.133337,0.0],[-42.97323,83.133332,0.0],[-42.973353,83.132918,0.0],[-42.971046,83.132908,0.0],[-42.971495,83.131391,0.0],[-42.972648,83.131396,0.0],[-42.972689,83.131258,0.0],[-42.973842,83.131263,0.0],[-42.973965,83.130849,0.0],[-42.975117,83.130854,0.0],[-42.975444,83.129751,0.0],[-42.974291,83.129746,0.0],[-42.974372,83.12947,0.0],[-42.97322,83.129466,0.0],[-42.97326,83.129328,0.0],[-42.972108,83.129323,0.0],[-42.972189,83.129047,0.0],[-42.971037,83.129042,0.0],[-42.971078,83.128904,0.0],[-42.969925,83.128899,0.0],[-42.969966,83.128761,0.0],[-42.968813,83.128756,0.0],[-42.968854,83.128619,0.0],[-42.967702,83.128614,0.0],[-42.967743,83.128476,0.0],[-42.965437,83.128466,0.0],[-42.965478,83.128328,0.0],[-42.963173,83.128318,0.0],[-42.963214,83.12818,0.0],[-42.960909,83.128171,0.0],[-42.960951,83.128033,0.0],[-42.957493,83.128018,0.0],[-42.957534,83.12788,0.0],[-42.955229,83.12787,0.0],[-42.955312,83.127594,0.0],[-42.954159,83.127589,0.0],[-42.954201,83.127452,0.0],[-42.950744,83.127437,0.0],[-42.950785,83.127299,0.0],[-42.931196,83.127215,0.0],[-42.931154,83.127352,0.0],[-42.930002,83.127347,0.0],[-42.92996,83.127485,0.0],[-42.917285,83.12743,0.0],[-42.917243,83.127568,0.0],[-42.913786,83.127553,0.0],[-42.913744,83.127691,0.0],[-42.911439,83.127681,0.0],[-42.911397,83.127819,0.0],[-42.909092,83.127809,0.0],[-42.90905,83.127947,0.0],[-42.906745,83.127937,0.0],[-42.906703,83.128075,0.0],[-42.903246,83.12806,0.0],[-42.903162,83.128335,0.0],[-42.889332,83.128275,0.0],[-42.88929,83.128412,0.0],[-42.88007,83.128372,0.0],[-42.880113,83.128234,0.0],[-42.878961,83.128229,0.0],[-42.879003,83.128091,0.0],[-42.876698,83.128081,0.0],[-42.876741,83.127943,0.0],[-42.874436,83.127932,0.0],[-42.874522,83.127657,0.0],[-42.87337,83.127652,0.0],[-42.873455,83.127376,0.0],[-42.872303,83.127371,0.0],[-42.872389,83.127095,0.0],[-42.876997,83.127115,0.0],[-42.87704,83.126977,0.0],[-42.878192,83.126982,0.0],[-42.878235,83.126845,0.0],[-42.880539,83.126855,0.0],[-42.880582,83.126717,0.0],[-42.881734,83.126722,0.0],[-42.881777,83.126584,0.0],[-42.882929,83.126589,0.0],[-42.882972,83.126451,0.0],[-42.884124,83.126456,0.0],[-42.884166,83.126319,0.0],[-42.885318,83.126324,0.0],[-42.885403,83.126048,0.0],[-42.886555,83.126053,0.0],[-42.886641,83.125777,0.0],[-42.887793,83.125782,0.0],[-42.887835,83.125644,0.0],[-42.892443,83.125665,0.0],[-42.892485,83.125527,0.0],[-42.895941,83.125542,0.0],[-42.895984,83.125404,0.0],[-42.898288,83.125414,0.0],[-42.89833,83.125276,0.0],[-42.917913,83.125362,0.0],[-42.917955,83.125224,0.0],[-42.921411,83.125239,0.0],[-42.921452,83.125101,0.0],[-42.92606,83.125121,0.0],[-42.926102,83.124983,0.0],[-42.931861,83.125008,0.0],[-42.931903,83.12487,0.0],[-42.933055,83.124875,0.0],[-42.933138,83.124599,0.0],[-42.93429,83.124604,0.0],[-42.934373,83.124329,0.0],[-42.935525,83.124334,0.0],[-42.936521,83.121024,0.0],[-42.937672,83.121029,0.0],[-42.937796,83.120615,0.0],[-42.94125,83.12063,0.0],[-42.941291,83.120492,0.0],[-42.951652,83.120537,0.0],[-42.951611,83.120675,0.0],[-42.990753,83.120841,0.0],[-42.990712,83.120979,0.0],[-42.995317,83.120998,0.0],[-42.995277,83.121136,0.0],[-42.996428,83.121141,0.0],[-42.996388,83.121279,0.0],[-42.997539,83.121283,0.0],[-42.997499,83.121421,0.0],[-42.99865,83.121426,0.0],[-42.99857,83.121702,0.0],[-42.999721,83.121707,0.0],[-42.999641,83.121983,0.0],[-43.001944,83.121992,0.0],[-43.001542,83.123371,0.0],[-43.002694,83.123376,0.0],[-43.002332,83.124617,0.0],[-43.003484,83.124622,0.0],[-43.003444,83.12476,0.0],[-43.004596,83.124765,0.0],[-43.004556,83.124903,0.0],[-43.00686,83.124912,0.0],[-43.00682,83.12505,0.0],[-43.007972,83.125055,0.0],[-43.007931,83.125193,0.0],[-43.010235,83.125202,0.0],[-43.010195,83.12534,0.0],[-43.011347,83.125345,0.0],[-43.011307,83.125483,0.0],[-43.013612,83.125493,0.0],[-43.013572,83.125631,0.0],[-43.014724,83.125635,0.0],[-43.014684,83.125773,0.0],[-43.016988,83.125783,0.0],[-43.016868,83.126197,0.0],[-43.019173,83.126206,0.0],[-43.019133,83.126344,0.0],[-43.020285,83.126349,0.0],[-43.020166,83.126762,0.0],[-43.021318,83.126767,0.0],[-43.021198,83.127181,0.0],[-43.022351,83.127186,0.0],[-43.022231,83.127599,0.0],[-43.023384,83.127604,0.0],[-43.023264,83.128018,0.0],[-43.024417,83.128023,0.0],[-43.024298,83.128436,0.0],[-43.026603,83.128446,0.0],[-43.026404,83.129135,0.0],[-43.027557,83.12914,0.0],[-43.027517,83.129278,0.0],[-43.02867,83.129283,0.0],[-43.02859,83.129559,0.0],[-43.029743,83.129563,0.0],[-43.029664,83.129839,0.0],[-43.030817,83.129844,0.0],[-43.030579,83.130671,0.0],[-43.031732,83.130676,0.0],[-43.031613,83.13109,0.0],[-43.032766,83.131095,0.0],[-43.032726,83.131233,0.0],[-43.033879,83.131237,0.0],[-43.03384,83.131375,0.0],[-43.034993,83.13138,0.0],[-43.034953,83.131518,0.0],[-43.037259,83.131527,0.0],[-43.03722,83.131665,0.0],[-43.040679,83.131679,0.0],[-43.040719,83.131542,0.0],[-43.041872,83.131546,0.0],[-43.041911,83.131408,0.0],[-43.043064,83.131413,0.0],[-43.043104,83.131275,0.0],[-43.044257,83.13128,0.0],[-43.044335,83.131004,0.0],[-43.045488,83.131009,0.0],[-43.045528,83.130871,0.0],[-43.047834,83.13088,0.0],[-43.047873,83.130742,0.0],[-43.049026,83.130747,0.0],[-43.049105,83.130471,0.0],[-43.05141,83.130481,0.0],[-43.051489,83.130205,0.0],[-43.0561,83.130223,0.0],[-43.05614,83.130086,0.0],[-43.057292,83.13009,0.0],[-43.057331,83.129952,0.0],[-43.059637,83.129962,0.0],[-43.059676,83.129824,0.0],[-43.061982,83.129833,0.0],[-43.062021,83.129695,0.0],[-43.064326,83.129705,0.0],[-43.064365,83.129567,0.0],[-43.066671,83.129576,0.0],[-43.06671,83.129438,0.0],[-43.070168,83.129452,0.0],[-43.070207,83.129314,0.0],[-43.073665,83.129328,0.0],[-43.073704,83.12919,0.0],[-43.074857,83.129195,0.0],[-43.074895,83.129057,0.0],[-43.076048,83.129061,0.0],[-43.076087,83.128924,0.0],[-43.077239,83.128928,0.0],[-43.077317,83.128652,0.0],[-43.079622,83.128662,0.0],[-43.080047,83.127145,0.0],[-43.0812,83.127149,0.0],[-43.081277,83.126873,0.0],[-43.083581,83.126883,0.0],[-43.083697,83.126469,0.0],[-43.086002,83.126478,0.0],[-43.08604,83.12634,0.0],[-43.087192,83.126345,0.0],[-43.087269,83.126069,0.0],[-43.089574,83.126078,0.0],[-43.089651,83.125802,0.0],[-43.093107,83.125816,0.0],[-43.093145,83.125678,0.0],[-43.094298,83.125683,0.0],[-43.094374,83.125407,0.0],[-43.095526,83.125411,0.0],[-43.095603,83.125136,0.0],[-43.097907,83.125145,0.0],[-43.098213,83.124041,0.0],[-43.100517,83.124051,0.0],[-43.100555,83.123913,0.0],[-43.104011,83.123926,0.0],[-43.104049,83.123789,0.0],[-43.106352,83.123798,0.0],[-43.10639,83.12366,0.0],[-43.107542,83.123664,0.0],[-43.10758,83.123526,0.0],[-43.108732,83.123531,0.0],[-43.10877,83.123393,0.0],[-43.109922,83.123398,0.0],[-43.110302,83.122018,0.0],[-43.10915,83.122014,0.0],[-43.109188,83.121876,0.0],[-43.108037,83.121871,0.0],[-43.108113,83.121596,0.0],[-43.106961,83.121591,0.0],[-43.107038,83.121315,0.0],[-43.104735,83.121306,0.0],[-43.104811,83.12103,0.0],[-43.102508,83.121021,0.0],[-43.102813,83.119918,0.0],[-43.101662,83.119913,0.0],[-43.1017,83.119775,0.0],[-43.099398,83.119766,0.0],[-43.099436,83.119628,0.0],[-43.098285,83.119624,0.0],[-43.098323,83.119486,0.0],[-43.093719,83.119467,0.0],[-43.093757,83.119329,0.0],[-43.091455,83.11932,0.0],[-43.091493,83.119182,0.0],[-43.089191,83.119173,0.0],[-43.08923,83.119035,0.0],[-43.086928,83.119026,0.0],[-43.086966,83.118888,0.0],[-43.084664,83.118879,0.0],[-43.084703,83.118741,0.0],[-43.082401,83.118732,0.0],[-43.082439,83.118594,0.0],[-43.077835,83.118575,0.0],[-43.077874,83.118437,0.0],[-43.07327,83.118419,0.0],[-43.073309,83.118281,0.0],[-43.069857,83.118267,0.0],[-43.069818,83.118405,0.0],[-43.066365,83.118391,0.0],[-43.06652,83.117839,0.0],[-43.06537,83.117835,0.0],[-43.065486,83.117421,0.0],[-43.064336,83.117416,0.0],[-43.064413,83.117141,0.0],[-43.063263,83.117136,0.0],[-43.06334,83.11686,0.0],[-43.06219,83.116855,0.0],[-43.062307,83.116442,0.0],[-43.061156,83.116437,0.0],[-43.061351,83.115747,0.0],[-43.0602,83.115743,0.0],[-43.060395,83.115053,0.0],[-43.059245,83.115049,0.0],[-43.059712,83.113394,0.0],[-43.058562,83.113389,0.0],[-43.058718,83.112837,0.0],[-43.057568,83.112833,0.0],[-43.057607,83.112695,0.0],[-43.056457,83.11269,0.0],[-43.056652,83.112,0.0],[-43.054353,83.111991,0.0],[-43.054431,83.111715,0.0],[-43.052131,83.111706,0.0],[-43.05217,83.111568,0.0],[-43.051021,83.111563,0.0],[-43.051138,83.11115,0.0],[-43.048839,83.11114,0.0],[-43.048956,83.110726,0.0],[-43.047807,83.110722,0.0],[-43.048238,83.109205,0.0],[-43.045939,83.109195,0.0],[-43.046057,83.108782,0.0],[-43.043758,83.108772,0.0],[-43.043836,83.108496,0.0],[-43.042687,83.108492,0.0],[-43.042727,83.108354,0.0],[-43.041577,83.108349,0.0],[-43.041656,83.108073,0.0],[-43.040507,83.108069,0.0],[-43.040546,83.107931,0.0],[-43.039397,83.107926,0.0],[-43.039515,83.107512,0.0],[-43.038366,83.107507,0.0],[-43.038445,83.107232,0.0],[-43.037296,83.107227,0.0],[-43.037374,83.106951,0.0],[-43.036225,83.106946,0.0],[-43.036304,83.106671,0.0],[-43.035155,83.106666,0.0],[-43.035313,83.106114,0.0],[-43.033015,83.106105,0.0],[-43.033134,83.105691,0.0],[-43.031985,83.105686,0.0],[-43.032024,83.105548,0.0],[-43.030876,83.105544,0.0],[-43.030994,83.10513,0.0],[-43.029845,83.105125,0.0],[-43.029885,83.104987,0.0],[-43.028736,83.104982,0.0],[-43.028776,83.104845,0.0],[-43.027627,83.10484,0.0],[-43.027706,83.104564,0.0],[-43.026558,83.104559,0.0],[-43.026597,83.104421,0.0],[-43.025449,83.104417,0.0],[-43.025528,83.104141,0.0],[-43.02438,83.104136,0.0],[-43.024419,83.103998,0.0],[-43.023271,83.103993,0.0],[-43.02331,83.103855,0.0],[-43.022162,83.103851,0.0],[-43.022202,83.103713,0.0],[-43.021053,83.103708,0.0],[-43.021093,83.10357,0.0],[-43.019944,83.103565,0.0],[-43.019984,83.103427,0.0],[-43.018836,83.103423,0.0],[-43.018875,83.103285,0.0],[-43.017727,83.10328,0.0],[-43.017767,83.103142,0.0],[-43.01547,83.103133,0.0],[-43.01555,83.102857,0.0],[-43.014402,83.102852,0.0],[-43.014441,83.102714,0.0],[-43.012145,83.102704,0.0],[-43.012185,83.102567,0.0],[-43.009888,83.102557,0.0],[-43.009928,83.102419,0.0],[-43.007632,83.10241,0.0],[-43.007752,83.101996,0.0],[-43.005455,83.101986,0.0],[-43.005575,83.101572,0.0],[-43.004427,83.101568,0.0],[-43.004507,83.101292,0.0],[-43.003359,83.101287,0.0],[-43.003519,83.100735,0.0],[-43.002372,83.100731,0.0],[-43.002532,83.100179,0.0],[-43.001384,83.100174,0.0],[-43.001584,83.099485,0.0],[-43.000436,83.09948,0.0],[-43.000597,83.098928,0.0],[-42.999449,83.098923,0.0],[-42.999569,83.09851,0.0],[-42.998422,83.098505,0.0],[-42.998542,83.098091,0.0],[-42.997395,83.098086,0.0],[-42.997435,83.097948,0.0],[-42.99514,83.097939,0.0],[-42.99518,83.097801,0.0],[-42.994033,83.097796,0.0],[-42.994354,83.096693,0.0],[-42.993207,83.096688,0.0],[-42.993528,83.095585,0.0],[-42.992381,83.09558,0.0],[-42.993025,83.093374,0.0],[-42.994171,83.093378,0.0],[-42.994412,83.092551,0.0],[-42.995559,83.092556,0.0],[-42.995599,83.092418,0.0],[-42.997892,83.092428,0.0],[-42.997972,83.092152,0.0],[-42.999118,83.092157,0.0],[-42.999158,83.092019,0.0],[-43.001451,83.092028,0.0],[-43.001491,83.09189,0.0],[-43.00837,83.091919,0.0],[-43.00833,83.092057,0.0],[-43.014062,83.092081,0.0],[-43.013983,83.092357,0.0],[-43.019716,83.092381,0.0],[-43.019676,83.092519,0.0],[-43.028848,83.092557,0.0],[-43.028809,83.092695,0.0],[-43.033395,83.092714,0.0],[-43.033356,83.092851,0.0],[-43.037942,83.09287,0.0],[-43.037864,83.093146,0.0],[-43.041304,83.09316,0.0],[-43.041264,83.093298,0.0],[-43.048145,83.093327,0.0],[-43.048106,83.093464,0.0],[-43.053839,83.093488,0.0],[-43.0538,83.093626,0.0],[-43.058387,83.093645,0.0],[-43.058348,83.093782,0.0],[-43.059495,83.093787,0.0],[-43.059417,83.094063,0.0],[-43.060564,83.094068,0.0],[-43.060525,83.094205,0.0],[-43.063966,83.094219,0.0],[-43.063927,83.094357,0.0],[-43.065074,83.094362,0.0],[-43.064958,83.094776,0.0],[-43.066105,83.09478,0.0],[-43.066066,83.094918,0.0],[-43.067213,83.094923,0.0],[-43.067136,83.095199,0.0],[-43.068283,83.095203,0.0],[-43.068244,83.095341,0.0],[-43.069391,83.095346,0.0],[-43.069314,83.095622,0.0],[-43.070461,83.095627,0.0],[-43.070422,83.095764,0.0],[-43.071569,83.095769,0.0],[-43.071492,83.096045,0.0],[-43.073786,83.096054,0.0],[-43.073709,83.09633,0.0],[-43.076004,83.096339,0.0],[-43.075927,83.096615,0.0],[-43.078221,83.096624,0.0],[-43.078144,83.0969,0.0],[-43.080439,83.096909,0.0],[-43.080323,83.097323,0.0],[-43.081471,83.097328,0.0],[-43.081432,83.097466,0.0],[-43.08258,83.09747,0.0],[-43.082503,83.097746,0.0],[-43.08365,83.097751,0.0],[-43.083574,83.098027,0.0],[-43.084721,83.098031,0.0],[-43.084683,83.098169,0.0],[-43.088125,83.098183,0.0],[-43.088049,83.098459,0.0],[-43.089196,83.098463,0.0],[-43.08912,83.098739,0.0],[-43.091415,83.098748,0.0],[-43.091377,83.098886,0.0],[-43.092524,83.098891,0.0],[-43.09241,83.099305,0.0],[-43.093557,83.099309,0.0],[-43.093519,83.099447,0.0],[-43.095815,83.099456,0.0],[-43.095738,83.099732,0.0],[-43.098034,83.099741,0.0],[-43.097958,83.100017,0.0],[-43.099106,83.100022,0.0],[-43.099068,83.10016,0.0],[-43.100215,83.100164,0.0],[-43.100177,83.100302,0.0],[-43.103621,83.100316,0.0],[-43.103583,83.100454,0.0],[-43.105879,83.100463,0.0],[-43.105841,83.100601,0.0],[-43.110433,83.100619,0.0],[-43.110395,83.100757,0.0],[-43.112691,83.100766,0.0],[-43.112653,83.100904,0.0],[-43.114949,83.100913,0.0],[-43.114911,83.101051,0.0],[-43.126392,83.101096,0.0],[-43.126429,83.100958,0.0],[-43.127577,83.100963,0.0],[-43.128027,83.099308,0.0],[-43.129175,83.099312,0.0],[-43.129288,83.098898,0.0],[-43.130435,83.098903,0.0],[-43.13051,83.098627,0.0],[-43.131658,83.098632,0.0],[-43.131808,83.09808,0.0],[-43.132955,83.098084,0.0],[-43.132993,83.097947,0.0],[-43.135288,83.097956,0.0],[-43.135661,83.096576,0.0],[-43.134514,83.096572,0.0],[-43.134589,83.096296,0.0],[-43.133441,83.096292,0.0],[-43.133516,83.096016,0.0],[-43.132369,83.096011,0.0],[-43.132556,83.095322,0.0],[-43.131409,83.095317,0.0],[-43.131708,83.094214,0.0],[-43.132855,83.094218,0.0],[-43.132967,83.093805,0.0],[-43.134114,83.093809,0.0],[-43.134189,83.093533,0.0],[-43.135336,83.093538,0.0],[-43.13541,83.093262,0.0],[-43.136557,83.093266,0.0],[-43.136594,83.093129,0.0],[-43.137741,83.093133,0.0],[-43.137778,83.092995,0.0],[-43.136632,83.092991,0.0],[-43.136669,83.092853,0.0],[-43.135522,83.092848,0.0],[-43.135597,83.092572,0.0],[-43.13445,83.092568,0.0],[-43.134525,83.092292,0.0],[-43.133378,83.092288,0.0],[-43.133416,83.09215,0.0],[-43.132269,83.092145,0.0],[-43.132344,83.091869,0.0],[-43.131197,83.091865,0.0],[-43.131235,83.091727,0.0],[-43.130088,83.091722,0.0],[-43.130163,83.091447,0.0],[-43.129017,83.091442,0.0],[-43.129092,83.091166,0.0],[-43.127945,83.091162,0.0],[-43.127983,83.091024,0.0],[-43.1383,83.091064,0.0],[-43.138337,83.090926,0.0],[-43.14063,83.090935,0.0],[-43.140667,83.090797,0.0],[-43.14296,83.090806,0.0],[-43.142997,83.090669,0.0],[-43.144144,83.090673,0.0],[-43.144181,83.090535,0.0],[-43.148766,83.090553,0.0],[-43.148803,83.090415,0.0],[-43.15912,83.090455,0.0],[-43.159083,83.090593,0.0],[-43.161375,83.090602,0.0],[-43.161339,83.09074,0.0],[-43.162485,83.090744,0.0],[-43.162411,83.09102,0.0],[-43.163558,83.091024,0.0],[-43.163521,83.091162,0.0],[-43.164667,83.091167,0.0],[-43.164631,83.091305,0.0],[-43.165777,83.091309,0.0],[-43.16574,83.091447,0.0],[-43.168033,83.091456,0.0],[-43.16796,83.091732,0.0],[-43.169107,83.091736,0.0],[-43.169033,83.092012,0.0],[-43.17018,83.092016,0.0],[-43.170143,83.092154,0.0],[-43.181609,83.092198,0.0],[-43.181645,83.09206,0.0],[-43.182792,83.092065,0.0],[-43.182828,83.091927,0.0],[-43.183975,83.091931,0.0],[-43.184157,83.091241,0.0],[-43.181864,83.091233,0.0],[-43.182155,83.090129,0.0],[-43.183301,83.090134,0.0],[-43.18341,83.08972,0.0],[-43.189141,83.089742,0.0],[-43.189105,83.08988,0.0],[-43.190251,83.089884,0.0],[-43.190215,83.090022,0.0],[-43.200531,83.090061,0.0],[-43.200495,83.090199,0.0],[-43.203934,83.090212,0.0],[-43.203898,83.09035,0.0],[-43.206191,83.090359,0.0],[-43.206155,83.090497,0.0],[-43.211887,83.090518,0.0],[-43.211851,83.090656,0.0],[-43.2279,83.090716,0.0],[-43.227935,83.090578,0.0],[-43.234814,83.090604,0.0],[-43.234743,83.090879,0.0],[-43.237036,83.090888,0.0],[-43.237,83.091026,0.0],[-43.247318,83.091064,0.0],[-43.247389,83.090788,0.0],[-43.251974,83.090805,0.0],[-43.252009,83.090667,0.0],[-43.260034,83.090696,0.0],[-43.259999,83.090834,0.0],[-43.265731,83.090855,0.0],[-43.265766,83.090717,0.0],[-43.268059,83.090726,0.0],[-43.268094,83.090588,0.0],[-43.272679,83.090604,0.0],[-43.272714,83.090467,0.0],[-43.275006,83.090475,0.0],[-43.275041,83.090337,0.0],[-43.276187,83.090341,0.0],[-43.276222,83.090203,0.0],[-43.277368,83.090207,0.0],[-43.277437,83.089931,0.0],[-43.278583,83.089936,0.0],[-43.278756,83.089246,0.0],[-43.277609,83.089242,0.0],[-43.277644,83.089104,0.0],[-43.276498,83.0891,0.0],[-43.276532,83.088962,0.0],[-43.27424,83.088954,0.0],[-43.274274,83.088816,0.0],[-43.273128,83.088811,0.0],[-43.273197,83.088536,0.0],[-43.270905,83.088527,0.0],[-43.27094,83.088389,0.0],[-43.269794,83.088385,0.0],[-43.269829,83.088247,0.0],[-43.268683,83.088243,0.0],[-43.268752,83.087967,0.0],[-43.267606,83.087963,0.0],[-43.267641,83.087825,0.0],[-43.265349,83.087817,0.0],[-43.265418,83.087541,0.0],[-43.264272,83.087537,0.0],[-43.264307,83.087399,0.0],[-43.263161,83.087395,0.0],[-43.263231,83.087119,0.0],[-43.262085,83.087115,0.0],[-43.262154,83.086839,0.0],[-43.261009,83.086835,0.0],[-43.261043,83.086697,0.0],[-43.259898,83.086693,0.0],[-43.259967,83.086417,0.0],[-43.258822,83.086412,0.0],[-43.258891,83.086137,0.0],[-43.257746,83.086132,0.0],[-43.257815,83.085857,0.0],[-43.25667,83.085852,0.0],[-43.256705,83.085714,0.0],[-43.255559,83.08571,0.0],[-43.255629,83.085434,0.0],[-43.254483,83.08543,0.0],[-43.254518,83.085292,0.0],[-43.253373,83.085288,0.0],[-43.253408,83.08515,0.0],[-43.252262,83.085146,0.0],[-43.252332,83.08487,0.0],[-43.251187,83.084866,0.0],[-43.251222,83.084728,0.0],[-43.248931,83.08472,0.0],[-43.249176,83.083754,0.0],[-43.250321,83.083758,0.0],[-43.250356,83.08362,0.0],[-43.257227,83.083646,0.0],[-43.257193,83.083784,0.0],[-43.259483,83.083792,0.0],[-43.259413,83.084068,0.0],[-43.26514,83.084089,0.0],[-43.265279,83.083537,0.0],[-43.264133,83.083533,0.0],[-43.264376,83.082567,0.0],[-43.263231,83.082563,0.0],[-43.263335,83.082149,0.0],[-43.26219,83.082145,0.0],[-43.262295,83.081732,0.0],[-43.26115,83.081727,0.0],[-43.261289,83.081176,0.0],[-43.260144,83.081171,0.0],[-43.260422,83.080068,0.0],[-43.261567,83.080072,0.0],[-43.261532,83.08021,0.0],[-43.262677,83.080214,0.0],[-43.262711,83.080076,0.0],[-43.263856,83.080081,0.0],[-43.263925,83.079805,0.0],[-43.26507,83.079809,0.0],[-43.265139,83.079533,0.0],[-43.266284,83.079537,0.0],[-43.266353,83.079261,0.0],[-43.267498,83.079266,0.0],[-43.267359,83.079817,0.0],[-43.268504,83.079821,0.0],[-43.268435,83.080097,0.0],[-43.269579,83.080101,0.0],[-43.269545,83.080239,0.0],[-43.270689,83.080244,0.0],[-43.270655,83.080382,0.0],[-43.271799,83.080386,0.0],[-43.271765,83.080524,0.0],[-43.27291,83.080528,0.0],[-43.272875,83.080666,0.0],[-43.27402,83.08067,0.0],[-43.273916,83.081084,0.0],[-43.276206,83.081092,0.0],[-43.276172,83.08123,0.0],[-43.277316,83.081234,0.0],[-43.277282,83.081372,0.0],[-43.279572,83.08138,0.0],[-43.279537,83.081518,0.0],[-43.280682,83.081522,0.0],[-43.280613,83.081798,0.0],[-43.281758,83.081802,0.0],[-43.281655,83.082216,0.0],[-43.2828,83.08222,0.0],[-43.282732,83.082496,0.0],[-43.283877,83.0825,0.0],[-43.28374,83.083052,0.0],[-43.284885,83.083056,0.0],[-43.284713,83.083746,0.0],[-43.285858,83.08375,0.0],[-43.285824,83.083888,0.0],[-43.286969,83.083892,0.0],[-43.286901,83.084168,0.0],[-43.288046,83.084172,0.0],[-43.288012,83.08431,0.0],[-43.290303,83.084318,0.0],[-43.290269,83.084456,0.0],[-43.293705,83.084468,0.0],[-43.293671,83.084606,0.0],[-43.297107,83.084618,0.0],[-43.297073,83.084756,0.0],[-43.301655,83.084773,0.0],[-43.301621,83.084911,0.0],[-43.303911,83.084919,0.0],[-43.303878,83.085057,0.0],[-43.306169,83.085065,0.0],[-43.306135,83.085203,0.0],[-43.309571,83.085215,0.0],[-43.309537,83.085353,0.0],[-43.317556,83.085381,0.0],[-43.31759,83.085243,0.0],[-43.318735,83.085248,0.0],[-43.318904,83.084558,0.0],[-43.320049,83.084562,0.0],[-43.320235,83.083799,0.0],[-43.324328,83.090366,0.0],[-43.33101,83.090305,0.0],[-43.331512,83.091109,0.0],[-43.338195,83.091049,0.0],[-43.339201,83.092657,0.0],[-43.345885,83.092596,0.0],[-43.346894,83.094204,0.0],[-43.353579,83.094143,0.0],[-43.35459,83.095751,0.0],[-43.361276,83.09569,0.0],[-43.362796,83.098102,0.0],[-43.369485,83.098041,0.0],[-43.3705,83.099648,0.0],[-43.38388,83.099526,0.0],[-43.385408,83.101938,0.0],[-43.3921,83.101877,0.0],[-43.394142,83.105092,0.0],[-43.394945,83.106355,0.0],[-43.389479,83.106337,0.0],[-43.389447,83.106475,0.0],[-43.388298,83.106471,0.0],[-43.388266,83.106609,0.0],[-43.387117,83.106605,0.0],[-43.387052,83.106881,0.0],[-43.385903,83.106877,0.0],[-43.385838,83.107153,0.0],[-43.38239,83.107141,0.0],[-43.382358,83.107279,0.0],[-43.381209,83.107275,0.0],[-43.381111,83.107689,0.0],[-43.379962,83.107685,0.0],[-43.379929,83.107823,0.0],[-43.379897,83.107961,0.0],[-43.378747,83.107957,0.0],[-43.37852,83.108922,0.0],[-43.379669,83.108926,0.0],[-43.379572,83.10934,0.0],[-43.380721,83.109344,0.0],[-43.380656,83.10962,0.0],[-43.381806,83.109624,0.0],[-43.381741,83.1099,0.0],[-43.382891,83.109903,0.0],[-43.382826,83.110179,0.0],[-43.383975,83.110183,0.0],[-43.383911,83.110459,0.0],[-43.38506,83.110463,0.0],[-43.384963,83.110877,0.0],[-43.386113,83.110881,0.0],[-43.38608,83.111019,0.0],[-43.38723,83.111022,0.0],[-43.387133,83.111436,0.0],[-43.388283,83.11144,0.0],[-43.388218,83.111716,0.0],[-43.390518,83.111724,0.0],[-43.390486,83.111862,0.0],[-43.391636,83.111866,0.0],[-43.391604,83.112004,0.0],[-43.391798,83.112004,0.0],[-43.392553,83.113192,0.0],[-43.38585,83.113253,0.0],[-43.38636,83.114057,0.0],[-43.379656,83.114118,0.0],[-43.380166,83.114922,0.0],[-43.379404,83.114929,0.0],[-43.37942,83.114861,0.0],[-43.377119,83.114853,0.0],[-43.377152,83.114716,0.0],[-43.374851,83.114708,0.0],[-43.374916,83.114432,0.0],[-43.373766,83.114428,0.0],[-43.373831,83.114152,0.0],[-43.372681,83.114148,0.0],[-43.372713,83.11401,0.0],[-43.371563,83.114006,0.0],[-43.371628,83.11373,0.0],[-43.370478,83.113727,0.0],[-43.370511,83.113589,0.0],[-43.369361,83.113585,0.0],[-43.369426,83.113309,0.0],[-43.368276,83.113305,0.0],[-43.368309,83.113167,0.0],[-43.367158,83.113163,0.0],[-43.367224,83.112887,0.0],[-43.366074,83.112883,0.0],[-43.366107,83.112745,0.0],[-43.364956,83.112741,0.0],[-43.364989,83.112603,0.0],[-43.363839,83.112599,0.0],[-43.363905,83.112324,0.0],[-43.362755,83.11232,0.0],[-43.362788,83.112182,0.0],[-43.361638,83.112178,0.0],[-43.361703,83.111902,0.0],[-43.360553,83.111898,0.0],[-43.360586,83.11176,0.0],[-43.359436,83.111756,0.0],[-43.359502,83.11148,0.0],[-43.358352,83.111476,0.0],[-43.358385,83.111338,0.0],[-43.356085,83.11133,0.0],[-43.356118,83.111192,0.0],[-43.34577,83.111157,0.0],[-43.345736,83.111295,0.0],[-43.343437,83.111287,0.0],[-43.343403,83.111425,0.0],[-43.342254,83.111421,0.0],[-43.342187,83.111697,0.0],[-43.335287,83.111672,0.0],[-43.335321,83.111535,0.0],[-43.331871,83.111523,0.0],[-43.331938,83.111247,0.0],[-43.323889,83.111218,0.0],[-43.323923,83.111081,0.0],[-43.322773,83.111077,0.0],[-43.322806,83.110939,0.0],[-43.312458,83.110902,0.0],[-43.312424,83.11104,0.0],[-43.307825,83.111024,0.0],[-43.307757,83.1113,0.0],[-43.306607,83.111296,0.0],[-43.306573,83.111433,0.0],[-43.305423,83.111429,0.0],[-43.305389,83.111567,0.0],[-43.304239,83.111563,0.0],[-43.304171,83.111839,0.0],[-43.303021,83.111835,0.0],[-43.302919,83.112249,0.0],[-43.301769,83.112245,0.0],[-43.301735,83.112383,0.0],[-43.300585,83.112379,0.0],[-43.300517,83.112654,0.0],[-43.299367,83.11265,0.0],[-43.299298,83.112926,0.0],[-43.296998,83.112918,0.0],[-43.296964,83.113056,0.0],[-43.295814,83.113052,0.0],[-43.295779,83.11319,0.0],[-43.294629,83.113186,0.0],[-43.294527,83.113599,0.0],[-43.292226,83.113591,0.0],[-43.292192,83.113729,0.0],[-43.289891,83.113721,0.0],[-43.289857,83.113859,0.0],[-43.287556,83.113851,0.0],[-43.287522,83.113989,0.0],[-43.286372,83.113984,0.0],[-43.286337,83.114122,0.0],[-43.285187,83.114118,0.0],[-43.285118,83.114394,0.0],[-43.29202,83.114419,0.0],[-43.291986,83.114557,0.0],[-43.30234,83.114594,0.0],[-43.302271,83.114869,0.0],[-43.320679,83.114935,0.0],[-43.320746,83.114659,0.0],[-43.328799,83.114687,0.0],[-43.328598,83.115514,0.0],[-43.327447,83.11551,0.0],[-43.327414,83.115648,0.0],[-43.326263,83.115644,0.0],[-43.32623,83.115782,0.0],[-43.325079,83.115778,0.0],[-43.324978,83.116192,0.0],[-43.323827,83.116188,0.0],[-43.323794,83.116326,0.0],[-43.322643,83.116322,0.0],[-43.322609,83.11646,0.0],[-43.321459,83.116456,0.0],[-43.321425,83.116594,0.0],[-43.319123,83.116586,0.0],[-43.31909,83.116724,0.0],[-43.314486,83.116707,0.0],[-43.314453,83.116845,0.0],[-43.311,83.116833,0.0],[-43.310966,83.116971,0.0],[-43.30176,83.116938,0.0],[-43.301726,83.117076,0.0],[-43.295972,83.117056,0.0],[-43.295903,83.117332,0.0],[-43.294752,83.117328,0.0],[-43.294718,83.117466,0.0],[-43.293567,83.117461,0.0],[-43.293498,83.117737,0.0],[-43.292348,83.117733,0.0],[-43.292279,83.118009,0.0],[-43.291128,83.118005,0.0],[-43.291094,83.118143,0.0],[-43.289943,83.118139,0.0],[-43.289874,83.118415,0.0],[-43.288723,83.11841,0.0],[-43.288654,83.118686,0.0],[-43.287503,83.118682,0.0],[-43.287469,83.11882,0.0],[-43.286317,83.118816,0.0],[-43.286283,83.118954,0.0],[-43.283981,83.118946,0.0],[-43.283912,83.119222,0.0],[-43.282761,83.119217,0.0],[-43.282726,83.119355,0.0],[-43.280424,83.119347,0.0],[-43.280251,83.120037,0.0],[-43.286007,83.120057,0.0],[-43.285973,83.120195,0.0],[-43.294032,83.120224,0.0],[-43.293998,83.120362,0.0],[-43.298604,83.120378,0.0],[-43.298569,83.120516,0.0],[-43.302024,83.120529,0.0],[-43.301989,83.120667,0.0],[-43.303141,83.120671,0.0],[-43.303107,83.120809,0.0],[-43.304258,83.120813,0.0],[-43.304224,83.120951,0.0],[-43.306527,83.120959,0.0],[-43.306493,83.121097,0.0],[-43.313402,83.121121,0.0],[-43.313436,83.120983,0.0],[-43.321497,83.121012,0.0],[-43.321429,83.121287,0.0],[-43.322581,83.121291,0.0],[-43.322547,83.121429,0.0],[-43.323698,83.121433,0.0],[-43.323631,83.121709,0.0],[-43.324783,83.121713,0.0],[-43.324479,83.122955,0.0],[-43.323328,83.122951,0.0],[-43.323294,83.123089,0.0],[-43.322142,83.123085,0.0],[-43.322075,83.12336,0.0],[-43.320923,83.123356,0.0],[-43.320855,83.123632,0.0],[-43.319703,83.123628,0.0],[-43.319602,83.124042,0.0],[-43.31845,83.124038,0.0],[-43.318416,83.124176,0.0],[-43.313808,83.12416,0.0],[-43.313774,83.124298,0.0],[-43.31147,83.12429,0.0],[-43.311436,83.124427,0.0],[-43.309132,83.124419,0.0],[-43.309064,83.124695,0.0],[-43.30676,83.124687,0.0],[-43.306725,83.124825,0.0],[-43.305573,83.124821,0.0],[-43.305539,83.124959,0.0],[-43.304387,83.124955,0.0],[-43.304353,83.125093,0.0],[-43.300896,83.12508,0.0],[-43.300828,83.125356,0.0],[-43.299676,83.125352,0.0],[-43.299642,83.12549,0.0],[-43.298489,83.125486,0.0],[-43.298455,83.125624,0.0],[-43.296151,83.125616,0.0],[-43.296116,83.125754,0.0],[-43.293812,83.125745,0.0],[-43.293743,83.126021,0.0],[-43.292591,83.126017,0.0],[-43.292557,83.126155,0.0],[-43.291404,83.126151,0.0],[-43.29137,83.126289,0.0],[-43.289065,83.126281,0.0],[-43.288996,83.126557,0.0],[-43.287844,83.126552,0.0],[-43.287809,83.12669,0.0],[-43.286657,83.126686,0.0],[-43.286623,83.126824,0.0],[-43.28547,83.12682,0.0],[-43.285401,83.127096,0.0],[-43.283096,83.127088,0.0],[-43.283062,83.127226,0.0],[-43.281909,83.127221,0.0],[-43.281874,83.127359,0.0],[-43.280722,83.127355,0.0],[-43.280687,83.127493,0.0],[-43.279535,83.127489,0.0],[-43.2795,83.127627,0.0],[-43.277195,83.127619,0.0],[-43.27716,83.127757,0.0],[-43.274855,83.127748,0.0],[-43.27482,83.127886,0.0],[-43.273668,83.127882,0.0],[-43.273598,83.128158,0.0],[-43.272446,83.128154,0.0],[-43.272411,83.128292,0.0],[-43.268953,83.128279,0.0],[-43.268883,83.128555,0.0],[-43.26773,83.128551,0.0],[-43.267695,83.128689,0.0],[-43.266543,83.128685,0.0],[-43.266508,83.128823,0.0],[-43.265355,83.128818,0.0],[-43.26532,83.128956,0.0],[-43.264167,83.128952,0.0],[-43.264132,83.12909,0.0],[-43.26298,83.129086,0.0],[-43.262945,83.129224,0.0],[-43.261792,83.12922,0.0],[-43.261757,83.129358,0.0],[-43.259451,83.129349,0.0],[-43.259416,83.129487,0.0],[-43.25711,83.129479,0.0],[-43.257075,83.129617,0.0],[-43.253616,83.129604,0.0],[-43.253546,83.12988,0.0],[-43.252393,83.129876,0.0],[-43.252358,83.130014,0.0],[-43.248899,83.130001,0.0],[-43.248864,83.130139,0.0],[-43.247711,83.130135,0.0],[-43.247676,83.130273,0.0],[-43.244217,83.13026,0.0],[-43.244181,83.130398,0.0],[-43.243028,83.130394,0.0],[-43.242993,83.130532,0.0],[-43.24184,83.130527,0.0],[-43.241769,83.130803,0.0],[-43.240616,83.130799,0.0],[-43.24058,83.130937,0.0],[-43.239427,83.130933,0.0],[-43.239356,83.131209,0.0],[-43.238203,83.131204,0.0],[-43.238132,83.13148,0.0],[-43.236979,83.131476,0.0],[-43.236908,83.131752,0.0],[-43.235755,83.131747,0.0],[-43.235506,83.132713,0.0],[-43.234353,83.132709,0.0],[-43.234211,83.13326,0.0],[-43.233057,83.133256,0.0],[-43.232879,83.133946,0.0],[-43.231726,83.133942,0.0],[-43.231583,83.134493,0.0],[-43.232737,83.134498,0.0],[-43.232452,83.135601,0.0],[-43.231298,83.135597,0.0],[-43.230864,83.137277,0.0],[-43.205112,83.137502,0.0],[-43.205603,83.138306,0.0],[-43.198874,83.138365,0.0],[-43.199365,83.139169,0.0],[-43.185904,83.139286,0.0],[-43.186393,83.14009,0.0],[-43.159468,83.140323,0.0],[-43.158982,83.139519,0.0],[-43.152251,83.139577,0.0],[-43.152168,83.13944,0.0]],[[-43.164913,83.124716,0.0],[-43.16495,83.124578,0.0],[-43.167254,83.124587,0.0],[-43.167291,83.124449,0.0],[-43.168443,83.124454,0.0],[-43.16848,83.124316,0.0],[-43.169632,83.12432,0.0],[-43.169816,83.12363,0.0],[-43.168664,83.123626,0.0],[-43.168738,83.12335,0.0],[-43.167586,83.123346,0.0],[-43.167623,83.123208,0.0],[-43.166471,83.123203,0.0],[-43.166508,83.123066,0.0],[-43.165356,83.123061,0.0],[-43.165393,83.122923,0.0],[-43.16309,83.122914,0.0],[-43.163126,83.122776,0.0],[-43.161975,83.122772,0.0],[-43.162012,83.122634,0.0],[-43.16086,83.12263,0.0],[-43.160897,83.122492,0.0],[-43.159745,83.122487,0.0],[-43.159782,83.122349,0.0],[-43.158631,83.122345,0.0],[-43.158705,83.122069,0.0],[-43.156402,83.12206,0.0],[-43.156439,83.121922,0.0],[-43.154136,83.121913,0.0],[-43.15421,83.121638,0.0],[-43.153058,83.121633,0.0],[-43.153095,83.121495,0.0],[-43.151944,83.121491,0.0],[-43.151981,83.121353,0.0],[-43.143921,83.121322,0.0],[-43.143249,83.123804,0.0],[-43.142097,83.1238,0.0],[-43.142023,83.124076,0.0],[-43.140871,83.124071,0.0],[-43.140833,83.124209,0.0],[-43.139681,83.124205,0.0],[-43.139644,83.124342,0.0],[-43.1431,83.124356,0.0],[-43.143062,83.124494,0.0],[-43.149974,83.124521,0.0],[-43.149937,83.124659,0.0],[-43.164913,83.124716,0.0]]]}},{"type":"Feature","properties":{"rgi_id":"RGI2000-v7.0-G-05-19384","o1region":"05"},"geometry":{"type":"Polygon","coordinates":[[[-43.059217,83.13552,0.0],[-43.061891,83.135497,0.0],[-43.061417,83.134693,0.0],[-43.101776,83.134351,0.0],[-43.102255,83.135155,0.0],[-43.129163,83.134926,0.0],[-43.129645,83.13573,0.0],[-43.143099,83.135614,0.0],[-43.143583,83.136418,0.0],[-43.150311,83.13636,0.0],[-43.150582,83.136811,0.0],[-43.150119,83.136809,0.0],[-43.150082,83.136947,0.0],[-43.148928,83.136942,0.0],[-43.148853,83.137218,0.0],[-43.145391,83.137205,0.0],[-43.145353,83.137343,0.0],[-43.13035,83.137284,0.0],[-43.130312,83.137422,0.0],[-43.125695,83.137404,0.0],[-43.125658,83.137542,0.0],[-43.123349,83.137533,0.0],[-43.123274,83.137809,0.0],[-43.129045,83.137832,0.0],[-43.129007,83.13797,0.0],[-43.131315,83.137979,0.0],[-43.131278,83.138116,0.0],[-43.133586,83.138125,0.0],[-43.133549,83.138263,0.0],[-43.135857,83.138272,0.0],[-43.13582,83.13841,0.0],[-43.138128,83.138419,0.0],[-43.138091,83.138557,0.0],[-43.140399,83.138566,0.0],[-43.140362,83.138704,0.0],[-43.141516,83.138709,0.0],[-43.141479,83.138846,0.0],[-43.142633,83.138851,0.0],[-43.142596,83.138989,0.0],[-43.144905,83.138998,0.0],[-43.144867,83.139136,0.0],[-43.147176,83.139145,0.0],[-43.147139,83.139283,0.0],[-43.150602,83.139296,0.0],[-43.150565,83.139434,0.0],[-43.152168,83.13944,0.0],[-43.152251,83.139577,0.0],[-43.158982,83.139519,0.0],[-43.159468,83.140323,0.0],[-43.186393,83.14009,0.0],[-43.185904,83.139286,0.0],[-43.199365,83.139169,0.0],[-43.198874,83.138365,0.0],[-43.205603,83.138306,0.0],[-43.205112,83.137502,0.0],[-43.230864,83.137277,0.0],[-43.230763,83.137666,0.0],[-43.233072,83.137674,0.0],[-43.233036,83.137812,0.0],[-43.237653,83.137829,0.0],[-43.237618,83.137967,0.0],[-43.242235,83.137984,0.0],[-43.2422,83.138122,0.0],[-43.244508,83.13813,0.0],[-43.244473,83.138268,0.0],[-43.257171,83.138315,0.0],[-43.257136,83.138452,0.0],[-43.259823,83.138462,0.0],[-43.262308,83.142475,0.0],[-43.258427,83.142461,0.0],[-43.258462,83.142323,0.0],[-43.256152,83.142315,0.0],[-43.256187,83.142177,0.0],[-43.244637,83.142134,0.0],[-43.244672,83.141997,0.0],[-43.242362,83.141988,0.0],[-43.242398,83.14185,0.0],[-43.240088,83.141842,0.0],[-43.240123,83.141704,0.0],[-43.235503,83.141687,0.0],[-43.235539,83.141549,0.0],[-43.215906,83.141476,0.0],[-43.21587,83.141614,0.0],[-43.214715,83.14161,0.0],[-43.214679,83.141748,0.0],[-43.210059,83.141731,0.0],[-43.210023,83.141868,0.0],[-43.208868,83.141864,0.0],[-43.208832,83.142002,0.0],[-43.206522,83.141993,0.0],[-43.206486,83.142131,0.0],[-43.204176,83.142123,0.0],[-43.20414,83.142261,0.0],[-43.19028,83.142209,0.0],[-43.190316,83.142071,0.0],[-43.174147,83.142009,0.0],[-43.17411,83.142147,0.0],[-43.1718,83.142138,0.0],[-43.171727,83.142414,0.0],[-43.170572,83.14241,0.0],[-43.170535,83.142548,0.0],[-43.165915,83.14253,0.0],[-43.165878,83.142668,0.0],[-43.162412,83.142655,0.0],[-43.162375,83.142793,0.0],[-43.14967,83.142744,0.0],[-43.149707,83.142606,0.0],[-43.145087,83.142588,0.0],[-43.145124,83.14245,0.0],[-43.140504,83.142432,0.0],[-43.140542,83.142294,0.0],[-43.128992,83.14225,0.0],[-43.128955,83.142387,0.0],[-43.126645,83.142378,0.0],[-43.126607,83.142516,0.0],[-43.123142,83.142503,0.0],[-43.123104,83.142641,0.0],[-43.121949,83.142636,0.0],[-43.121911,83.142774,0.0],[-43.117291,83.142756,0.0],[-43.117215,83.143032,0.0],[-43.11606,83.143027,0.0],[-43.116022,83.143165,0.0],[-43.114867,83.143161,0.0],[-43.114829,83.143299,0.0],[-43.112519,83.14329,0.0],[-43.112481,83.143427,0.0],[-43.109015,83.143414,0.0],[-43.108939,83.14369,0.0],[-43.106628,83.143681,0.0],[-43.106552,83.143956,0.0],[-43.104242,83.143947,0.0],[-43.104203,83.144085,0.0],[-43.103048,83.144081,0.0],[-43.102972,83.144356,0.0],[-43.101816,83.144352,0.0],[-43.101778,83.14449,0.0],[-43.100623,83.144485,0.0],[-43.100584,83.144623,0.0],[-43.099429,83.144619,0.0],[-43.099122,83.145722,0.0],[-43.100278,83.145726,0.0],[-43.10024,83.145864,0.0],[-43.101395,83.145869,0.0],[-43.101357,83.146007,0.0],[-43.102512,83.146011,0.0],[-43.102474,83.146149,0.0],[-43.10363,83.146154,0.0],[-43.103553,83.14643,0.0],[-43.104709,83.146434,0.0],[-43.104632,83.14671,0.0],[-43.106944,83.146719,0.0],[-43.106791,83.147271,0.0],[-43.107947,83.147276,0.0],[-43.107641,83.148379,0.0],[-43.108797,83.148383,0.0],[-43.108721,83.148659,0.0],[-43.109877,83.148664,0.0],[-43.109839,83.148802,0.0],[-43.112151,83.148811,0.0],[-43.112075,83.149087,0.0],[-43.113231,83.149091,0.0],[-43.113193,83.149229,0.0],[-43.114349,83.149234,0.0],[-43.114311,83.149372,0.0],[-43.115467,83.149376,0.0],[-43.115429,83.149514,0.0],[-43.116585,83.149519,0.0],[-43.116319,83.150484,0.0],[-43.115162,83.15048,0.0],[-43.115086,83.150755,0.0],[-43.11393,83.150751,0.0],[-43.113854,83.151027,0.0],[-43.112697,83.151022,0.0],[-43.112659,83.15116,0.0],[-43.110346,83.151151,0.0],[-43.110308,83.151289,0.0],[-43.107995,83.15128,0.0],[-43.107957,83.151418,0.0],[-43.105644,83.151409,0.0],[-43.105606,83.151546,0.0],[-43.102136,83.151533,0.0],[-43.102098,83.151671,0.0],[-43.099785,83.151662,0.0],[-43.099747,83.151799,0.0],[-43.097433,83.15179,0.0],[-43.097357,83.152066,0.0],[-43.091574,83.152043,0.0],[-43.091535,83.152181,0.0],[-43.084595,83.152154,0.0],[-43.084557,83.152291,0.0],[-43.07993,83.152273,0.0],[-43.079892,83.152411,0.0],[-43.077578,83.152402,0.0],[-43.077539,83.15254,0.0],[-43.076383,83.152535,0.0],[-43.076344,83.152673,0.0],[-43.074031,83.152664,0.0],[-43.073992,83.152801,0.0],[-43.072835,83.152797,0.0],[-43.072796,83.152935,0.0],[-43.071639,83.15293,0.0],[-43.0716,83.153068,0.0],[-43.06813,83.153054,0.0],[-43.068091,83.153192,0.0],[-43.066934,83.153187,0.0],[-43.066895,83.153325,0.0],[-43.064582,83.153316,0.0],[-43.064504,83.153592,0.0],[-43.063347,83.153587,0.0],[-43.063112,83.154415,0.0],[-43.064269,83.154419,0.0],[-43.06423,83.154557,0.0],[-43.065387,83.154562,0.0],[-43.065348,83.1547,0.0],[-43.066505,83.154704,0.0],[-43.066466,83.154842,0.0],[-43.06878,83.154852,0.0],[-43.068741,83.15499,0.0],[-43.069898,83.154994,0.0],[-43.069859,83.155132,0.0],[-43.07333,83.155146,0.0],[-43.073291,83.155284,0.0],[-43.074448,83.155289,0.0],[-43.074371,83.155564,0.0],[-43.075528,83.155569,0.0],[-43.075489,83.155707,0.0],[-43.076646,83.155712,0.0],[-43.076568,83.155987,0.0],[-43.077726,83.155992,0.0],[-43.077609,83.156406,0.0],[-43.079924,83.156415,0.0],[-43.079885,83.156553,0.0],[-43.081042,83.156558,0.0],[-43.080965,83.156834,0.0],[-43.083279,83.156843,0.0],[-43.083241,83.156981,0.0],[-43.084398,83.156985,0.0],[-43.084359,83.157123,0.0],[-43.085517,83.157128,0.0],[-43.085401,83.157542,0.0],[-43.086558,83.157546,0.0],[-43.08652,83.157684,0.0],[-43.087677,83.157689,0.0],[-43.087639,83.157827,0.0],[-43.088796,83.157831,0.0],[-43.088719,83.158107,0.0],[-43.089876,83.158112,0.0],[-43.089838,83.15825,0.0],[-43.090995,83.158254,0.0],[-43.090957,83.158392,0.0],[-43.092115,83.158397,0.0],[-43.092037,83.158673,0.0],[-43.093195,83.158677,0.0],[-43.093118,83.158953,0.0],[-43.095434,83.158962,0.0],[-43.095395,83.1591,0.0],[-43.097711,83.159109,0.0],[-43.097672,83.159247,0.0],[-43.09883,83.159252,0.0],[-43.098792,83.15939,0.0],[-43.099949,83.159394,0.0],[-43.099834,83.159808,0.0],[-43.10215,83.159817,0.0],[-43.102112,83.159955,0.0],[-43.10327,83.15996,0.0],[-43.103154,83.160373,0.0],[-43.105471,83.160383,0.0],[-43.105432,83.16052,0.0],[-43.10659,83.160525,0.0],[-43.106437,83.161077,0.0],[-43.108753,83.161086,0.0],[-43.108715,83.161224,0.0],[-43.109873,83.161228,0.0],[-43.109797,83.161504,0.0],[-43.110955,83.161509,0.0],[-43.110802,83.16206,0.0],[-43.11196,83.162065,0.0],[-43.111884,83.162341,0.0],[-43.113042,83.162345,0.0],[-43.112508,83.164276,0.0],[-43.114825,83.164285,0.0],[-43.114711,83.164699,0.0],[-43.11587,83.164704,0.0],[-43.115793,83.164979,0.0],[-43.116952,83.164984,0.0],[-43.1168,83.165536,0.0],[-43.117959,83.16554,0.0],[-43.117768,83.16623,0.0],[-43.118927,83.166234,0.0],[-43.118737,83.166924,0.0],[-43.119896,83.166928,0.0],[-43.119668,83.167756,0.0],[-43.121986,83.167765,0.0],[-43.121226,83.170524,0.0],[-43.122386,83.170528,0.0],[-43.122233,83.17108,0.0],[-43.121074,83.171075,0.0],[-43.120998,83.171351,0.0],[-43.119838,83.171347,0.0],[-43.119761,83.171622,0.0],[-43.118602,83.171618,0.0],[-43.118487,83.172032,0.0],[-43.117327,83.172027,0.0],[-43.117251,83.172303,0.0],[-43.116091,83.172298,0.0],[-43.115976,83.172712,0.0],[-43.114816,83.172708,0.0],[-43.114702,83.173121,0.0],[-43.113542,83.173117,0.0],[-43.113389,83.173669,0.0],[-43.112228,83.173664,0.0],[-43.112152,83.17394,0.0],[-43.110992,83.173935,0.0],[-43.110915,83.174211,0.0],[-43.109755,83.174207,0.0],[-43.109678,83.174482,0.0],[-43.107357,83.174473,0.0],[-43.107319,83.174611,0.0],[-43.106159,83.174607,0.0],[-43.10612,83.174745,0.0],[-43.10496,83.17474,0.0],[-43.104883,83.175016,0.0],[-43.103723,83.175011,0.0],[-43.103684,83.175149,0.0],[-43.102524,83.175145,0.0],[-43.102447,83.175421,0.0],[-43.101286,83.175416,0.0],[-43.101248,83.175554,0.0],[-43.100087,83.175549,0.0],[-43.100049,83.175687,0.0],[-43.094246,83.175664,0.0],[-43.094207,83.175802,0.0],[-43.089564,83.175784,0.0],[-43.089526,83.175922,0.0],[-43.086044,83.175908,0.0],[-43.086005,83.176046,0.0],[-43.068595,83.175976,0.0],[-43.068634,83.175839,0.0],[-43.066313,83.175829,0.0],[-43.066431,83.175415,0.0],[-43.06411,83.175406,0.0],[-43.064149,83.175268,0.0],[-43.062988,83.175264,0.0],[-43.063106,83.17485,0.0],[-43.061946,83.174845,0.0],[-43.062024,83.174569,0.0],[-43.060864,83.174565,0.0],[-43.060942,83.174289,0.0],[-43.058622,83.174279,0.0],[-43.05874,83.173866,0.0],[-43.057579,83.173861,0.0],[-43.057737,83.173309,0.0],[-43.055417,83.1733,0.0],[-43.055456,83.173162,0.0],[-43.054296,83.173157,0.0],[-43.054335,83.173019,0.0],[-43.055495,83.173024,0.0],[-43.055535,83.172886,0.0],[-43.056695,83.172891,0.0],[-43.05701,83.171788,0.0],[-43.05817,83.171792,0.0],[-43.058366,83.171103,0.0],[-43.060686,83.171112,0.0],[-43.060764,83.170836,0.0],[-43.061924,83.170841,0.0],[-43.062042,83.170427,0.0],[-43.063201,83.170432,0.0],[-43.063358,83.16988,0.0],[-43.064518,83.169885,0.0],[-43.064635,83.169471,0.0],[-43.065795,83.169476,0.0],[-43.065952,83.168924,0.0],[-43.067111,83.168929,0.0],[-43.06758,83.167274,0.0],[-43.065262,83.167264,0.0],[-43.06538,83.166851,0.0],[-43.064221,83.166846,0.0],[-43.06426,83.166708,0.0],[-43.063101,83.166703,0.0],[-43.06314,83.166565,0.0],[-43.059663,83.166551,0.0],[-43.059702,83.166413,0.0],[-43.058543,83.166409,0.0],[-43.058622,83.166133,0.0],[-43.056304,83.166124,0.0],[-43.056343,83.165986,0.0],[-43.055184,83.165981,0.0],[-43.055263,83.165705,0.0],[-43.054104,83.1657,0.0],[-43.054222,83.165287,0.0],[-43.053063,83.165282,0.0],[-43.053142,83.165006,0.0],[-43.051983,83.165001,0.0],[-43.052141,83.16445,0.0],[-43.050982,83.164445,0.0],[-43.051416,83.162928,0.0],[-43.050258,83.162923,0.0],[-43.050415,83.162372,0.0],[-43.049257,83.162367,0.0],[-43.049336,83.162091,0.0],[-43.048178,83.162086,0.0],[-43.048296,83.161673,0.0],[-43.047138,83.161668,0.0],[-43.047256,83.161254,0.0],[-43.046098,83.16125,0.0],[-43.046177,83.160974,0.0],[-43.045019,83.160969,0.0],[-43.045059,83.160831,0.0],[-43.043901,83.160826,0.0],[-43.04394,83.160688,0.0],[-43.042782,83.160684,0.0],[-43.042901,83.16027,0.0],[-43.040585,83.160261,0.0],[-43.040625,83.160123,0.0],[-43.039467,83.160118,0.0],[-43.039586,83.159704,0.0],[-43.038428,83.159699,0.0],[-43.038547,83.159286,0.0],[-43.037389,83.159281,0.0],[-43.037429,83.159143,0.0],[-43.035113,83.159134,0.0],[-43.035192,83.158858,0.0],[-43.034035,83.158853,0.0],[-43.034233,83.158163,0.0],[-43.033076,83.158159,0.0],[-43.033155,83.157883,0.0],[-43.031998,83.157878,0.0],[-43.032077,83.157602,0.0],[-43.03092,83.157598,0.0],[-43.031039,83.157184,0.0],[-43.028724,83.157174,0.0],[-43.028804,83.156899,0.0],[-43.027647,83.156894,0.0],[-43.027766,83.15648,0.0],[-43.026609,83.156475,0.0],[-43.026769,83.155924,0.0],[-43.024454,83.155914,0.0],[-43.025132,83.15357,0.0],[-43.026289,83.153574,0.0],[-43.026528,83.152747,0.0],[-43.028842,83.152756,0.0],[-43.028961,83.152343,0.0],[-43.030118,83.152347,0.0],[-43.030555,83.15083,0.0],[-43.031712,83.150835,0.0],[-43.031831,83.150421,0.0],[-43.032987,83.150426,0.0],[-43.033146,83.149874,0.0],[-43.034302,83.149879,0.0],[-43.034381,83.149603,0.0],[-43.035538,83.149608,0.0],[-43.035617,83.149332,0.0],[-43.037929,83.149342,0.0],[-43.037969,83.149204,0.0],[-43.039125,83.149209,0.0],[-43.039204,83.148933,0.0],[-43.041516,83.148942,0.0],[-43.041555,83.148804,0.0],[-43.042711,83.148809,0.0],[-43.04283,83.148395,0.0],[-43.043986,83.1484,0.0],[-43.044025,83.148262,0.0],[-43.045181,83.148267,0.0],[-43.04526,83.147991,0.0],[-43.046416,83.147996,0.0],[-43.046495,83.14772,0.0],[-43.047651,83.147724,0.0],[-43.04769,83.147587,0.0],[-43.048846,83.147591,0.0],[-43.048925,83.147315,0.0],[-43.05008,83.14732,0.0],[-43.050159,83.147044,0.0],[-43.051315,83.147049,0.0],[-43.051354,83.146911,0.0],[-43.05251,83.146916,0.0],[-43.052628,83.146502,0.0],[-43.053783,83.146507,0.0],[-43.053862,83.146231,0.0],[-43.052706,83.146226,0.0],[-43.052824,83.145812,0.0],[-43.051669,83.145808,0.0],[-43.051787,83.145394,0.0],[-43.050631,83.145389,0.0],[-43.050749,83.144976,0.0],[-43.049594,83.144971,0.0],[-43.049633,83.144833,0.0],[-43.048478,83.144828,0.0],[-43.048517,83.14469,0.0],[-43.047362,83.144686,0.0],[-43.047401,83.144548,0.0],[-43.043935,83.144534,0.0],[-43.044014,83.144258,0.0],[-43.041704,83.144248,0.0],[-43.041743,83.14411,0.0],[-43.039433,83.144101,0.0],[-43.039472,83.143963,0.0],[-43.034852,83.143944,0.0],[-43.034931,83.143668,0.0],[-43.033776,83.143664,0.0],[-43.033816,83.143526,0.0],[-43.03035,83.143511,0.0],[-43.03039,83.143374,0.0],[-43.026925,83.143359,0.0],[-43.026965,83.143221,0.0],[-43.025809,83.143217,0.0],[-43.025849,83.143079,0.0],[-43.028159,83.143088,0.0],[-43.028199,83.14295,0.0],[-43.029354,83.142955,0.0],[-43.029434,83.142679,0.0],[-43.030589,83.142684,0.0],[-43.030628,83.142546,0.0],[-43.031783,83.142551,0.0],[-43.031823,83.142413,0.0],[-43.032978,83.142418,0.0],[-43.033017,83.14228,0.0],[-43.034172,83.142284,0.0],[-43.034331,83.141733,0.0],[-43.035486,83.141738,0.0],[-43.035525,83.1416,0.0],[-43.03668,83.141604,0.0],[-43.03672,83.141466,0.0],[-43.037874,83.141471,0.0],[-43.037914,83.141333,0.0],[-43.039069,83.141338,0.0],[-43.039108,83.1412,0.0],[-43.040263,83.141205,0.0],[-43.040342,83.140929,0.0],[-43.041497,83.140934,0.0],[-43.041576,83.140658,0.0],[-43.04273,83.140663,0.0],[-43.04277,83.140525,0.0],[-43.043924,83.140529,0.0],[-43.044003,83.140254,0.0],[-43.045158,83.140258,0.0],[-43.045237,83.139982,0.0],[-43.046391,83.139987,0.0],[-43.04647,83.139711,0.0],[-43.048779,83.139721,0.0],[-43.048857,83.139445,0.0],[-43.050012,83.13945,0.0],[-43.050051,83.139312,0.0],[-43.051206,83.139316,0.0],[-43.051245,83.139178,0.0],[-43.053554,83.139188,0.0],[-43.053632,83.138912,0.0],[-43.054786,83.138917,0.0],[-43.054826,83.138779,0.0],[-43.059443,83.138798,0.0],[-43.059482,83.13866,0.0],[-43.060636,83.138664,0.0],[-43.060715,83.138388,0.0],[-43.061869,83.138393,0.0],[-43.061908,83.138255,0.0],[-43.063062,83.13826,0.0],[-43.063101,83.138122,0.0],[-43.064255,83.138127,0.0],[-43.064333,83.137851,0.0],[-43.065488,83.137855,0.0],[-43.065565,83.13758,0.0],[-43.06672,83.137584,0.0],[-43.067031,83.136481,0.0],[-43.065877,83.136476,0.0],[-43.065955,83.1362,0.0],[-43.064801,83.136196,0.0],[-43.06484,83.136058,0.0],[-43.063686,83.136053,0.0],[-43.063725,83.135915,0.0],[-43.062572,83.135911,0.0],[-43.062611,83.135773,0.0],[-43.061457,83.135768,0.0],[-43.061496,83.13563,0.0],[-43.059188,83.135621,0.0],[-43.059217,83.13552,0.0]]]}},{"type":"Feature","properties":{"rgi_id":"RGI2000-v7.0-G-05-19385","o1region":"05"},"geometry":{"type":"Polygon","coordinates":[[[-41.985401,83.20296,0.0],[-41.987439,83.202778,0.0],[-41.988952,83.202385,0.0],[-41.98927,83.202131,0.0],[-41.989935,83.201794,0.0],[-41.991502,83.20128,0.0],[-41.994732,83.200958,0.0],[-41.995969,83.200722,0.0],[-41.997914,83.200515,0.0],[-41.998875,83.200204,0.0],[-41.99921,83.199914,0.0],[-41.999593,83.199745,0.0],[-42.000684,83.199838,0.0],[-42.001684,83.199905,0.0],[-42.003488,83.200013,0.0],[-42.004974,83.200144,0.0],[-42.003986,83.200285,0.0],[-42.002792,83.200423,0.0],[-42.001756,83.200673,0.0],[-42.00202,83.200772,0.0],[-42.003852,83.20082,0.0],[-42.004991,83.200571,0.0],[-42.005888,83.200406,0.0],[-42.007395,83.200257,0.0],[-42.008584,83.200362,0.0],[-42.00934,83.200281,0.0],[-42.010862,83.200096,0.0],[-42.014951,83.199926,0.0],[-42.018744,83.199961,0.0],[-42.017788,83.200029,0.0],[-42.015234,83.200452,0.0],[-42.013771,83.200735,0.0],[-42.013038,83.200999,0.0],[-42.012628,83.201228,0.0],[-42.013682,83.201405,0.0],[-42.015314,83.201439,0.0],[-42.018771,83.201302,0.0],[-42.021429,83.201111,0.0],[-42.024506,83.200667,0.0],[-42.027908,83.20042,0.0],[-42.030527,83.201021,0.0],[-42.031642,83.201296,0.0],[-42.033913,83.201517,0.0],[-42.037373,83.201843,0.0],[-42.038007,83.202042,0.0],[-42.038166,83.202384,0.0],[-42.039471,83.202697,0.0],[-42.040721,83.2029,0.0],[-42.041387,83.203026,0.0],[-42.043751,83.203272,0.0],[-42.043692,83.203405,0.0],[-42.039963,83.203456,0.0],[-42.038077,83.203529,0.0],[-42.03624,83.203494,0.0],[-42.033585,83.203441,0.0],[-42.027466,83.203306,0.0],[-42.021515,83.203257,0.0],[-42.019596,83.203172,0.0],[-42.014564,83.203141,0.0],[-42.009733,83.203123,0.0],[-42.005047,83.203241,0.0],[-41.998578,83.203432,0.0],[-41.99727,83.203595,0.0],[-41.994033,83.203928,0.0],[-41.992168,83.204184,0.0],[-41.99052,83.204418,0.0],[-41.987655,83.204607,0.0],[-41.984449,83.204636,0.0],[-41.981644,83.204692,0.0],[-41.979162,83.204713,0.0],[-41.977232,83.204652,0.0],[-41.976065,83.204498,0.0],[-41.975357,83.204238,0.0],[-41.97679,83.204028,0.0],[-41.979926,83.203694,0.0],[-41.981563,83.203485,0.0],[-41.983958,83.203195,0.0],[-41.985401,83.20296,0.0]]]}}]}
