{"type":"FeatureCollection","features":[{"type":"Feature","properties":{"rgi_id":"RGI2000-v7.0-G-10-07090","o1region":"10"},"geometry":{"type":"Polygon","coordinates":[[[161.874085,61.658292,0.0],[161.87406,61.658023,0.0],[161.874626,61.658012,0.0],[161.874551,61.657205,0.0],[161.873985,61.657216,0.0],[161.873885,61.656141,0.0],[161.87332,61.656152,0.0],[161.873295,61.655884,0.0],[161.872729,61.655895,0.0],[161.872704,61.655626,0.0],[161.871573,61.65565,0.0],[161.871598,61.655919,0.0],[161.871032,61.655931,0.0],[161.871057,61.6562,0.0],[161.869926,61.656224,0.0],[161.869976,61.656762,0.0],[161.870541,61.65675,0.0],[161.870566,61.657019,0.0],[161.871132,61.657007,0.0],[161.871182,61.657545,0.0],[161.871748,61.657533,0.0],[161.871773,61.657802,0.0],[161.872904,61.657778,0.0],[161.872929,61.658047,0.0],[161.873495,61.658035,0.0],[161.87352,61.658304,0.0],[161.874085,61.658292,0.0]]]}},{"type":"Feature","properties":{"rgi_id":"RGI2000-v7.0-G-10-07091","o1region":"10"},"geometry":{"type":"Polygon","coordinates":[[[161.885311,61.663177,0.0],[161.885286,61.662908,0.0],[161.885852,61.662896,0.0],[161.885826,61.662627,0.0],[161.885261,61.662639,0.0],[161.88521,61.662101,0.0],[161.884645,61.662113,0.0],[161.884594,61.661575,0.0],[161.884029,61.661587,0.0],[161.884004,61.661318,0.0],[161.882872,61.661341,0.0],[161.882947,61.662148,0.0],[161.882381,61.66216,0.0],[161.882407,61.662429,0.0],[161.881841,61.662441,0.0],[161.881866,61.66271,0.0],[161.8813,61.662722,0.0],[161.881325,61.662991,0.0],[161.881891,61.662979,0.0],[161.881916,61.663248,0.0],[161.882482,61.663236,0.0],[161.882507,61.663505,0.0],[161.883638,61.663481,0.0],[161.883613,61.663212,0.0],[161.885311,61.663177,0.0]]]}},{"type":"Feature","properties":{"rgi_id":"RGI2000-v7.0-G-10-07092","o1region":"10"},"geometry":{"type":"Polygon","coordinates":[[[161.765093,61.821149,0.0],[161.765069,61.82088,0.0],[161.765637,61.820869,0.0],[161.765613,61.8206,0.0],[161.766182,61.820588,0.0],[161.766109,61.819781,0.0],[161.76554,61.819793,0.0],[161.765468,61.818986,0.0],[161.764899,61.818997,0.0],[161.764875,61.818728,0.0],[161.763737,61.818751,0.0],[161.763713,61.818482,0.0],[161.760301,61.818551,0.0],[161.760325,61.81882,0.0],[161.759756,61.818831,0.0],[161.75978,61.8191,0.0],[161.758643,61.819123,0.0],[161.758667,61.819392,0.0],[161.758098,61.819403,0.0],[161.758123,61.819672,0.0],[161.757554,61.819684,0.0],[161.757602,61.820222,0.0],[161.757033,61.820233,0.0],[161.757082,61.820771,0.0],[161.75765,61.82076,0.0],[161.757675,61.821029,0.0],[161.758243,61.821017,0.0],[161.758292,61.821555,0.0],[161.75886,61.821544,0.0],[161.758957,61.82262,0.0],[161.760095,61.822597,0.0],[161.760046,61.822059,0.0],[161.760615,61.822048,0.0],[161.760591,61.821779,0.0],[161.76116,61.821767,0.0],[161.761039,61.820422,0.0],[161.761608,61.820411,0.0],[161.761583,61.820142,0.0],[161.762152,61.82013,0.0],[161.7622,61.820668,0.0],[161.762769,61.820657,0.0],[161.762793,61.820926,0.0],[161.7645,61.820892,0.0],[161.764524,61.821161,0.0],[161.765093,61.821149,0.0]],[[161.762697,61.81985,0.0],[161.762648,61.819312,0.0],[161.763217,61.819301,0.0],[161.763265,61.819839,0.0],[161.762697,61.81985,0.0]]]}},{"type":"Feature","properties":{"rgi_id":"RGI2000-v7.0-G-10-07093","o1region":"10"},"geometry":{"type":"Polygon","coordinates":[[[161.724423,61.818728,0.0],[161.724375,61.81819,0.0],[161.724944,61.818179,0.0],[161.72492,61.81791,0.0],[161.725488,61.817899,0.0],[161.725441,61.817361,0.0],[161.724872,61.817372,0.0],[161.7248,61.816565,0.0],[161.724232,61.816576,0.0],[161.724136,61.8155,0.0],[161.723568,61.815512,0.0],[161.723544,61.815243,0.0],[161.722975,61.815254,0.0],[161.722999,61.815523,0.0],[161.72243,61.815534,0.0],[161.722454,61.815803,0.0],[161.721885,61.815814,0.0],[161.721909,61.816083,0.0],[161.720772,61.816106,0.0],[161.720653,61.814761,0.0],[161.719515,61.814783,0.0],[161.719539,61.815052,0.0],[161.718971,61.815064,0.0],[161.719066,61.81614,0.0],[161.717928,61.816162,0.0],[161.717976,61.8167,0.0],[161.717407,61.816712,0.0],[161.717431,61.816981,0.0],[161.716862,61.816992,0.0],[161.71691,61.81753,0.0],[161.717479,61.817519,0.0],[161.717502,61.817788,0.0],[161.718071,61.817776,0.0],[161.718095,61.818045,0.0],[161.718664,61.818034,0.0],[161.718688,61.818303,0.0],[161.719256,61.818292,0.0],[161.71928,61.818561,0.0],[161.720986,61.818527,0.0],[161.72101,61.818796,0.0],[161.721579,61.818785,0.0],[161.721603,61.819054,0.0],[161.725015,61.818986,0.0],[161.724991,61.818717,0.0],[161.724423,61.818728,0.0]]]}},{"type":"Feature","properties":{"rgi_id":"RGI2000-v7.0-G-10-07094","o1region":"10"},"geometry":{"type":"Polygon","coordinates":[[[161.725143,61.833266,0.0],[161.725119,61.832997,0.0],[161.725688,61.832985,0.0],[161.725616,61.832178,0.0],[161.725047,61.83219,0.0],[161.725023,61.831921,0.0],[161.724454,61.831932,0.0],[161.724478,61.832201,0.0],[161.72334,61.832223,0.0],[161.723316,61.831954,0.0],[161.72104,61.832,0.0],[161.721016,61.831731,0.0],[161.720447,61.831742,0.0],[161.7204,61.831204,0.0],[161.718693,61.831238,0.0],[161.718717,61.831507,0.0],[161.716441,61.831552,0.0],[161.716417,61.831283,0.0],[161.715848,61.831294,0.0],[161.715824,61.831025,0.0],[161.715255,61.831036,0.0],[161.715231,61.830767,0.0],[161.714093,61.83079,0.0],[161.71407,61.830521,0.0],[161.712932,61.830543,0.0],[161.712908,61.830274,0.0],[161.711201,61.830308,0.0],[161.711177,61.830039,0.0],[161.70947,61.830072,0.0],[161.709447,61.829803,0.0],[161.708878,61.829815,0.0],[161.70883,61.829277,0.0],[161.708261,61.829288,0.0],[161.708309,61.829826,0.0],[161.70774,61.829837,0.0],[161.707764,61.830106,0.0],[161.707195,61.830117,0.0],[161.707266,61.830924,0.0],[161.706697,61.830936,0.0],[161.70672,61.831205,0.0],[161.703876,61.831261,0.0],[161.703852,61.830992,0.0],[161.703283,61.831003,0.0],[161.703235,61.830465,0.0],[161.702667,61.830476,0.0],[161.702572,61.8294,0.0],[161.702003,61.829411,0.0],[161.701956,61.828873,0.0],[161.701387,61.828884,0.0],[161.701339,61.828346,0.0],[161.70077,61.828357,0.0],[161.700747,61.828088,0.0],[161.698471,61.828133,0.0],[161.698495,61.828402,0.0],[161.696788,61.828436,0.0],[161.696811,61.828705,0.0],[161.696242,61.828716,0.0],[161.696266,61.828985,0.0],[161.696835,61.828974,0.0],[161.696859,61.829243,0.0],[161.697428,61.829232,0.0],[161.697451,61.829501,0.0],[161.699158,61.829467,0.0],[161.699182,61.829736,0.0],[161.699751,61.829725,0.0],[161.699845,61.830801,0.0],[161.699276,61.830812,0.0],[161.6993,61.831081,0.0],[161.698731,61.831092,0.0],[161.698778,61.83163,0.0],[161.698209,61.831641,0.0],[161.698257,61.832179,0.0],[161.697688,61.832191,0.0],[161.697711,61.83246,0.0],[161.69828,61.832448,0.0],[161.698304,61.832717,0.0],[161.698873,61.832706,0.0],[161.698849,61.832437,0.0],[161.699987,61.832415,0.0],[161.700011,61.832684,0.0],[161.701718,61.83265,0.0],[161.701742,61.832919,0.0],[161.70288,61.832897,0.0],[161.702856,61.832628,0.0],[161.703425,61.832617,0.0],[161.703401,61.832348,0.0],[161.70397,61.832337,0.0],[161.703947,61.832068,0.0],[161.704516,61.832056,0.0],[161.704492,61.831787,0.0],[161.706199,61.831754,0.0],[161.706175,61.831485,0.0],[161.707882,61.831451,0.0],[161.707906,61.83172,0.0],[161.709044,61.831698,0.0],[161.709068,61.831967,0.0],[161.709637,61.831955,0.0],[161.70966,61.832224,0.0],[161.711936,61.83218,0.0],[161.71196,61.832449,0.0],[161.713667,61.832415,0.0],[161.713691,61.832684,0.0],[161.714829,61.832661,0.0],[161.714853,61.83293,0.0],[161.715422,61.832919,0.0],[161.715445,61.833188,0.0],[161.718291,61.833132,0.0],[161.718314,61.833401,0.0],[161.718883,61.83339,0.0],[161.718907,61.833659,0.0],[161.720045,61.833636,0.0],[161.720021,61.833367,0.0],[161.722297,61.833322,0.0],[161.722274,61.833053,0.0],[161.723981,61.833019,0.0],[161.724004,61.833288,0.0],[161.725143,61.833266,0.0]],[[161.701623,61.831574,0.0],[161.700485,61.831597,0.0],[161.700414,61.83079,0.0],[161.700983,61.830779,0.0],[161.70096,61.83051,0.0],[161.701529,61.830498,0.0],[161.701552,61.830767,0.0],[161.702121,61.830756,0.0],[161.702169,61.831294,0.0],[161.7016,61.831305,0.0],[161.701623,61.831574,0.0]]]}},{"type":"Feature","properties":{"rgi_id":"RGI2000-v7.0-G-10-07095","o1region":"10"},"geometry":{"type":"Polygon","coordinates":[[[161.914608,61.841503,0.0],[161.914557,61.840966,0.0],[161.915126,61.840953,0.0],[161.9151,61.840684,0.0],[161.915669,61.840672,0.0],[161.915644,61.840403,0.0],[161.916213,61.840391,0.0],[161.916162,61.839853,0.0],[161.916731,61.839841,0.0],[161.916705,61.839572,0.0],[161.917274,61.83956,0.0],[161.917223,61.839022,0.0],[161.916654,61.839035,0.0],[161.916628,61.838766,0.0],[161.916059,61.838778,0.0],[161.916034,61.838509,0.0],[161.915465,61.838521,0.0],[161.915439,61.838252,0.0],[161.91487,61.838264,0.0],[161.914849,61.838036,0.0],[161.914845,61.837995,0.0],[161.914708,61.837998,0.0],[161.913389,61.838026,0.0],[161.913138,61.838031,0.0],[161.913145,61.838109,0.0],[161.913189,61.838569,0.0],[161.91262,61.838581,0.0],[161.912645,61.83885,0.0],[161.912076,61.838862,0.0],[161.912097,61.839083,0.0],[161.912102,61.839131,0.0],[161.910395,61.839167,0.0],[161.91042,61.839436,0.0],[161.909851,61.839448,0.0],[161.909877,61.839717,0.0],[161.909308,61.839729,0.0],[161.909333,61.839998,0.0],[161.908764,61.84001,0.0],[161.90941,61.840805,0.0],[161.909979,61.840793,0.0],[161.909953,61.840524,0.0],[161.91166,61.840488,0.0],[161.911686,61.840757,0.0],[161.912335,61.840743,0.0],[161.912824,61.840733,0.0],[161.912849,61.841002,0.0],[161.913419,61.84099,0.0],[161.91347,61.841528,0.0],[161.914608,61.841503,0.0]]]}},{"type":"Feature","properties":{"rgi_id":"RGI2000-v7.0-G-10-07096","o1region":"10"},"geometry":{"type":"Polygon","coordinates":[[[161.931654,61.840871,0.0],[161.928809,61.840932,0.0],[161.928783,61.840663,0.0],[161.926507,61.840711,0.0],[161.926533,61.84098,0.0],[161.925394,61.841005,0.0],[161.92542,61.841274,0.0],[161.924851,61.841286,0.0],[161.924877,61.841555,0.0],[161.924308,61.841567,0.0],[161.924333,61.841836,0.0],[161.924902,61.841824,0.0],[161.924928,61.842093,0.0],[161.926066,61.842068,0.0],[161.92604,61.841799,0.0],[161.927179,61.841775,0.0],[161.927204,61.842044,0.0],[161.928342,61.84202,0.0],[161.928317,61.841751,0.0],[161.928886,61.841739,0.0],[161.92886,61.84147,0.0],[161.932274,61.841397,0.0],[161.932249,61.841128,0.0],[161.93168,61.84114,0.0],[161.931654,61.840871,0.0]]]}},{"type":"Feature","properties":{"rgi_id":"RGI2000-v7.0-G-10-07097","o1region":"10"},"geometry":{"type":"Polygon","coordinates":[[[161.932789,61.846776,0.0],[161.932763,61.846507,0.0],[161.933332,61.846495,0.0],[161.933306,61.846226,0.0],[161.933875,61.846214,0.0],[161.93385,61.845945,0.0],[161.934419,61.845933,0.0],[161.934393,61.845664,0.0],[161.934962,61.845652,0.0],[161.934859,61.844576,0.0],[161.935428,61.844564,0.0],[161.935403,61.844295,0.0],[161.935972,61.844283,0.0],[161.93592,61.843745,0.0],[161.936489,61.843732,0.0],[161.936464,61.843463,0.0],[161.937602,61.843439,0.0],[161.93755,61.842901,0.0],[161.935274,61.84295,0.0],[161.9353,61.843219,0.0],[161.934731,61.843231,0.0],[161.934808,61.844038,0.0],[161.934239,61.84405,0.0],[161.93429,61.844588,0.0],[161.933721,61.8446,0.0],[161.933747,61.844869,0.0],[161.93147,61.844918,0.0],[161.931496,61.845187,0.0],[161.930927,61.845199,0.0],[161.930978,61.845737,0.0],[161.930409,61.845749,0.0],[161.930486,61.846556,0.0],[161.931055,61.846543,0.0],[161.93103,61.846275,0.0],[161.931599,61.846262,0.0],[161.931573,61.845993,0.0],[161.932142,61.845981,0.0],[161.932219,61.846788,0.0],[161.932789,61.846776,0.0]]]}},{"type":"Feature","properties":{"rgi_id":"RGI2000-v7.0-G-10-07100","o1region":"10"},"geometry":{"type":"Polygon","coordinates":[[[161.478535,61.680228,0.0],[161.478498,61.679771,0.0],[161.47889,61.679764,0.0],[161.479065,61.679761,0.0],[161.479044,61.679506,0.0],[161.479021,61.679223,0.0],[161.478455,61.679233,0.0],[161.478434,61.678964,0.0],[161.477867,61.678975,0.0],[161.477803,61.678167,0.0],[161.477236,61.678178,0.0],[161.477193,61.67764,0.0],[161.476627,61.67765,0.0],[161.476606,61.677384,0.0],[161.476605,61.677381,0.0],[161.476596,61.677381,0.0],[161.476039,61.677391,0.0],[161.476027,61.67724,0.0],[161.476018,61.677122,0.0],[161.473186,61.677173,0.0],[161.473189,61.677211,0.0],[161.473208,61.677442,0.0],[161.472075,61.677463,0.0],[161.472097,61.677732,0.0],[161.471531,61.677742,0.0],[161.471552,61.678011,0.0],[161.470986,61.678021,0.0],[161.47105,61.678828,0.0],[161.470484,61.678839,0.0],[161.470549,61.679646,0.0],[161.471115,61.679636,0.0],[161.471158,61.680174,0.0],[161.471724,61.680163,0.0],[161.471746,61.680432,0.0],[161.472312,61.680422,0.0],[161.472334,61.680691,0.0],[161.473466,61.680671,0.0],[161.473488,61.68094,0.0],[161.474054,61.68093,0.0],[161.474076,61.681199,0.0],[161.475208,61.681178,0.0],[161.475165,61.68064,0.0],[161.474599,61.68065,0.0],[161.474577,61.680381,0.0],[161.474011,61.680392,0.0],[161.473989,61.680122,0.0],[161.473423,61.680133,0.0],[161.473402,61.679864,0.0],[161.472835,61.679874,0.0],[161.472814,61.679605,0.0],[161.47338,61.679595,0.0],[161.473359,61.679326,0.0],[161.473925,61.679315,0.0],[161.473903,61.679046,0.0],[161.475036,61.679026,0.0],[161.475057,61.679295,0.0],[161.476756,61.679264,0.0],[161.476778,61.679533,0.0],[161.477344,61.679523,0.0],[161.477452,61.680868,0.0],[161.478317,61.680853,0.0],[161.478585,61.680848,0.0],[161.478535,61.680228,0.0]]]}},{"type":"Feature","properties":{"rgi_id":"RGI2000-v7.0-G-10-07101","o1region":"10"},"geometry":{"type":"Polygon","coordinates":[[[161.450953,61.675687,0.0],[161.450931,61.675418,0.0],[161.451498,61.675408,0.0],[161.451434,61.6746,0.0],[161.452,61.67459,0.0],[161.451979,61.674321,0.0],[161.452545,61.674311,0.0],[161.452417,61.672697,0.0],[161.452983,61.672687,0.0],[161.452855,61.671072,0.0],[161.451156,61.671103,0.0],[161.451135,61.670834,0.0],[161.450003,61.670854,0.0],[161.449917,61.669778,0.0],[161.449351,61.669788,0.0],[161.44933,61.669519,0.0],[161.448764,61.669529,0.0],[161.448743,61.66926,0.0],[161.44761,61.66928,0.0],[161.447695,61.670356,0.0],[161.447129,61.670366,0.0],[161.447151,61.670635,0.0],[161.446585,61.670646,0.0],[161.446606,61.670915,0.0],[161.444907,61.670945,0.0],[161.444929,61.671214,0.0],[161.444362,61.671224,0.0],[161.444405,61.671762,0.0],[161.444971,61.671752,0.0],[161.445056,61.672828,0.0],[161.445623,61.672818,0.0],[161.445665,61.673356,0.0],[161.446231,61.673346,0.0],[161.446253,61.673615,0.0],[161.446819,61.673605,0.0],[161.446797,61.673336,0.0],[161.447364,61.673326,0.0],[161.447342,61.673057,0.0],[161.448475,61.673037,0.0],[161.448496,61.673306,0.0],[161.449062,61.673296,0.0],[161.449084,61.673565,0.0],[161.44965,61.673555,0.0],[161.449671,61.673824,0.0],[161.450237,61.673814,0.0],[161.450259,61.674083,0.0],[161.450825,61.674072,0.0],[161.450889,61.67488,0.0],[161.450323,61.67489,0.0],[161.450344,61.675159,0.0],[161.449211,61.675179,0.0],[161.44919,61.67491,0.0],[161.448624,61.67492,0.0],[161.44856,61.674113,0.0],[161.447994,61.674123,0.0],[161.447972,61.673854,0.0],[161.447406,61.673864,0.0],[161.447534,61.675479,0.0],[161.446968,61.675489,0.0],[161.446989,61.675758,0.0],[161.446423,61.675768,0.0],[161.446466,61.676306,0.0],[161.447032,61.676296,0.0],[161.44701,61.676027,0.0],[161.447577,61.676017,0.0],[161.447555,61.675748,0.0],[161.450953,61.675687,0.0]]]}},{"type":"Feature","properties":{"rgi_id":"RGI2000-v7.0-G-10-07102","o1region":"10"},"geometry":{"type":"Polygon","coordinates":[[[161.415889,61.684124,0.0],[161.415847,61.683586,0.0],[161.416413,61.683576,0.0],[161.416266,61.681692,0.0],[161.416833,61.681682,0.0],[161.416812,61.681413,0.0],[161.416245,61.681423,0.0],[161.416203,61.680885,0.0],[161.417336,61.680865,0.0],[161.41742,61.681941,0.0],[161.418553,61.681921,0.0],[161.418595,61.68246,0.0],[161.419728,61.682439,0.0],[161.419706,61.68217,0.0],[161.420273,61.68216,0.0],[161.420231,61.681622,0.0],[161.420797,61.681612,0.0],[161.420755,61.681074,0.0],[161.421321,61.681064,0.0],[161.4213,61.680795,0.0],[161.422433,61.680775,0.0],[161.422475,61.681313,0.0],[161.423041,61.681303,0.0],[161.423062,61.681572,0.0],[161.424195,61.681552,0.0],[161.424069,61.679938,0.0],[161.423502,61.679948,0.0],[161.42346,61.67941,0.0],[161.422894,61.67942,0.0],[161.422851,61.678881,0.0],[161.422285,61.678892,0.0],[161.422264,61.678622,0.0],[161.421698,61.678632,0.0],[161.421662,61.67817,0.0],[161.421656,61.678094,0.0],[161.421206,61.678102,0.0],[161.41939,61.678134,0.0],[161.419378,61.677978,0.0],[161.419369,61.677865,0.0],[161.418803,61.677875,0.0],[161.418811,61.677976,0.0],[161.418824,61.678144,0.0],[161.418258,61.678154,0.0],[161.418279,61.678423,0.0],[161.416014,61.678463,0.0],[161.416035,61.678733,0.0],[161.414902,61.678753,0.0],[161.414923,61.679022,0.0],[161.414357,61.679032,0.0],[161.414378,61.679301,0.0],[161.414944,61.679291,0.0],[161.414965,61.67956,0.0],[161.414399,61.67957,0.0],[161.414441,61.680108,0.0],[161.413875,61.680118,0.0],[161.414022,61.682001,0.0],[161.414588,61.681991,0.0],[161.414756,61.684144,0.0],[161.415323,61.684134,0.0],[161.415365,61.684672,0.0],[161.415931,61.684662,0.0],[161.415952,61.684931,0.0],[161.416519,61.684921,0.0],[161.416456,61.684114,0.0],[161.415889,61.684124,0.0]]]}},{"type":"Feature","properties":{"rgi_id":"RGI2000-v7.0-G-10-07103","o1region":"10"},"geometry":{"type":"Polygon","coordinates":[[[161.41967,61.754112,0.0],[161.419607,61.753305,0.0],[161.419039,61.753315,0.0],[161.418954,61.752238,0.0],[161.419522,61.752228,0.0],[161.41948,61.75169,0.0],[161.418912,61.7517,0.0],[161.418891,61.751431,0.0],[161.417756,61.751451,0.0],[161.417735,61.751182,0.0],[161.415464,61.751222,0.0],[161.415443,61.750953,0.0],[161.414308,61.750973,0.0],[161.414413,61.752318,0.0],[161.413846,61.752328,0.0],[161.413867,61.752597,0.0],[161.412164,61.752627,0.0],[161.412185,61.752896,0.0],[161.411617,61.752906,0.0],[161.411659,61.753445,0.0],[161.412795,61.753425,0.0],[161.412773,61.753156,0.0],[161.413341,61.753146,0.0],[161.41332,61.752876,0.0],[161.413888,61.752866,0.0],[161.413909,61.753136,0.0],[161.414476,61.753126,0.0],[161.414498,61.753395,0.0],[161.416201,61.753365,0.0],[161.416179,61.753096,0.0],[161.416747,61.753086,0.0],[161.416853,61.754431,0.0],[161.418556,61.754401,0.0],[161.418535,61.754132,0.0],[161.41967,61.754112,0.0]]]}},{"type":"Feature","properties":{"rgi_id":"RGI2000-v7.0-G-10-07104","o1region":"10"},"geometry":{"type":"Polygon","coordinates":[[[161.280554,61.756226,0.0],[161.280535,61.755957,0.0],[161.281102,61.755948,0.0],[161.281062,61.755409,0.0],[161.28163,61.7554,0.0],[161.28161,61.755131,0.0],[161.282178,61.755121,0.0],[161.282019,61.752969,0.0],[161.282586,61.752959,0.0],[161.282566,61.75269,0.0],[161.283134,61.752681,0.0],[161.283074,61.751873,0.0],[161.283642,61.751864,0.0],[161.283502,61.74998,0.0],[161.282935,61.74999,0.0],[161.282915,61.749721,0.0],[161.282347,61.74973,0.0],[161.282367,61.749999,0.0],[161.281799,61.750009,0.0],[161.281819,61.750278,0.0],[161.280684,61.750297,0.0],[161.280704,61.750566,0.0],[161.279569,61.750585,0.0],[161.279588,61.750854,0.0],[161.279021,61.750863,0.0],[161.279061,61.751401,0.0],[161.278493,61.751411,0.0],[161.278513,61.75168,0.0],[161.277945,61.751689,0.0],[161.277965,61.751958,0.0],[161.277397,61.751968,0.0],[161.277417,61.752237,0.0],[161.276849,61.752246,0.0],[161.276869,61.752515,0.0],[161.276302,61.752525,0.0],[161.276361,61.753332,0.0],[161.275793,61.753342,0.0],[161.275873,61.754418,0.0],[161.276441,61.754409,0.0],[161.276421,61.754139,0.0],[161.276989,61.75413,0.0],[161.276969,61.753861,0.0],[161.277536,61.753851,0.0],[161.277497,61.753313,0.0],[161.279768,61.753276,0.0],[161.279788,61.753545,0.0],[161.280355,61.753535,0.0],[161.280395,61.754073,0.0],[161.279827,61.754083,0.0],[161.279867,61.754621,0.0],[161.279299,61.75463,0.0],[161.279319,61.7549,0.0],[161.278752,61.754909,0.0],[161.278771,61.755178,0.0],[161.277636,61.755197,0.0],[161.277616,61.754928,0.0],[161.277048,61.754937,0.0],[161.277088,61.755475,0.0],[161.278224,61.755457,0.0],[161.278243,61.755726,0.0],[161.278811,61.755716,0.0],[161.278851,61.756254,0.0],[161.280554,61.756226,0.0]]]}},{"type":"Feature","properties":{"rgi_id":"RGI2000-v7.0-G-10-07105","o1region":"10"},"geometry":{"type":"Polygon","coordinates":[[[161.00136,61.667372,0.0],[161.001342,61.667102,0.0],[161.001909,61.667094,0.0],[161.001822,61.665748,0.0],[161.002388,61.66574,0.0],[161.002353,61.665202,0.0],[161.001787,61.66521,0.0],[161.001769,61.664941,0.0],[161.001203,61.664949,0.0],[161.001151,61.664142,0.0],[161.000585,61.66415,0.0],[161.000567,61.663881,0.0],[160.998869,61.663906,0.0],[160.998886,61.664175,0.0],[160.997187,61.6642,0.0],[160.997205,61.664469,0.0],[160.996639,61.664477,0.0],[160.996673,61.665015,0.0],[160.995541,61.665032,0.0],[160.995558,61.665301,0.0],[160.994992,61.665309,0.0],[160.995009,61.665578,0.0],[160.994443,61.665587,0.0],[160.994478,61.666125,0.0],[160.995044,61.666117,0.0],[160.995062,61.666386,0.0],[160.995628,61.666378,0.0],[160.995645,61.666647,0.0],[160.997344,61.666622,0.0],[160.997361,61.666891,0.0],[160.998494,61.666875,0.0],[160.998476,61.666605,0.0],[160.999609,61.666589,0.0],[160.999591,61.66632,0.0],[161.000158,61.666312,0.0],[161.00021,61.667119,0.0],[160.999077,61.667136,0.0],[160.999112,61.667674,0.0],[160.999678,61.667666,0.0],[160.999661,61.667396,0.0],[161.00136,61.667372,0.0]]]}}]}
