{"type":"FeatureCollection","features":[{"type":"Feature","properties":{"rgi_id":"RGI2000-v7.0-G-01-07306","o1region":"01"},"geometry":{"type":"Polygon","coordinates":[[[-152.772028,57.651744,0.0],[-152.772064,57.650702,0.0],[-152.772217,57.650508,0.0],[-152.773178,57.650599,0.0],[-152.775306,57.650762,0.0],[-152.77691,57.650636,0.0],[-152.778648,57.650511,0.0],[-152.779449,57.650675,0.0],[-152.779703,57.650872,0.0],[-152.779495,57.651723,0.0],[-152.778758,57.652474,0.0],[-152.778084,57.65365,0.0],[-152.775738,57.653681,0.0],[-152.774539,57.653669,0.0],[-152.773593,57.654015,0.0],[-152.77332,57.654191,0.0],[-152.77267,57.653741,0.0],[-152.772166,57.652883,0.0],[-152.772028,57.651744,0.0]]]}},{"type":"Feature","properties":{"rgi_id":"RGI2000-v7.0-G-01-07307","o1region":"01"},"geometry":{"type":"Polygon","coordinates":[[[-152.777066,57.640936,0.0],[-152.778094,57.640809,0.0],[-152.779512,57.640918,0.0],[-152.780204,57.641493,0.0],[-152.780177,57.642251,0.0],[-152.780031,57.642575,0.0],[-152.779293,57.643408,0.0],[-152.779138,57.644047,0.0],[-152.779116,57.644686,0.0],[-152.779362,57.645257,0.0],[-152.779566,57.645438,0.0],[-152.779339,57.64594,0.0],[-152.776516,57.645343,0.0],[-152.775117,57.644666,0.0],[-152.774601,57.644187,0.0],[-152.774453,57.643332,0.0],[-152.774653,57.642671,0.0],[-152.774738,57.642393,0.0],[-152.774854,57.642009,0.0],[-152.775584,57.641448,0.0],[-152.776667,57.640985,0.0],[-152.777066,57.640936,0.0]]]}},{"type":"Feature","properties":{"rgi_id":"RGI2000-v7.0-G-01-07308","o1region":"01"},"geometry":{"type":"Polygon","coordinates":[[[-152.759362,57.627638,0.0],[-152.760608,57.627556,0.0],[-152.762019,57.627854,0.0],[-152.762354,57.628427,0.0],[-152.762144,57.629372,0.0],[-152.761578,57.630314,0.0],[-152.761538,57.631451,0.0],[-152.760633,57.631916,0.0],[-152.756561,57.631497,0.0],[-152.756598,57.630454,0.0],[-152.755921,57.6295,0.0],[-152.755596,57.628643,0.0],[-152.755609,57.628264,0.0],[-152.757572,57.628,0.0],[-152.759362,57.627638,0.0]]]}},{"type":"Feature","properties":{"rgi_id":"RGI2000-v7.0-G-01-07309","o1region":"01"},"geometry":{"type":"Polygon","coordinates":[[[-152.82017,57.639284,0.0],[-152.821726,57.639239,0.0],[-152.822593,57.639899,0.0],[-152.822456,57.640668,0.0],[-152.82131,57.641723,0.0],[-152.82017,57.642601,0.0],[-152.81925,57.64354,0.0],[-152.817331,57.64447,0.0],[-152.816006,57.64422,0.0],[-152.816028,57.643569,0.0],[-152.816391,57.642684,0.0],[-152.817319,57.641508,0.0],[-152.817789,57.640742,0.0],[-152.818366,57.640096,0.0],[-152.819268,57.63969,0.0],[-152.82017,57.639284,0.0]]]}},{"type":"Feature","properties":{"rgi_id":"RGI2000-v7.0-G-01-07310","o1region":"01"},"geometry":{"type":"Polygon","coordinates":[[[-152.827367,57.63325,0.0],[-152.828481,57.633142,0.0],[-152.829472,57.633388,0.0],[-152.830236,57.63381,0.0],[-152.831106,57.634352,0.0],[-152.831194,57.635063,0.0],[-152.830949,57.635772,0.0],[-152.830205,57.636282,0.0],[-152.829926,57.636473,0.0],[-152.827686,57.637044,0.0],[-152.825019,57.637078,0.0],[-152.825144,57.636665,0.0],[-152.825185,57.635421,0.0],[-152.824881,57.63453,0.0],[-152.824792,57.633877,0.0],[-152.825024,57.633583,0.0],[-152.825914,57.633533,0.0],[-152.826588,57.633302,0.0],[-152.826607,57.633301,0.0],[-152.827367,57.63325,0.0]]]}},{"type":"Feature","properties":{"rgi_id":"RGI2000-v7.0-G-01-07311","o1region":"01"},"geometry":{"type":"Polygon","coordinates":[[[-152.894902,57.627034,0.0],[-152.895879,57.626474,0.0],[-152.896612,57.626879,0.0],[-152.897563,57.627172,0.0],[-152.898083,57.627574,0.0],[-152.898168,57.628257,0.0],[-152.898041,57.628939,0.0],[-152.8977,57.629618,0.0],[-152.896519,57.629892,0.0],[-152.895668,57.629828,0.0],[-152.89344,57.629467,0.0],[-152.893245,57.628896,0.0],[-152.893266,57.628214,0.0],[-152.894034,57.627538,0.0],[-152.894902,57.627034,0.0]]]}},{"type":"Feature","properties":{"rgi_id":"RGI2000-v7.0-G-01-07312","o1region":"01"},"geometry":{"type":"Polygon","coordinates":[[[-152.905264,57.622861,0.0],[-152.906437,57.622814,0.0],[-152.907498,57.622994,0.0],[-152.908128,57.623284,0.0],[-152.908963,57.62386,0.0],[-152.909052,57.624429,0.0],[-152.909029,57.625169,0.0],[-152.908582,57.625847,0.0],[-152.906659,57.626001,0.0],[-152.905602,57.625707,0.0],[-152.904341,57.625127,0.0],[-152.903714,57.624724,0.0],[-152.903625,57.624154,0.0],[-152.903643,57.623586,0.0],[-152.904083,57.623135,0.0],[-152.905264,57.622861,0.0]]]}},{"type":"Feature","properties":{"rgi_id":"RGI2000-v7.0-G-01-07313","o1region":"01"},"geometry":{"type":"Polygon","coordinates":[[[-152.903677,57.616743,0.0],[-152.904041,57.616462,0.0],[-152.905103,57.616566,0.0],[-152.905976,57.617047,0.0],[-152.907385,57.617439,0.0],[-152.908438,57.617827,0.0],[-152.909303,57.618593,0.0],[-152.909457,57.619353,0.0],[-152.908037,57.61934,0.0],[-152.902727,57.618725,0.0],[-152.903286,57.617877,0.0],[-152.903677,57.616743,0.0]]]}},{"type":"Feature","properties":{"rgi_id":"RGI2000-v7.0-G-01-07314","o1region":"01"},"geometry":{"type":"Polygon","coordinates":[[[-152.905624,57.611206,0.0],[-152.906156,57.61121,0.0],[-152.907326,57.611278,0.0],[-152.908169,57.611569,0.0],[-152.909435,57.611979,0.0],[-152.909853,57.612267,0.0],[-152.910579,57.612898,0.0],[-152.91045,57.613637,0.0],[-152.909472,57.614254,0.0],[-152.906349,57.615307,0.0],[-152.905509,57.614901,0.0],[-152.904565,57.614438,0.0],[-152.904155,57.613923,0.0],[-152.904067,57.613296,0.0],[-152.904632,57.612278,0.0],[-152.905072,57.611826,0.0],[-152.905624,57.611206,0.0]]]}},{"type":"Feature","properties":{"rgi_id":"RGI2000-v7.0-G-01-07315","o1region":"01"},"geometry":{"type":"Polygon","coordinates":[[[-152.913397,57.607862,0.0],[-152.914036,57.607867,0.0],[-152.914993,57.607933,0.0],[-152.916149,57.608454,0.0],[-152.916666,57.608971,0.0],[-152.91676,57.60937,0.0],[-152.916844,57.61011,0.0],[-152.916821,57.610849,0.0],[-152.916703,57.611246,0.0],[-152.913694,57.612073,0.0],[-152.912213,57.611718,0.0],[-152.911054,57.61131,0.0],[-152.910113,57.610733,0.0],[-152.909699,57.610332,0.0],[-152.909614,57.609648,0.0],[-152.909841,57.609195,0.0],[-152.910396,57.608461,0.0],[-152.910719,57.60835,0.0],[-152.912114,57.608021,0.0],[-152.912652,57.607855,0.0],[-152.913397,57.607862,0.0]]]}},{"type":"Feature","properties":{"rgi_id":"RGI2000-v7.0-G-01-07316","o1region":"01"},"geometry":{"type":"Polygon","coordinates":[[[-152.908716,57.60299,0.0],[-152.910542,57.602943,0.0],[-152.911206,57.60302,0.0],[-152.911869,57.603097,0.0],[-152.912477,57.603192,0.0],[-152.913088,57.604049,0.0],[-152.914359,57.604287,0.0],[-152.91467,57.604574,0.0],[-152.914537,57.605426,0.0],[-152.913982,57.606161,0.0],[-152.913116,57.606608,0.0],[-152.911101,57.606306,0.0],[-152.910581,57.605904,0.0],[-152.910176,57.605218,0.0],[-152.909986,57.604477,0.0],[-152.909582,57.603734,0.0],[-152.908744,57.603271,0.0],[-152.908716,57.60299,0.0]]]}},{"type":"Feature","properties":{"rgi_id":"RGI2000-v7.0-G-01-07317","o1region":"01"},"geometry":{"type":"Polygon","coordinates":[[[-152.908716,57.60299,0.0],[-152.908662,57.602475,0.0],[-152.909741,57.602029,0.0],[-152.910391,57.601694,0.0],[-152.910303,57.601067,0.0],[-152.909687,57.600322,0.0],[-152.909813,57.599698,0.0],[-152.910471,57.599078,0.0],[-152.911754,57.598919,0.0],[-152.913023,57.599214,0.0],[-152.913969,57.599621,0.0],[-152.914919,57.599913,0.0],[-152.916729,57.599929,0.0],[-152.917685,57.599994,0.0],[-152.91853,57.600229,0.0],[-152.918726,57.600799,0.0],[-152.917958,57.601532,0.0],[-152.917087,57.60215,0.0],[-152.9159,57.602652,0.0],[-152.914823,57.60304,0.0],[-152.913756,57.603088,0.0],[-152.912475,57.60319,0.0],[-152.912477,57.603192,0.0],[-152.911869,57.603097,0.0],[-152.911206,57.60302,0.0],[-152.910542,57.602943,0.0],[-152.908716,57.60299,0.0]]]}},{"type":"Feature","properties":{"rgi_id":"RGI2000-v7.0-G-01-07318","o1region":"01"},"geometry":{"type":"Polygon","coordinates":[[[-152.898452,57.607692,0.0],[-152.899343,57.607605,0.0],[-152.900396,57.607994,0.0],[-152.901432,57.608951,0.0],[-152.901405,57.609804,0.0],[-152.901199,57.61075,0.0],[-152.898527,57.61101,0.0],[-152.897648,57.610718,0.0],[-152.897308,57.610241,0.0],[-152.897515,57.609295,0.0],[-152.897535,57.608632,0.0],[-152.898452,57.607692,0.0]]]}},{"type":"Feature","properties":{"rgi_id":"RGI2000-v7.0-G-01-07319","o1region":"01"},"geometry":{"type":"Polygon","coordinates":[[[-152.944961,57.622223,0.0],[-152.947194,57.623629,0.0],[-152.946836,57.624982,0.0],[-152.946794,57.626404,0.0],[-152.946413,57.627254,0.0],[-152.946368,57.62877,0.0],[-152.946065,57.629015,0.0],[-152.943938,57.628336,0.0],[-152.94272,57.628207,0.0],[-152.940837,57.628073,0.0],[-152.940097,57.627847,0.0],[-152.940183,57.627675,0.0],[-152.941105,57.626545,0.0],[-152.942568,57.625136,0.0],[-152.943485,57.624196,0.0],[-152.944226,57.623159,0.0],[-152.944961,57.622223,0.0]]]}},{"type":"Feature","properties":{"rgi_id":"RGI2000-v7.0-G-01-07320","o1region":"01"},"geometry":{"type":"Polygon","coordinates":[[[-152.940097,57.627847,0.0],[-152.940837,57.628073,0.0],[-152.94272,57.628207,0.0],[-152.943938,57.628336,0.0],[-152.946065,57.629015,0.0],[-152.945094,57.629801,0.0],[-152.944888,57.630747,0.0],[-152.944522,57.631123,0.0],[-152.942176,57.632336,0.0],[-152.939815,57.634022,0.0],[-152.938191,57.634861,0.0],[-152.937289,57.635327,0.0],[-152.936418,57.634751,0.0],[-152.935733,57.633892,0.0],[-152.937537,57.63296,0.0],[-152.940628,57.630616,0.0],[-152.940304,57.629571,0.0],[-152.939805,57.62843,0.0],[-152.940097,57.627847,0.0]]]}},{"type":"Feature","properties":{"rgi_id":"RGI2000-v7.0-G-01-07321","o1region":"01"},"geometry":{"type":"Polygon","coordinates":[[[-152.944961,57.622223,0.0],[-152.944964,57.622218,0.0],[-152.946047,57.621658,0.0],[-152.947484,57.621102,0.0],[-152.948572,57.620353,0.0],[-152.949663,57.619509,0.0],[-152.95057,57.618853,0.0],[-152.951303,57.618101,0.0],[-152.951517,57.616871,0.0],[-152.951889,57.616305,0.0],[-152.953112,57.616979,0.0],[-152.95289,57.618494,0.0],[-152.952487,57.620102,0.0],[-152.951912,57.621518,0.0],[-152.950816,57.622552,0.0],[-152.948671,57.623008,0.0],[-152.947236,57.623469,0.0],[-152.947194,57.623629,0.0],[-152.944961,57.622223,0.0]]]}}]}
