{"type":"FeatureCollection","features":[{"type":"Feature","properties":{"rgi_id":"RGI2000-v7.0-G-18-03006","o1region":"18"},"geometry":{"type":"Polygon","coordinates":[[[172.740153,-41.950981,0.0],[172.740153,-41.951349,0.0],[172.739407,-41.951349,0.0],[172.739771,-41.950603,0.0],[172.739809,-41.95032,0.0],[172.740047,-41.950033,0.0],[172.740209,-41.949447,0.0],[172.740513,-41.949109,0.0],[172.740837,-41.948738,0.0],[172.741131,-41.948867,0.0],[172.741136,-41.94905,0.0],[172.7409,-41.94942,0.0],[172.740554,-41.949809,0.0],[172.740499,-41.950243,0.0],[172.740153,-41.950981,0.0]]]}}]}
