{"type":"FeatureCollection","features":[{"type":"Feature","properties":{"rgi_id":"RGI2000-v7.0-G-05-19199","o1region":"05"},"geometry":{"type":"Polygon","coordinates":[[[-64.080987,80.00461,0.0],[-64.06396,80.004665,0.0],[-64.063988,80.004934,0.0],[-64.051604,80.004973,0.0],[-64.051576,80.004704,0.0],[-64.050028,80.004709,0.0],[-64.05,80.00444,0.0],[-64.051548,80.004435,0.0],[-64.051492,80.003898,0.0],[-64.05304,80.003893,0.0],[-64.053012,80.003624,0.0],[-64.05456,80.003619,0.0],[-64.054532,80.003351,0.0],[-64.057627,80.003341,0.0],[-64.057599,80.003072,0.0],[-64.059147,80.003067,0.0],[-64.059119,80.002799,0.0],[-64.060666,80.002794,0.0],[-64.060638,80.002525,0.0],[-64.063733,80.002515,0.0],[-64.063705,80.002246,0.0],[-64.0668,80.002236,0.0],[-64.066772,80.001968,0.0],[-64.072962,80.001948,0.0],[-64.072934,80.001679,0.0],[-64.076029,80.001669,0.0],[-64.076057,80.001938,0.0],[-64.079152,80.001928,0.0],[-64.079181,80.002197,0.0],[-64.082276,80.002187,0.0],[-64.082305,80.002456,0.0],[-64.0854,80.002446,0.0],[-64.085429,80.002714,0.0],[-64.086977,80.002709,0.0],[-64.087006,80.002978,0.0],[-64.090101,80.002968,0.0],[-64.090072,80.002699,0.0],[-64.09162,80.002694,0.0],[-64.091591,80.002425,0.0],[-64.097781,80.002405,0.0],[-64.097752,80.002136,0.0],[-64.10549,80.002111,0.0],[-64.10546,80.001842,0.0],[-64.113198,80.001817,0.0],[-64.113168,80.001548,0.0],[-64.122453,80.001517,0.0],[-64.122423,80.001248,0.0],[-64.127066,80.001233,0.0],[-64.127036,80.000964,0.0],[-64.131678,80.000948,0.0],[-64.131648,80.00068,0.0],[-64.133195,80.000674,0.0],[-64.133165,80.000406,0.0],[-64.137807,80.00039,0.0],[-64.137837,80.000659,0.0],[-64.13629,80.000664,0.0],[-64.13632,80.000933,0.0],[-64.134773,80.000938,0.0],[-64.134803,80.001207,0.0],[-64.131708,80.001217,0.0],[-64.131738,80.001486,0.0],[-64.125548,80.001507,0.0],[-64.125578,80.001775,0.0],[-64.120936,80.001791,0.0],[-64.120965,80.00206,0.0],[-64.114775,80.00208,0.0],[-64.114805,80.002349,0.0],[-64.11171,80.002359,0.0],[-64.111739,80.002628,0.0],[-64.107096,80.002643,0.0],[-64.107126,80.002912,0.0],[-64.099387,80.002938,0.0],[-64.099417,80.003206,0.0],[-64.094773,80.003222,0.0],[-64.094803,80.00349,0.0],[-64.091707,80.0035,0.0],[-64.091736,80.003769,0.0],[-64.08864,80.003779,0.0],[-64.088669,80.004048,0.0],[-64.084026,80.004063,0.0],[-64.084055,80.004332,0.0],[-64.080959,80.004342,0.0],[-64.080987,80.00461,0.0]]]}},{"type":"Feature","properties":{"rgi_id":"RGI2000-v7.0-G-05-19200","o1region":"05"},"geometry":{"type":"Polygon","coordinates":[[[-63.627484,80.033452,0.0],[-63.624698,80.033996,0.0],[-63.617336,80.035417,0.0],[-63.608034,80.035826,0.0],[-63.606206,80.035911,0.0],[-63.602853,80.035917,0.0],[-63.602862,80.036065,0.0],[-63.596784,80.036347,0.0],[-63.583156,80.036754,0.0],[-63.571241,80.038434,0.0],[-63.567769,80.039256,0.0],[-63.560825,80.0409,0.0],[-63.557685,80.04137,0.0],[-63.556561,80.041372,0.0],[-63.55657,80.041538,0.0],[-63.555872,80.041642,0.0],[-63.555022,80.041644,0.0],[-63.555029,80.041769,0.0],[-63.554104,80.041907,0.0],[-63.554063,80.041914,0.0],[-63.553483,80.041915,0.0],[-63.553488,80.042008,0.0],[-63.552397,80.042186,0.0],[-63.55039,80.042189,0.0],[-63.550404,80.042458,0.0],[-63.54108,80.042473,0.0],[-63.541095,80.042741,0.0],[-63.539541,80.042744,0.0],[-63.539584,80.04355,0.0],[-63.541138,80.043548,0.0],[-63.541153,80.043817,0.0],[-63.542332,80.043815,0.0],[-63.539787,80.044221,0.0],[-63.529597,80.045302,0.0],[-63.522226,80.045971,0.0],[-63.510089,80.046788,0.0],[-63.502287,80.047233,0.0],[-63.491884,80.047825,0.0],[-63.476276,80.048714,0.0],[-63.461316,80.049564,0.0],[-63.457488,80.049735,0.0],[-63.45742,80.048241,0.0],[-63.455865,80.048244,0.0],[-63.455853,80.047975,0.0],[-63.444969,80.047989,0.0],[-63.444957,80.047721,0.0],[-63.443402,80.047723,0.0],[-63.443308,80.045572,0.0],[-63.441753,80.045574,0.0],[-63.441741,80.045306,0.0],[-63.440187,80.045308,0.0],[-63.440175,80.045039,0.0],[-63.438621,80.045041,0.0],[-63.438609,80.044772,0.0],[-63.437055,80.044774,0.0],[-63.437031,80.044237,0.0],[-63.435477,80.044239,0.0],[-63.435419,80.042895,0.0],[-63.433865,80.042897,0.0],[-63.433842,80.042359,0.0],[-63.432288,80.042361,0.0],[-63.432276,80.042093,0.0],[-63.430722,80.042095,0.0],[-63.43071,80.041826,0.0],[-63.429157,80.041828,0.0],[-63.429145,80.041559,0.0],[-63.427591,80.041561,0.0],[-63.42758,80.041292,0.0],[-63.426026,80.041294,0.0],[-63.426015,80.041025,0.0],[-63.422907,80.041029,0.0],[-63.422896,80.040761,0.0],[-63.421342,80.040762,0.0],[-63.421331,80.040494,0.0],[-63.40424,80.040515,0.0],[-63.404251,80.040783,0.0],[-63.398036,80.040791,0.0],[-63.398025,80.040522,0.0],[-63.394917,80.040526,0.0],[-63.394928,80.040795,0.0],[-63.39182,80.040798,0.0],[-63.391831,80.041067,0.0],[-63.388723,80.041071,0.0],[-63.388734,80.041339,0.0],[-63.38718,80.041341,0.0],[-63.38719,80.04161,0.0],[-63.382529,80.041615,0.0],[-63.382518,80.041346,0.0],[-63.380964,80.041348,0.0],[-63.380975,80.041617,0.0],[-63.379421,80.041619,0.0],[-63.379431,80.041888,0.0],[-63.374769,80.041893,0.0],[-63.374799,80.042699,0.0],[-63.377907,80.042696,0.0],[-63.377897,80.042427,0.0],[-63.379451,80.042425,0.0],[-63.379441,80.042156,0.0],[-63.382549,80.042153,0.0],[-63.382559,80.042422,0.0],[-63.387221,80.042416,0.0],[-63.387232,80.042685,0.0],[-63.388786,80.042683,0.0],[-63.388806,80.043221,0.0],[-63.384144,80.043226,0.0],[-63.384134,80.042957,0.0],[-63.377917,80.042964,0.0],[-63.377937,80.043502,0.0],[-63.379492,80.0435,0.0],[-63.379502,80.043769,0.0],[-63.381056,80.043767,0.0],[-63.381097,80.044842,0.0],[-63.382651,80.044841,0.0],[-63.382672,80.045378,0.0],[-63.384226,80.045376,0.0],[-63.384236,80.045645,0.0],[-63.3889,80.04564,0.0],[-63.388921,80.046177,0.0],[-63.387366,80.046179,0.0],[-63.387376,80.046448,0.0],[-63.385822,80.04645,0.0],[-63.385832,80.046718,0.0],[-63.384277,80.04672,0.0],[-63.384308,80.047526,0.0],[-63.382753,80.047528,0.0],[-63.382774,80.048066,0.0],[-63.381219,80.048068,0.0],[-63.381229,80.048336,0.0],[-63.378119,80.04834,0.0],[-63.378129,80.048609,0.0],[-63.373465,80.048614,0.0],[-63.373474,80.048883,0.0],[-63.368809,80.048888,0.0],[-63.368819,80.049157,0.0],[-63.365709,80.04916,0.0],[-63.365719,80.049429,0.0],[-63.364164,80.04943,0.0],[-63.364174,80.049699,0.0],[-63.362618,80.049701,0.0],[-63.362638,80.050238,0.0],[-63.359527,80.050242,0.0],[-63.359518,80.049973,0.0],[-63.357963,80.049975,0.0],[-63.357953,80.049706,0.0],[-63.356398,80.049707,0.0],[-63.356388,80.049439,0.0],[-63.353278,80.049442,0.0],[-63.353288,80.049711,0.0],[-63.351732,80.049712,0.0],[-63.351742,80.049981,0.0],[-63.348631,80.049984,0.0],[-63.348641,80.050253,0.0],[-63.34553,80.050256,0.0],[-63.345521,80.049988,0.0],[-63.340855,80.049992,0.0],[-63.340865,80.050261,0.0],[-63.339309,80.050263,0.0],[-63.339318,80.050531,0.0],[-63.337763,80.050533,0.0],[-63.337808,80.051877,0.0],[-63.339364,80.051875,0.0],[-63.339473,80.055101,0.0],[-63.341029,80.055099,0.0],[-63.341056,80.055905,0.0],[-63.3395,80.055907,0.0],[-63.339509,80.056176,0.0],[-63.337953,80.056177,0.0],[-63.337962,80.056446,0.0],[-63.336406,80.056448,0.0],[-63.336415,80.056716,0.0],[-63.334858,80.056718,0.0],[-63.334876,80.057256,0.0],[-63.33332,80.057257,0.0],[-63.333329,80.057526,0.0],[-63.330216,80.057529,0.0],[-63.330225,80.057798,0.0],[-63.328669,80.057799,0.0],[-63.328677,80.058068,0.0],[-63.327121,80.05807,0.0],[-63.32713,80.058338,0.0],[-63.325573,80.05834,0.0],[-63.325582,80.058609,0.0],[-63.324025,80.05861,0.0],[-63.324043,80.059148,0.0],[-63.322486,80.059149,0.0],[-63.322495,80.059418,0.0],[-63.320938,80.059419,0.0],[-63.320947,80.059688,0.0],[-63.31939,80.05969,0.0],[-63.319399,80.059958,0.0],[-63.317842,80.05996,0.0],[-63.317859,80.060497,0.0],[-63.316302,80.060499,0.0],[-63.316327,80.061305,0.0],[-63.31477,80.061307,0.0],[-63.314779,80.061575,0.0],[-63.313222,80.061577,0.0],[-63.31323,80.061846,0.0],[-63.311673,80.061847,0.0],[-63.31169,80.062385,0.0],[-63.310133,80.062386,0.0],[-63.310141,80.062655,0.0],[-63.308584,80.062656,0.0],[-63.308592,80.062925,0.0],[-63.303921,80.062929,0.0],[-63.303912,80.062661,0.0],[-63.299241,80.062665,0.0],[-63.299233,80.062396,0.0],[-63.294562,80.0624,0.0],[-63.294554,80.062131,0.0],[-63.289882,80.062135,0.0],[-63.289875,80.061867,0.0],[-63.286761,80.061869,0.0],[-63.286753,80.0616,0.0],[-63.285196,80.061602,0.0],[-63.285188,80.061333,0.0],[-63.283631,80.061334,0.0],[-63.283624,80.061066,0.0],[-63.282067,80.061067,0.0],[-63.282059,80.060798,0.0],[-63.280502,80.060799,0.0],[-63.280487,80.060262,0.0],[-63.282044,80.060261,0.0],[-63.282021,80.059454,0.0],[-63.280465,80.059455,0.0],[-63.280457,80.059187,0.0],[-63.277344,80.059189,0.0],[-63.277337,80.058921,0.0],[-63.27578,80.058922,0.0],[-63.275773,80.058653,0.0],[-63.27266,80.058656,0.0],[-63.272652,80.058387,0.0],[-63.269539,80.058389,0.0],[-63.269532,80.058121,0.0],[-63.267976,80.058122,0.0],[-63.267968,80.057853,0.0],[-63.266412,80.057854,0.0],[-63.266405,80.057585,0.0],[-63.264848,80.057587,0.0],[-63.264834,80.057049,0.0],[-63.263278,80.05705,0.0],[-63.263271,80.056782,0.0],[-63.260158,80.056784,0.0],[-63.260151,80.056515,0.0],[-63.257039,80.056518,0.0],[-63.257032,80.056249,0.0],[-63.255476,80.05625,0.0],[-63.255455,80.055444,0.0],[-63.257011,80.055442,0.0],[-63.256984,80.054367,0.0],[-63.255428,80.054369,0.0],[-63.255421,80.0541,0.0],[-63.253865,80.054101,0.0],[-63.253859,80.053832,0.0],[-63.252303,80.053833,0.0],[-63.252296,80.053565,0.0],[-63.25074,80.053566,0.0],[-63.25072,80.052759,0.0],[-63.249165,80.052761,0.0],[-63.249158,80.052492,0.0],[-63.247602,80.052493,0.0],[-63.247609,80.052762,0.0],[-63.242942,80.052765,0.0],[-63.242936,80.052496,0.0],[-63.24138,80.052497,0.0],[-63.241341,80.050885,0.0],[-63.242897,80.050884,0.0],[-63.242864,80.04954,0.0],[-63.244419,80.049539,0.0],[-63.244406,80.049001,0.0],[-63.242851,80.049002,0.0],[-63.242838,80.048465,0.0],[-63.241283,80.048466,0.0],[-63.241257,80.047391,0.0],[-63.239703,80.047392,0.0],[-63.239696,80.047123,0.0],[-63.238141,80.047124,0.0],[-63.238129,80.046587,0.0],[-63.236574,80.046588,0.0],[-63.236568,80.046319,0.0],[-63.235013,80.04632,0.0],[-63.235007,80.046051,0.0],[-63.233452,80.046052,0.0],[-63.233446,80.045783,0.0],[-63.231891,80.045785,0.0],[-63.231879,80.045247,0.0],[-63.230324,80.045248,0.0],[-63.230318,80.044979,0.0],[-63.228764,80.04498,0.0],[-63.228758,80.044712,0.0],[-63.227203,80.044713,0.0],[-63.227197,80.044444,0.0],[-63.225643,80.044445,0.0],[-63.225637,80.044176,0.0],[-63.224083,80.044177,0.0],[-63.224065,80.043371,0.0],[-63.22251,80.043372,0.0],[-63.222487,80.042297,0.0],[-63.220933,80.042298,0.0],[-63.220927,80.042029,0.0],[-63.219373,80.04203,0.0],[-63.219367,80.041761,0.0],[-63.217813,80.041762,0.0],[-63.217807,80.041493,0.0],[-63.216253,80.041494,0.0],[-63.216242,80.040957,0.0],[-63.214688,80.040958,0.0],[-63.214676,80.04042,0.0],[-63.213123,80.040421,0.0],[-63.213117,80.040153,0.0],[-63.211563,80.040154,0.0],[-63.211558,80.039885,0.0],[-63.210004,80.039886,0.0],[-63.209998,80.039617,0.0],[-63.208445,80.039618,0.0],[-63.208439,80.039349,0.0],[-63.205332,80.039351,0.0],[-63.205327,80.039082,0.0],[-63.200666,80.039085,0.0],[-63.200661,80.038816,0.0],[-63.199107,80.038817,0.0],[-63.199102,80.038548,0.0],[-63.197548,80.038549,0.0],[-63.197543,80.038281,0.0],[-63.199096,80.03828,0.0],[-63.199091,80.038011,0.0],[-63.200644,80.03801,0.0],[-63.200639,80.037741,0.0],[-63.199086,80.037742,0.0],[-63.19908,80.037473,0.0],[-63.197527,80.037474,0.0],[-63.197522,80.037206,0.0],[-63.194415,80.037207,0.0],[-63.19441,80.036939,0.0],[-63.189751,80.036941,0.0],[-63.189746,80.036672,0.0],[-63.188192,80.036673,0.0],[-63.188182,80.036136,0.0],[-63.191289,80.036134,0.0],[-63.191294,80.036403,0.0],[-63.1944,80.036401,0.0],[-63.194405,80.03667,0.0],[-63.202171,80.036665,0.0],[-63.202176,80.036934,0.0],[-63.203729,80.036933,0.0],[-63.203735,80.037202,0.0],[-63.205288,80.037201,0.0],[-63.205294,80.03747,0.0],[-63.206847,80.037469,0.0],[-63.206852,80.037737,0.0],[-63.209959,80.037736,0.0],[-63.209953,80.037467,0.0],[-63.211507,80.037466,0.0],[-63.211501,80.037197,0.0],[-63.213054,80.037196,0.0],[-63.213049,80.036927,0.0],[-63.214602,80.036926,0.0],[-63.214573,80.035582,0.0],[-63.21302,80.035583,0.0],[-63.213003,80.034777,0.0],[-63.21145,80.034778,0.0],[-63.211445,80.034509,0.0],[-63.209892,80.03451,0.0],[-63.209886,80.034241,0.0],[-63.208333,80.034242,0.0],[-63.208322,80.033705,0.0],[-63.20677,80.033706,0.0],[-63.206748,80.032631,0.0],[-63.2083,80.03263,0.0],[-63.208206,80.02806,0.0],[-63.206654,80.028061,0.0],[-63.206648,80.027793,0.0],[-63.2082,80.027792,0.0],[-63.208167,80.026179,0.0],[-63.209718,80.026178,0.0],[-63.209713,80.025909,0.0],[-63.211264,80.025908,0.0],[-63.211259,80.02564,0.0],[-63.21281,80.025639,0.0],[-63.212782,80.024295,0.0],[-63.21123,80.024296,0.0],[-63.211225,80.024027,0.0],[-63.209674,80.024028,0.0],[-63.209668,80.023759,0.0],[-63.208117,80.02376,0.0],[-63.208111,80.023491,0.0],[-63.205009,80.023493,0.0],[-63.205004,80.023224,0.0],[-63.203452,80.023225,0.0],[-63.203447,80.022957,0.0],[-63.201896,80.022957,0.0],[-63.201885,80.02242,0.0],[-63.200334,80.022421,0.0],[-63.200324,80.021883,0.0],[-63.198773,80.021884,0.0],[-63.198725,80.019465,0.0],[-63.197174,80.019466,0.0],[-63.197164,80.018929,0.0],[-63.198714,80.018928,0.0],[-63.198677,80.017046,0.0],[-63.200227,80.017045,0.0],[-63.200206,80.01597,0.0],[-63.201756,80.015969,0.0],[-63.201745,80.015432,0.0],[-63.203295,80.015431,0.0],[-63.203279,80.014624,0.0],[-63.204829,80.014623,0.0],[-63.204812,80.013817,0.0],[-63.206362,80.013816,0.0],[-63.20634,80.012741,0.0],[-63.20789,80.01274,0.0],[-63.207884,80.012471,0.0],[-63.212532,80.012468,0.0],[-63.212527,80.0122,0.0],[-63.214076,80.012199,0.0],[-63.214065,80.011661,0.0],[-63.212515,80.011662,0.0],[-63.21251,80.011393,0.0],[-63.21096,80.011394,0.0],[-63.210949,80.010857,0.0],[-63.2094,80.010858,0.0],[-63.209389,80.01032,0.0],[-63.210938,80.010319,0.0],[-63.210932,80.01005,0.0],[-63.212481,80.010049,0.0],[-63.212476,80.009781,0.0],[-63.214025,80.00978,0.0],[-63.214019,80.009511,0.0],[-63.21247,80.009512,0.0],[-63.212464,80.009243,0.0],[-63.215562,80.009241,0.0],[-63.215568,80.00951,0.0],[-63.217117,80.009509,0.0],[-63.217129,80.010046,0.0],[-63.218678,80.010045,0.0],[-63.218695,80.010852,0.0],[-63.220244,80.010851,0.0],[-63.22025,80.01112,0.0],[-63.223349,80.011117,0.0],[-63.223354,80.011386,0.0],[-63.228002,80.011383,0.0],[-63.227996,80.011114,0.0],[-63.229545,80.011113,0.0],[-63.229533,80.010576,0.0],[-63.231082,80.010575,0.0],[-63.231076,80.010306,0.0],[-63.232625,80.010305,0.0],[-63.232613,80.009767,0.0],[-63.231064,80.009768,0.0],[-63.231033,80.008424,0.0],[-63.232582,80.008423,0.0],[-63.232576,80.008155,0.0],[-63.235673,80.008152,0.0],[-63.235667,80.007884,0.0],[-63.244959,80.007877,0.0],[-63.244953,80.007608,0.0],[-63.24805,80.007606,0.0],[-63.248057,80.007875,0.0],[-63.2558,80.007869,0.0],[-63.255794,80.0076,0.0],[-63.26044,80.007597,0.0],[-63.260433,80.007328,0.0],[-63.261981,80.007327,0.0],[-63.261974,80.007058,0.0],[-63.265072,80.007055,0.0],[-63.265064,80.006787,0.0],[-63.26971,80.006783,0.0],[-63.269703,80.006514,0.0],[-63.2728,80.006512,0.0],[-63.272793,80.006243,0.0],[-63.274341,80.006242,0.0],[-63.274327,80.005704,0.0],[-63.275875,80.005703,0.0],[-63.27586,80.005165,0.0],[-63.282054,80.00516,0.0],[-63.282046,80.004891,0.0],[-63.286691,80.004887,0.0],[-63.286683,80.004619,0.0],[-63.28978,80.004616,0.0],[-63.289772,80.004347,0.0],[-63.292868,80.004344,0.0],[-63.29286,80.004076,0.0],[-63.295957,80.004073,0.0],[-63.295949,80.003804,0.0],[-63.299045,80.003801,0.0],[-63.299037,80.003533,0.0],[-63.300585,80.003531,0.0],[-63.300577,80.003262,0.0],[-63.302125,80.003261,0.0],[-63.302109,80.002723,0.0],[-63.303657,80.002722,0.0],[-63.303641,80.002185,0.0],[-63.302093,80.002186,0.0],[-63.302085,80.001917,0.0],[-63.300537,80.001919,0.0],[-63.300529,80.00165,0.0],[-63.295886,80.001654,0.0],[-63.295894,80.001923,0.0],[-63.292798,80.001925,0.0],[-63.292806,80.002194,0.0],[-63.285067,80.002201,0.0],[-63.285074,80.00247,0.0],[-63.277335,80.002476,0.0],[-63.277342,80.002745,0.0],[-63.27115,80.00275,0.0],[-63.271158,80.003019,0.0],[-63.264966,80.003024,0.0],[-63.264973,80.003292,0.0],[-63.260329,80.003296,0.0],[-63.260336,80.003565,0.0],[-63.247951,80.003574,0.0],[-63.247958,80.003843,0.0],[-63.24641,80.003844,0.0],[-63.246416,80.004113,0.0],[-63.240224,80.004117,0.0],[-63.24023,80.004386,0.0],[-63.238682,80.004387,0.0],[-63.238688,80.004656,0.0],[-63.234044,80.004659,0.0],[-63.234031,80.004122,0.0],[-63.237127,80.00412,0.0],[-63.237121,80.003851,0.0],[-63.240217,80.003849,0.0],[-63.240211,80.00358,0.0],[-63.243307,80.003578,0.0],[-63.243301,80.003309,0.0],[-63.246397,80.003307,0.0],[-63.24639,80.003038,0.0],[-63.249486,80.003036,0.0],[-63.249479,80.002767,0.0],[-63.257219,80.002761,0.0],[-63.257212,80.002492,0.0],[-63.260308,80.00249,0.0],[-63.260301,80.002221,0.0],[-63.272684,80.002211,0.0],[-63.272677,80.001942,0.0],[-63.275772,80.00194,0.0],[-63.275765,80.001671,0.0],[-63.27886,80.001669,0.0],[-63.278853,80.0014,0.0],[-63.283496,80.001396,0.0],[-63.283489,80.001127,0.0],[-63.292775,80.001119,0.0],[-63.292767,80.00085,0.0],[-63.29741,80.000846,0.0],[-63.297402,80.000577,0.0],[-63.29895,80.000576,0.0],[-63.298926,79.99977,0.0],[-63.303568,79.999766,0.0],[-63.303576,80.000034,0.0],[-63.305124,80.000033,0.0],[-63.305116,79.999764,0.0],[-63.309758,79.99976,0.0],[-63.309766,80.000029,0.0],[-63.312861,80.000026,0.0],[-63.31287,80.000295,0.0],[-63.315965,80.000292,0.0],[-63.315973,80.00056,0.0],[-63.319068,80.000557,0.0],[-63.31906,80.000289,0.0],[-63.323702,80.000284,0.0],[-63.323694,80.000015,0.0],[-63.325241,80.000014,0.0],[-63.325233,79.999745,0.0],[-63.32678,79.999744,0.0],[-63.326763,79.999206,0.0],[-63.32831,79.999205,0.0],[-63.328301,79.998936,0.0],[-63.329849,79.998934,0.0],[-63.32984,79.998666,0.0],[-63.331387,79.998664,0.0],[-63.331378,79.998395,0.0],[-63.337568,79.998389,0.0],[-63.337559,79.99812,0.0],[-63.340653,79.998117,0.0],[-63.340644,79.997848,0.0],[-63.343738,79.997845,0.0],[-63.343729,79.997576,0.0],[-63.348371,79.997572,0.0],[-63.348361,79.997303,0.0],[-63.349908,79.997301,0.0],[-63.349899,79.997032,0.0],[-63.351446,79.997031,0.0],[-63.351427,79.996493,0.0],[-63.352974,79.996492,0.0],[-63.352937,79.995417,0.0],[-63.35139,79.995418,0.0],[-63.351381,79.995149,0.0],[-63.348287,79.995153,0.0],[-63.348278,79.994884,0.0],[-63.346731,79.994886,0.0],[-63.346722,79.994617,0.0],[-63.345175,79.994618,0.0],[-63.345166,79.99435,0.0],[-63.343619,79.994351,0.0],[-63.343601,79.993814,0.0],[-63.342055,79.993815,0.0],[-63.342036,79.993278,0.0],[-63.34049,79.993279,0.0],[-63.340481,79.99301,0.0],[-63.342027,79.993009,0.0],[-63.342018,79.99274,0.0],[-63.348204,79.992734,0.0],[-63.348213,79.993002,0.0],[-63.351306,79.992999,0.0],[-63.351315,79.993268,0.0],[-63.355955,79.993263,0.0],[-63.355945,79.992994,0.0],[-63.37141,79.992978,0.0],[-63.3714,79.992709,0.0],[-63.374492,79.992705,0.0],[-63.374482,79.992437,0.0],[-63.380668,79.99243,0.0],[-63.380658,79.992161,0.0],[-63.385297,79.992155,0.0],[-63.385286,79.991887,0.0],[-63.389925,79.991881,0.0],[-63.389915,79.991613,0.0],[-63.393007,79.991609,0.0],[-63.392997,79.99134,0.0],[-63.396089,79.991337,0.0],[-63.396079,79.991068,0.0],[-63.397625,79.991066,0.0],[-63.397582,79.989991,0.0],[-63.399128,79.989989,0.0],[-63.399118,79.98972,0.0],[-63.408393,79.989709,0.0],[-63.408404,79.989978,0.0],[-63.413042,79.989972,0.0],[-63.413053,79.990241,0.0],[-63.416145,79.990237,0.0],[-63.416156,79.990506,0.0],[-63.420794,79.9905,0.0],[-63.420805,79.990769,0.0],[-63.425444,79.990763,0.0],[-63.425455,79.991032,0.0],[-63.428547,79.991028,0.0],[-63.428558,79.991297,0.0],[-63.430105,79.991295,0.0],[-63.430116,79.991563,0.0],[-63.434755,79.991557,0.0],[-63.434743,79.991289,0.0],[-63.437835,79.991285,0.0],[-63.437824,79.991016,0.0],[-63.440916,79.991012,0.0],[-63.440904,79.990743,0.0],[-63.44245,79.990741,0.0],[-63.442439,79.990472,0.0],[-63.443985,79.99047,0.0],[-63.443961,79.989933,0.0],[-63.445507,79.98993,0.0],[-63.445495,79.989662,0.0],[-63.447041,79.98966,0.0],[-63.447029,79.989391,0.0],[-63.453213,79.989383,0.0],[-63.453225,79.989651,0.0],[-63.460954,79.989641,0.0],[-63.460942,79.989372,0.0],[-63.467125,79.989363,0.0],[-63.467113,79.989095,0.0],[-63.468659,79.989092,0.0],[-63.468634,79.988555,0.0],[-63.470179,79.988553,0.0],[-63.470167,79.988284,0.0],[-63.471713,79.988282,0.0],[-63.4717,79.988013,0.0],[-63.473246,79.988011,0.0],[-63.473208,79.987205,0.0],[-63.471663,79.987207,0.0],[-63.47165,79.986938,0.0],[-63.462377,79.986951,0.0],[-63.462365,79.986682,0.0],[-63.457728,79.986689,0.0],[-63.457716,79.98642,0.0],[-63.456171,79.986422,0.0],[-63.456159,79.986153,0.0],[-63.454613,79.986155,0.0],[-63.454589,79.985618,0.0],[-63.471587,79.985594,0.0],[-63.4716,79.985863,0.0],[-63.474691,79.985858,0.0],[-63.474678,79.98559,0.0],[-63.477768,79.985585,0.0],[-63.477781,79.985854,0.0],[-63.479326,79.985852,0.0],[-63.479377,79.986927,0.0],[-63.480923,79.986925,0.0],[-63.480936,79.987194,0.0],[-63.482481,79.987191,0.0],[-63.482494,79.98746,0.0],[-63.485585,79.987456,0.0],[-63.485598,79.987724,0.0],[-63.488689,79.98772,0.0],[-63.488702,79.987989,0.0],[-63.494885,79.98798,0.0],[-63.494872,79.987711,0.0],[-63.499508,79.987704,0.0],[-63.499495,79.987435,0.0],[-63.502586,79.98743,0.0],[-63.502519,79.986087,0.0],[-63.504065,79.986084,0.0],[-63.504038,79.985547,0.0],[-63.502493,79.985549,0.0],[-63.502479,79.98528,0.0],[-63.500934,79.985283,0.0],[-63.500921,79.985014,0.0],[-63.499376,79.985016,0.0],[-63.499362,79.984747,0.0],[-63.503998,79.98474,0.0],[-63.503984,79.984472,0.0],[-63.50862,79.984465,0.0],[-63.508606,79.984196,0.0],[-63.519422,79.984179,0.0],[-63.519408,79.983911,0.0],[-63.520953,79.983908,0.0],[-63.520939,79.983639,0.0],[-63.522484,79.983637,0.0],[-63.522428,79.982562,0.0],[-63.520884,79.982564,0.0],[-63.520842,79.981758,0.0],[-63.525476,79.981751,0.0],[-63.525518,79.982557,0.0],[-63.528608,79.982552,0.0],[-63.528594,79.982283,0.0],[-63.530138,79.982281,0.0],[-63.53011,79.981743,0.0],[-63.531655,79.981741,0.0],[-63.531641,79.981472,0.0],[-63.533185,79.98147,0.0],[-63.533115,79.980126,0.0],[-63.53157,79.980128,0.0],[-63.531556,79.97986,0.0],[-63.530012,79.979862,0.0],[-63.529998,79.979593,0.0],[-63.526909,79.979598,0.0],[-63.526895,79.979329,0.0],[-63.525351,79.979332,0.0],[-63.525323,79.978794,0.0],[-63.526867,79.978792,0.0],[-63.526853,79.978523,0.0],[-63.528397,79.978521,0.0],[-63.528355,79.977714,0.0],[-63.529899,79.977712,0.0],[-63.529829,79.976368,0.0],[-63.531373,79.976366,0.0],[-63.531344,79.975828,0.0],[-63.529801,79.97583,0.0],[-63.529773,79.975293,0.0],[-63.528229,79.975295,0.0],[-63.528201,79.974758,0.0],[-63.529745,79.974755,0.0],[-63.529716,79.974218,0.0],[-63.53126,79.974215,0.0],[-63.531246,79.973947,0.0],[-63.534333,79.973942,0.0],[-63.534319,79.973673,0.0],[-63.535862,79.97367,0.0],[-63.535819,79.972864,0.0],[-63.537363,79.972862,0.0],[-63.537348,79.972593,0.0],[-63.538892,79.97259,0.0],[-63.538877,79.972322,0.0],[-63.540421,79.972319,0.0],[-63.540363,79.971244,0.0],[-63.53882,79.971247,0.0],[-63.538806,79.970978,0.0],[-63.537263,79.97098,0.0],[-63.537249,79.970712,0.0],[-63.535706,79.970714,0.0],[-63.535692,79.970445,0.0],[-63.548035,79.970425,0.0],[-63.548021,79.970156,0.0],[-63.551106,79.970151,0.0],[-63.551092,79.969883,0.0],[-63.55572,79.969875,0.0],[-63.555706,79.969606,0.0],[-63.560334,79.969598,0.0],[-63.560319,79.96933,0.0],[-63.564948,79.969322,0.0],[-63.564933,79.969053,0.0],[-63.566475,79.96905,0.0],[-63.566505,79.969588,0.0],[-63.564962,79.969591,0.0],[-63.564977,79.969859,0.0],[-63.561892,79.969865,0.0],[-63.561907,79.970133,0.0],[-63.560364,79.970136,0.0],[-63.560379,79.970405,0.0],[-63.558836,79.970407,0.0],[-63.558851,79.970676,0.0],[-63.555765,79.970681,0.0],[-63.555779,79.97095,0.0],[-63.554236,79.970953,0.0],[-63.554266,79.97149,0.0],[-63.552723,79.971493,0.0],[-63.552767,79.972299,0.0],[-63.551223,79.972302,0.0],[-63.551238,79.97257,0.0],[-63.549695,79.972573,0.0],[-63.549709,79.972842,0.0],[-63.548166,79.972844,0.0],[-63.54818,79.973113,0.0],[-63.546637,79.973115,0.0],[-63.546666,79.973653,0.0],[-63.545123,79.973655,0.0],[-63.545181,79.974731,0.0],[-63.543637,79.974733,0.0],[-63.543709,79.976077,0.0],[-63.545253,79.976074,0.0],[-63.545383,79.978493,0.0],[-63.546927,79.978491,0.0],[-63.546942,79.97876,0.0],[-63.548486,79.978757,0.0],[-63.548559,79.980101,0.0],[-63.547014,79.980103,0.0],[-63.547072,79.981178,0.0],[-63.545528,79.981181,0.0],[-63.545571,79.981987,0.0],[-63.544027,79.98199,0.0],[-63.544142,79.98414,0.0],[-63.545687,79.984137,0.0],[-63.545702,79.984406,0.0],[-63.547247,79.984404,0.0],[-63.547261,79.984672,0.0],[-63.548806,79.98467,0.0],[-63.548821,79.984939,0.0],[-63.555002,79.984929,0.0],[-63.555016,79.985197,0.0],[-63.559652,79.98519,0.0],[-63.559637,79.984921,0.0],[-63.561182,79.984918,0.0],[-63.561167,79.984649,0.0],[-63.562712,79.984647,0.0],[-63.562698,79.984378,0.0],[-63.564243,79.984375,0.0],[-63.564228,79.984107,0.0],[-63.565773,79.984104,0.0],[-63.565758,79.983835,0.0],[-63.567303,79.983833,0.0],[-63.567272,79.983295,0.0],[-63.568817,79.983293,0.0],[-63.568802,79.983024,0.0],[-63.571892,79.983019,0.0],[-63.571877,79.98275,0.0],[-63.573422,79.982747,0.0],[-63.573239,79.979522,0.0],[-63.574783,79.979519,0.0],[-63.574768,79.97925,0.0],[-63.577857,79.979245,0.0],[-63.577841,79.978976,0.0],[-63.579385,79.978974,0.0],[-63.57937,79.978705,0.0],[-63.580914,79.978702,0.0],[-63.580899,79.978433,0.0],[-63.582443,79.978431,0.0],[-63.582428,79.978162,0.0],[-63.583972,79.978159,0.0],[-63.583956,79.977891,0.0],[-63.587044,79.977885,0.0],[-63.587029,79.977616,0.0],[-63.588573,79.977614,0.0],[-63.588557,79.977345,0.0],[-63.590101,79.977342,0.0],[-63.590086,79.977073,0.0],[-63.591629,79.977071,0.0],[-63.591614,79.976802,0.0],[-63.593158,79.976799,0.0],[-63.593142,79.97653,0.0],[-63.59623,79.976525,0.0],[-63.596214,79.976256,0.0],[-63.597758,79.976253,0.0],[-63.597742,79.975985,0.0],[-63.599286,79.975982,0.0],[-63.59927,79.975713,0.0],[-63.600813,79.97571,0.0],[-63.600797,79.975442,0.0],[-63.602341,79.975439,0.0],[-63.602309,79.974901,0.0],[-63.600766,79.974904,0.0],[-63.60075,79.974635,0.0],[-63.599206,79.974638,0.0],[-63.599174,79.974101,0.0],[-63.600718,79.974098,0.0],[-63.600702,79.973829,0.0],[-63.602245,79.973826,0.0],[-63.602229,79.973557,0.0],[-63.603773,79.973555,0.0],[-63.603757,79.973286,0.0],[-63.6053,79.973283,0.0],[-63.605284,79.973014,0.0],[-63.606827,79.973012,0.0],[-63.606811,79.972743,0.0],[-63.609898,79.972737,0.0],[-63.609882,79.972468,0.0],[-63.612968,79.972463,0.0],[-63.612984,79.972731,0.0],[-63.614528,79.972729,0.0],[-63.614593,79.973804,0.0],[-63.613049,79.973807,0.0],[-63.613066,79.974075,0.0],[-63.614609,79.974072,0.0],[-63.614625,79.974341,0.0],[-63.616169,79.974338,0.0],[-63.616153,79.97407,0.0],[-63.617696,79.974067,0.0],[-63.617614,79.972723,0.0],[-63.616071,79.972726,0.0],[-63.616038,79.972188,0.0],[-63.614495,79.972191,0.0],[-63.614462,79.971654,0.0],[-63.612919,79.971656,0.0],[-63.612903,79.971388,0.0],[-63.615989,79.971382,0.0],[-63.616006,79.971651,0.0],[-63.617549,79.971648,0.0],[-63.617565,79.971917,0.0],[-63.619108,79.971914,0.0],[-63.619141,79.972451,0.0],[-63.620684,79.972448,0.0],[-63.620816,79.974599,0.0],[-63.633164,79.974575,0.0],[-63.633181,79.974844,0.0],[-63.64553,79.974821,0.0],[-63.645513,79.974552,0.0],[-63.647056,79.974549,0.0],[-63.647039,79.97428,0.0],[-63.648583,79.974277,0.0],[-63.648565,79.974008,0.0],[-63.651652,79.974002,0.0],[-63.651635,79.973734,0.0],[-63.653179,79.973731,0.0],[-63.653161,79.973462,0.0],[-63.654705,79.973459,0.0],[-63.654687,79.97319,0.0],[-63.656231,79.973187,0.0],[-63.656213,79.972918,0.0],[-63.657756,79.972915,0.0],[-63.657739,79.972646,0.0],[-63.659282,79.972643,0.0],[-63.659265,79.972375,0.0],[-63.660808,79.972372,0.0],[-63.66079,79.972103,0.0],[-63.662334,79.9721,0.0],[-63.662316,79.971831,0.0],[-63.663859,79.971828,0.0],[-63.663842,79.971559,0.0],[-63.665385,79.971556,0.0],[-63.665314,79.970481,0.0],[-63.656057,79.970499,0.0],[-63.656039,79.970231,0.0],[-63.654496,79.970234,0.0],[-63.654479,79.969965,0.0],[-63.656022,79.969962,0.0],[-63.656004,79.969693,0.0],[-63.657547,79.96969,0.0],[-63.65753,79.969421,0.0],[-63.663701,79.969409,0.0],[-63.663683,79.96914,0.0],[-63.669854,79.969128,0.0],[-63.669943,79.970472,0.0],[-63.680743,79.97045,0.0],[-63.680725,79.970181,0.0],[-63.689982,79.970162,0.0],[-63.689964,79.969893,0.0],[-63.694592,79.969884,0.0],[-63.694574,79.969615,0.0],[-63.696117,79.969612,0.0],[-63.696098,79.969343,0.0],[-63.697641,79.96934,0.0],[-63.697623,79.969071,0.0],[-63.699165,79.969068,0.0],[-63.699147,79.968799,0.0],[-63.700689,79.968796,0.0],[-63.700671,79.968527,0.0],[-63.702213,79.968524,0.0],[-63.702195,79.968255,0.0],[-63.703737,79.968252,0.0],[-63.703719,79.967983,0.0],[-63.706804,79.967977,0.0],[-63.706785,79.967708,0.0],[-63.70987,79.967701,0.0],[-63.709851,79.967433,0.0],[-63.711394,79.967429,0.0],[-63.711375,79.96716,0.0],[-63.71446,79.967154,0.0],[-63.714441,79.966885,0.0],[-63.728322,79.966855,0.0],[-63.728303,79.966586,0.0],[-63.731387,79.96658,0.0],[-63.731368,79.966311,0.0],[-63.73291,79.966307,0.0],[-63.732891,79.966039,0.0],[-63.734433,79.966035,0.0],[-63.734413,79.965767,0.0],[-63.737498,79.96576,0.0],[-63.737478,79.965491,0.0],[-63.73902,79.965488,0.0],[-63.738981,79.96495,0.0],[-63.740523,79.964947,0.0],[-63.740504,79.964678,0.0],[-63.743588,79.964671,0.0],[-63.743568,79.964402,0.0],[-63.74511,79.964399,0.0],[-63.74509,79.96413,0.0],[-63.749716,79.96412,0.0],[-63.749696,79.963851,0.0],[-63.751238,79.963848,0.0],[-63.751218,79.963579,0.0],[-63.754302,79.963572,0.0],[-63.754282,79.963303,0.0],[-63.757365,79.963296,0.0],[-63.757345,79.963027,0.0],[-63.758887,79.963024,0.0],[-63.758867,79.962755,0.0],[-63.76195,79.962748,0.0],[-63.76193,79.962479,0.0],[-63.763472,79.962476,0.0],[-63.763451,79.962207,0.0],[-63.764993,79.962203,0.0],[-63.764973,79.961935,0.0],[-63.766514,79.961931,0.0],[-63.766494,79.961662,0.0],[-63.769577,79.961655,0.0],[-63.769557,79.961387,0.0],[-63.77264,79.961379,0.0],[-63.772619,79.961111,0.0],[-63.780327,79.961093,0.0],[-63.780347,79.961362,0.0],[-63.781889,79.961358,0.0],[-63.781909,79.961627,0.0],[-63.784993,79.961619,0.0],[-63.785055,79.962426,0.0],[-63.783513,79.962429,0.0],[-63.783534,79.962698,0.0],[-63.781992,79.962702,0.0],[-63.782013,79.96297,0.0],[-63.780471,79.962974,0.0],[-63.780492,79.963243,0.0],[-63.777408,79.96325,0.0],[-63.777429,79.963519,0.0],[-63.775887,79.963522,0.0],[-63.775908,79.963791,0.0],[-63.774366,79.963795,0.0],[-63.774386,79.964063,0.0],[-63.772845,79.964067,0.0],[-63.772865,79.964336,0.0],[-63.771323,79.964339,0.0],[-63.771344,79.964608,0.0],[-63.769802,79.964612,0.0],[-63.769904,79.965955,0.0],[-63.765277,79.965966,0.0],[-63.765297,79.966235,0.0],[-63.763755,79.966238,0.0],[-63.763796,79.966776,0.0],[-63.76688,79.966769,0.0],[-63.76686,79.9665,0.0],[-63.769944,79.966493,0.0],[-63.770149,79.969181,0.0],[-63.768606,79.969184,0.0],[-63.768626,79.969453,0.0],[-63.763998,79.969463,0.0],[-63.763958,79.968926,0.0],[-63.7655,79.968922,0.0],[-63.76546,79.968385,0.0],[-63.763917,79.968388,0.0],[-63.763897,79.96812,0.0],[-63.756184,79.968137,0.0],[-63.756204,79.968406,0.0],[-63.754662,79.968409,0.0],[-63.754682,79.968678,0.0],[-63.753139,79.968682,0.0],[-63.753159,79.96895,0.0],[-63.751616,79.968954,0.0],[-63.751636,79.969223,0.0],[-63.750094,79.969226,0.0],[-63.750113,79.969495,0.0],[-63.748571,79.969498,0.0],[-63.748591,79.969767,0.0],[-63.745505,79.969774,0.0],[-63.745525,79.970043,0.0],[-63.742439,79.97005,0.0],[-63.742459,79.970318,0.0],[-63.740916,79.970322,0.0],[-63.740936,79.970591,0.0],[-63.739393,79.970594,0.0],[-63.739412,79.970863,0.0],[-63.737869,79.970866,0.0],[-63.737889,79.971135,0.0],[-63.734803,79.971142,0.0],[-63.734822,79.971411,0.0],[-63.733279,79.971414,0.0],[-63.733318,79.971951,0.0],[-63.731775,79.971955,0.0],[-63.731814,79.972492,0.0],[-63.730271,79.972496,0.0],[-63.730445,79.974915,0.0],[-63.731989,79.974911,0.0],[-63.732027,79.975449,0.0],[-63.733571,79.975445,0.0],[-63.733591,79.975714,0.0],[-63.735134,79.975711,0.0],[-63.735154,79.975979,0.0],[-63.738241,79.975973,0.0],[-63.738261,79.976241,0.0],[-63.739805,79.976238,0.0],[-63.739824,79.976507,0.0],[-63.741368,79.976503,0.0],[-63.741388,79.976772,0.0],[-63.744475,79.976765,0.0],[-63.744495,79.977034,0.0],[-63.746039,79.97703,0.0],[-63.746059,79.977299,0.0],[-63.747603,79.977296,0.0],[-63.747623,79.977565,0.0],[-63.752255,79.977554,0.0],[-63.752275,79.977823,0.0],[-63.763083,79.977798,0.0],[-63.763062,79.97753,0.0],[-63.764606,79.977526,0.0],[-63.764586,79.977257,0.0],[-63.770762,79.977243,0.0],[-63.770741,79.976974,0.0],[-63.772285,79.976971,0.0],[-63.772265,79.976702,0.0],[-63.773808,79.976699,0.0],[-63.773788,79.97643,0.0],[-63.775332,79.976426,0.0],[-63.775291,79.975889,0.0],[-63.773747,79.975892,0.0],[-63.773706,79.975355,0.0],[-63.772162,79.975358,0.0],[-63.772142,79.97509,0.0],[-63.773685,79.975086,0.0],[-63.773665,79.974817,0.0],[-63.775208,79.974814,0.0],[-63.775147,79.974007,0.0],[-63.773603,79.974011,0.0],[-63.773562,79.973473,0.0],[-63.772019,79.973477,0.0],[-63.771998,79.973208,0.0],[-63.770455,79.973212,0.0],[-63.770414,79.972674,0.0],[-63.771957,79.972671,0.0],[-63.771937,79.972402,0.0],[-63.775023,79.972395,0.0],[-63.775044,79.972664,0.0],[-63.776587,79.97266,0.0],[-63.776608,79.972929,0.0],[-63.778151,79.972925,0.0],[-63.778171,79.973194,0.0],[-63.779715,79.97319,0.0],[-63.779735,79.973459,0.0],[-63.781279,79.973456,0.0],[-63.781299,79.973724,0.0],[-63.782843,79.973721,0.0],[-63.782864,79.973989,0.0],[-63.784407,79.973986,0.0],[-63.784449,79.974523,0.0],[-63.785992,79.97452,0.0],[-63.786034,79.975057,0.0],[-63.787577,79.975054,0.0],[-63.787619,79.975591,0.0],[-63.789163,79.975587,0.0],[-63.789184,79.975856,0.0],[-63.790728,79.975853,0.0],[-63.790748,79.976121,0.0],[-63.792292,79.976118,0.0],[-63.792313,79.976386,0.0],[-63.796945,79.976375,0.0],[-63.796966,79.976644,0.0],[-63.79851,79.97664,0.0],[-63.798531,79.976909,0.0],[-63.801618,79.976902,0.0],[-63.801576,79.976364,0.0],[-63.800032,79.976368,0.0],[-63.79999,79.97583,0.0],[-63.798446,79.975834,0.0],[-63.798425,79.975565,0.0],[-63.803056,79.975554,0.0],[-63.803077,79.975823,0.0],[-63.806164,79.975816,0.0],[-63.806186,79.976084,0.0],[-63.809273,79.976077,0.0],[-63.809252,79.975808,0.0],[-63.810795,79.975804,0.0],[-63.810774,79.975536,0.0],[-63.812318,79.975532,0.0],[-63.812296,79.975263,0.0],[-63.81384,79.975259,0.0],[-63.813796,79.974722,0.0],[-63.81534,79.974718,0.0],[-63.815318,79.974449,0.0],[-63.816862,79.974446,0.0],[-63.816818,79.973908,0.0],[-63.818362,79.973904,0.0],[-63.81834,79.973636,0.0],[-63.819883,79.973632,0.0],[-63.819862,79.973363,0.0],[-63.821405,79.973359,0.0],[-63.821383,79.973091,0.0],[-63.822926,79.973087,0.0],[-63.822905,79.972818,0.0],[-63.827534,79.972807,0.0],[-63.827512,79.972538,0.0],[-63.829056,79.972534,0.0],[-63.829034,79.972265,0.0],[-63.830577,79.972261,0.0],[-63.830555,79.971993,0.0],[-63.836727,79.971977,0.0],[-63.836705,79.971708,0.0],[-63.842877,79.971693,0.0],[-63.842855,79.971424,0.0],[-63.844398,79.97142,0.0],[-63.844375,79.971152,0.0],[-63.847461,79.971144,0.0],[-63.847439,79.970875,0.0],[-63.848982,79.970871,0.0],[-63.848959,79.970602,0.0],[-63.850502,79.970598,0.0],[-63.850479,79.97033,0.0],[-63.852022,79.970326,0.0],[-63.852,79.970057,0.0],[-63.855085,79.970049,0.0],[-63.855063,79.96978,0.0],[-63.856605,79.969776,0.0],[-63.856583,79.969508,0.0],[-63.858125,79.969504,0.0],[-63.858103,79.969235,0.0],[-63.85656,79.969239,0.0],[-63.856537,79.96897,0.0],[-63.854995,79.968974,0.0],[-63.854972,79.968705,0.0],[-63.853429,79.968709,0.0],[-63.853339,79.967634,0.0],[-63.856424,79.967626,0.0],[-63.856469,79.968164,0.0],[-63.858012,79.96816,0.0],[-63.858034,79.968429,0.0],[-63.861119,79.968421,0.0],[-63.861142,79.968689,0.0],[-63.862685,79.968685,0.0],[-63.862776,79.96976,0.0],[-63.861233,79.969764,0.0],[-63.861256,79.970033,0.0],[-63.859714,79.970037,0.0],[-63.859736,79.970306,0.0],[-63.856651,79.970314,0.0],[-63.856673,79.970583,0.0],[-63.855131,79.970587,0.0],[-63.855153,79.970855,0.0],[-63.85361,79.970859,0.0],[-63.853633,79.971128,0.0],[-63.850547,79.971136,0.0],[-63.85057,79.971405,0.0],[-63.849027,79.971409,0.0],[-63.849117,79.972484,0.0],[-63.85066,79.97248,0.0],[-63.850705,79.973017,0.0],[-63.852248,79.973013,0.0],[-63.852271,79.973282,0.0],[-63.855357,79.973274,0.0],[-63.85538,79.973543,0.0],[-63.856923,79.973539,0.0],[-63.856946,79.973808,0.0],[-63.858489,79.973804,0.0],[-63.858581,79.974879,0.0],[-63.860124,79.974875,0.0],[-63.860147,79.975143,0.0],[-63.86169,79.975139,0.0],[-63.861713,79.975408,0.0],[-63.867888,79.975392,0.0],[-63.867865,79.975123,0.0],[-63.869408,79.975119,0.0],[-63.869385,79.974851,0.0],[-63.870929,79.974847,0.0],[-63.870836,79.973772,0.0],[-63.87238,79.973768,0.0],[-63.872287,79.972693,0.0],[-63.87383,79.972689,0.0],[-63.873761,79.971882,0.0],[-63.875304,79.971878,0.0],[-63.875257,79.971341,0.0],[-63.8768,79.971337,0.0],[-63.876754,79.970799,0.0],[-63.878297,79.970795,0.0],[-63.878273,79.970527,0.0],[-63.885988,79.970506,0.0],[-63.886082,79.971581,0.0],[-63.887625,79.971577,0.0],[-63.887601,79.971308,0.0],[-63.889144,79.971304,0.0],[-63.889168,79.971573,0.0],[-63.892254,79.971565,0.0],[-63.892277,79.971833,0.0],[-63.89382,79.971829,0.0],[-63.893868,79.972367,0.0],[-63.895411,79.972363,0.0],[-63.895553,79.973975,0.0],[-63.89401,79.973979,0.0],[-63.894152,79.975592,0.0],[-63.895696,79.975588,0.0],[-63.89572,79.975856,0.0],[-63.897263,79.975852,0.0],[-63.897287,79.976121,0.0],[-63.903462,79.976104,0.0],[-63.903438,79.975836,0.0],[-63.906525,79.975827,0.0],[-63.906549,79.976096,0.0],[-63.912724,79.976079,0.0],[-63.912748,79.976348,0.0],[-63.917379,79.976335,0.0],[-63.917404,79.976604,0.0],[-63.918948,79.9766,0.0],[-63.919118,79.978481,0.0],[-63.920662,79.978477,0.0],[-63.920833,79.980358,0.0],[-63.923922,79.980349,0.0],[-63.923897,79.980081,0.0],[-63.925442,79.980076,0.0],[-63.925417,79.979808,0.0],[-63.926961,79.979803,0.0],[-63.926937,79.979535,0.0],[-63.928481,79.97953,0.0],[-63.928456,79.979262,0.0],[-63.933089,79.979249,0.0],[-63.933064,79.97898,0.0],[-63.937696,79.978967,0.0],[-63.937672,79.978698,0.0],[-63.943848,79.978681,0.0],[-63.943823,79.978412,0.0],[-63.948455,79.978399,0.0],[-63.948505,79.978937,0.0],[-63.945417,79.978945,0.0],[-63.945517,79.98002,0.0],[-63.947062,79.980016,0.0],[-63.947087,79.980285,0.0],[-63.957897,79.980254,0.0],[-63.957922,79.980523,0.0],[-63.959467,79.980518,0.0],[-63.959492,79.980787,0.0],[-63.961036,79.980782,0.0],[-63.961062,79.981051,0.0],[-63.962606,79.981047,0.0],[-63.962632,79.981316,0.0],[-63.970354,79.981293,0.0],[-63.97038,79.981562,0.0],[-63.973469,79.981553,0.0],[-63.973495,79.981822,0.0],[-63.976584,79.981813,0.0],[-63.97661,79.982081,0.0],[-63.985877,79.982054,0.0],[-63.985851,79.981785,0.0],[-63.98894,79.981776,0.0],[-63.988966,79.982045,0.0],[-63.990511,79.982041,0.0],[-63.990563,79.982578,0.0],[-63.987474,79.982587,0.0],[-63.9875,79.982856,0.0],[-63.978232,79.982883,0.0],[-63.978258,79.983152,0.0],[-63.976714,79.983156,0.0],[-63.976843,79.9845,0.0],[-63.975298,79.984505,0.0],[-63.975324,79.984773,0.0],[-63.973779,79.984778,0.0],[-63.973805,79.985047,0.0],[-63.97226,79.985051,0.0],[-63.972286,79.98532,0.0],[-63.970741,79.985324,0.0],[-63.970767,79.985593,0.0],[-63.967676,79.985602,0.0],[-63.967702,79.985871,0.0],[-63.964612,79.98588,0.0],[-63.964637,79.986148,0.0],[-63.961547,79.986157,0.0],[-63.961573,79.986426,0.0],[-63.960027,79.986431,0.0],[-63.960053,79.986699,0.0],[-63.958508,79.986704,0.0],[-63.958533,79.986972,0.0],[-63.960078,79.986968,0.0],[-63.960104,79.987237,0.0],[-63.961649,79.987232,0.0],[-63.961675,79.987501,0.0],[-63.96322,79.987497,0.0],[-63.963246,79.987765,0.0],[-63.964791,79.987761,0.0],[-63.964817,79.98803,0.0],[-63.967908,79.988021,0.0],[-63.967933,79.988289,0.0],[-63.969479,79.988285,0.0],[-63.969505,79.988554,0.0],[-63.975687,79.988536,0.0],[-63.975661,79.988267,0.0],[-63.974115,79.988271,0.0],[-63.97409,79.988003,0.0],[-63.972544,79.988007,0.0],[-63.972518,79.987739,0.0],[-63.970973,79.987743,0.0],[-63.970921,79.987206,0.0],[-63.972467,79.987201,0.0],[-63.972441,79.986932,0.0],[-63.975531,79.986923,0.0],[-63.975557,79.987192,0.0],[-63.978648,79.987183,0.0],[-63.978674,79.987452,0.0],[-63.981765,79.987443,0.0],[-63.981791,79.987711,0.0],[-63.984882,79.987702,0.0],[-63.984803,79.986896,0.0],[-63.986349,79.986892,0.0],[-63.986375,79.98716,0.0],[-63.991011,79.987147,0.0],[-63.991037,79.987415,0.0],[-63.992582,79.987411,0.0],[-63.992635,79.987948,0.0],[-63.994181,79.987944,0.0],[-63.994233,79.988481,0.0],[-63.995779,79.988477,0.0],[-63.995805,79.988745,0.0],[-63.998897,79.988736,0.0],[-63.99887,79.988467,0.0],[-64.01278,79.988426,0.0],[-64.012807,79.988694,0.0],[-64.018989,79.988675,0.0],[-64.018962,79.988407,0.0],[-64.020507,79.988402,0.0],[-64.02048,79.988133,0.0],[-64.025117,79.988119,0.0],[-64.025144,79.988388,0.0],[-64.028235,79.988378,0.0],[-64.028262,79.988647,0.0],[-64.031353,79.988638,0.0],[-64.031298,79.9881,0.0],[-64.029753,79.988105,0.0],[-64.029644,79.98703,0.0],[-64.028098,79.987035,0.0],[-64.027989,79.98596,0.0],[-64.026444,79.985964,0.0],[-64.026417,79.985696,0.0],[-64.024872,79.9857,0.0],[-64.024844,79.985432,0.0],[-64.023299,79.985436,0.0],[-64.023272,79.985168,0.0],[-64.029452,79.985149,0.0],[-64.02948,79.985418,0.0],[-64.031025,79.985413,0.0],[-64.031052,79.985681,0.0],[-64.032597,79.985677,0.0],[-64.032624,79.985945,0.0],[-64.03417,79.985941,0.0],[-64.034197,79.986209,0.0],[-64.035742,79.986205,0.0],[-64.03577,79.986473,0.0],[-64.037315,79.986469,0.0],[-64.037398,79.987275,0.0],[-64.038943,79.98727,0.0],[-64.038971,79.987539,0.0],[-64.040516,79.987534,0.0],[-64.040488,79.987265,0.0],[-64.042034,79.98726,0.0],[-64.041951,79.986454,0.0],[-64.045041,79.986445,0.0],[-64.045069,79.986713,0.0],[-64.049704,79.986699,0.0],[-64.049677,79.98643,0.0],[-64.051222,79.986425,0.0],[-64.051194,79.986156,0.0],[-64.052739,79.986152,0.0],[-64.052711,79.985883,0.0],[-64.054256,79.985878,0.0],[-64.054284,79.986147,0.0],[-64.055829,79.986142,0.0],[-64.055857,79.986411,0.0],[-64.054312,79.986415,0.0],[-64.054368,79.986953,0.0],[-64.052823,79.986958,0.0],[-64.052907,79.987764,0.0],[-64.054452,79.987759,0.0],[-64.05448,79.988028,0.0],[-64.056026,79.988023,0.0],[-64.056054,79.988292,0.0],[-64.057599,79.988287,0.0],[-64.057627,79.988556,0.0],[-64.059173,79.988551,0.0],[-64.059201,79.988819,0.0],[-64.060746,79.988815,0.0],[-64.060775,79.989083,0.0],[-64.06232,79.989078,0.0],[-64.062348,79.989347,0.0],[-64.06544,79.989337,0.0],[-64.065468,79.989606,0.0],[-64.070105,79.989591,0.0],[-64.070133,79.98986,0.0],[-64.073225,79.98985,0.0],[-64.073253,79.990119,0.0],[-64.074799,79.990114,0.0],[-64.074885,79.99092,0.0],[-64.076431,79.990915,0.0],[-64.076488,79.991452,0.0],[-64.074942,79.991457,0.0],[-64.074971,79.991726,0.0],[-64.070333,79.991741,0.0],[-64.070418,79.992547,0.0],[-64.07351,79.992537,0.0],[-64.073539,79.992806,0.0],[-64.075085,79.992801,0.0],[-64.075113,79.99307,0.0],[-64.07666,79.993065,0.0],[-64.076688,79.993334,0.0],[-64.082873,79.993314,0.0],[-64.082902,79.993582,0.0],[-64.089087,79.993562,0.0],[-64.089116,79.993831,0.0],[-64.092209,79.993821,0.0],[-64.092238,79.99409,0.0],[-64.09533,79.99408,0.0],[-64.095359,79.994348,0.0],[-64.099999,79.994333,0.0],[-64.100028,79.994602,0.0],[-64.101574,79.994597,0.0],[-64.101633,79.995134,0.0],[-64.104726,79.995124,0.0],[-64.104696,79.994855,0.0],[-64.123254,79.994794,0.0],[-64.123284,79.995062,0.0],[-64.126377,79.995052,0.0],[-64.126407,79.995321,0.0],[-64.1295,79.99531,0.0],[-64.12953,79.995579,0.0],[-64.132623,79.995568,0.0],[-64.132653,79.995837,0.0],[-64.137293,79.995821,0.0],[-64.137323,79.99609,0.0],[-64.141963,79.996074,0.0],[-64.141993,79.996343,0.0],[-64.155913,79.996295,0.0],[-64.155944,79.996564,0.0],[-64.15749,79.996559,0.0],[-64.157521,79.996827,0.0],[-64.159068,79.996822,0.0],[-64.159129,79.99736,0.0],[-64.156036,79.99737,0.0],[-64.156005,79.997102,0.0],[-64.148271,79.997128,0.0],[-64.148302,79.997397,0.0],[-64.143661,79.997413,0.0],[-64.143631,79.997144,0.0],[-64.138991,79.99716,0.0],[-64.13896,79.996891,0.0],[-64.137414,79.996896,0.0],[-64.137383,79.996628,0.0],[-64.12965,79.996654,0.0],[-64.12962,79.996385,0.0],[-64.128073,79.99639,0.0],[-64.128043,79.996122,0.0],[-64.12495,79.996132,0.0],[-64.12492,79.995863,0.0],[-64.12028,79.995879,0.0],[-64.12025,79.99561,0.0],[-64.106331,79.995656,0.0],[-64.106361,79.995925,0.0],[-64.103267,79.995935,0.0],[-64.103297,79.996204,0.0],[-64.10175,79.996209,0.0],[-64.101779,79.996478,0.0],[-64.098686,79.996488,0.0],[-64.098715,79.996757,0.0],[-64.086341,79.996797,0.0],[-64.08637,79.997066,0.0],[-64.081729,79.997081,0.0],[-64.081758,79.99735,0.0],[-64.080211,79.997355,0.0],[-64.08024,79.997623,0.0],[-64.072506,79.997648,0.0],[-64.072534,79.997917,0.0],[-64.064799,79.997942,0.0],[-64.064771,79.997673,0.0],[-64.061677,79.997683,0.0],[-64.061649,79.997414,0.0],[-64.047727,79.997458,0.0],[-64.047755,79.997727,0.0],[-64.041567,79.997746,0.0],[-64.041595,79.998015,0.0],[-64.03386,79.998039,0.0],[-64.033888,79.998307,0.0],[-64.030794,79.998317,0.0],[-64.030821,79.998586,0.0],[-64.029274,79.99859,0.0],[-64.029356,79.999397,0.0],[-64.027809,79.999401,0.0],[-64.027836,79.99967,0.0],[-64.023195,79.999684,0.0],[-64.023222,79.999953,0.0],[-64.021674,79.999958,0.0],[-64.021702,80.000226,0.0],[-64.020154,80.000231,0.0],[-64.020181,80.0005,0.0],[-64.018634,80.000505,0.0],[-64.018661,80.000773,0.0],[-64.017114,80.000778,0.0],[-64.017141,80.001047,0.0],[-64.015593,80.001052,0.0],[-64.01562,80.00132,0.0],[-64.014073,80.001325,0.0],[-64.014127,80.001862,0.0],[-64.026507,80.001825,0.0],[-64.02648,80.001556,0.0],[-64.035765,80.001527,0.0],[-64.035793,80.001796,0.0],[-64.03734,80.001791,0.0],[-64.037368,80.00206,0.0],[-64.038915,80.002055,0.0],[-64.039026,80.00313,0.0],[-64.037478,80.003135,0.0],[-64.037561,80.003941,0.0],[-64.036013,80.003946,0.0],[-64.036068,80.004484,0.0],[-64.037616,80.004479,0.0],[-64.037644,80.004747,0.0],[-64.039192,80.004743,0.0],[-64.039303,80.005818,0.0],[-64.036206,80.005827,0.0],[-64.036234,80.006096,0.0],[-64.033137,80.006105,0.0],[-64.033165,80.006374,0.0],[-64.030068,80.006384,0.0],[-64.030096,80.006652,0.0],[-64.022354,80.006676,0.0],[-64.022381,80.006945,0.0],[-64.017736,80.006959,0.0],[-64.017764,80.007228,0.0],[-64.008473,80.007256,0.0],[-64.0085,80.007525,0.0],[-64.002306,80.007543,0.0],[-64.002333,80.007812,0.0],[-64.000784,80.007817,0.0],[-64.000811,80.008085,0.0],[-64.00236,80.008081,0.0],[-64.002413,80.008618,0.0],[-64.003962,80.008614,0.0],[-64.004015,80.009151,0.0],[-64.005564,80.009146,0.0],[-64.00559,80.009415,0.0],[-64.008688,80.009406,0.0],[-64.008715,80.009675,0.0],[-64.010264,80.00967,0.0],[-64.01029,80.009939,0.0],[-64.011839,80.009934,0.0],[-64.011866,80.010203,0.0],[-64.013415,80.010198,0.0],[-64.013442,80.010467,0.0],[-64.01654,80.010457,0.0],[-64.016567,80.010726,0.0],[-64.018116,80.010721,0.0],[-64.018143,80.01099,0.0],[-64.021241,80.010981,0.0],[-64.021268,80.011249,0.0],[-64.024366,80.01124,0.0],[-64.024393,80.011509,0.0],[-64.02904,80.011495,0.0],[-64.029068,80.011763,0.0],[-64.033715,80.011749,0.0],[-64.033743,80.012018,0.0],[-64.035292,80.012013,0.0],[-64.035319,80.012282,0.0],[-64.038418,80.012272,0.0],[-64.038445,80.012541,0.0],[-64.039995,80.012536,0.0],[-64.040022,80.012805,0.0],[-64.041571,80.0128,0.0],[-64.041599,80.013069,0.0],[-64.043148,80.013064,0.0],[-64.043204,80.013601,0.0],[-64.044753,80.013596,0.0],[-64.044976,80.015746,0.0],[-64.043426,80.015751,0.0],[-64.043454,80.01602,0.0],[-64.041904,80.016025,0.0],[-64.041932,80.016293,0.0],[-64.038833,80.016303,0.0],[-64.03886,80.016572,0.0],[-64.037311,80.016577,0.0],[-64.037338,80.016845,0.0],[-64.034238,80.016855,0.0],[-64.034266,80.017124,0.0],[-64.032716,80.017128,0.0],[-64.032744,80.017397,0.0],[-64.031194,80.017402,0.0],[-64.031221,80.017671,0.0],[-64.029671,80.017675,0.0],[-64.029699,80.017944,0.0],[-64.028149,80.017949,0.0],[-64.028176,80.018218,0.0],[-64.026626,80.018222,0.0],[-64.026653,80.018491,0.0],[-64.023553,80.018501,0.0],[-64.02358,80.018769,0.0],[-64.01893,80.018784,0.0],[-64.018794,80.01744,0.0],[-64.017244,80.017445,0.0],[-64.017217,80.017176,0.0],[-64.015667,80.017181,0.0],[-64.015694,80.017449,0.0],[-64.014144,80.017454,0.0],[-64.014171,80.017723,0.0],[-64.009521,80.017737,0.0],[-64.009494,80.017468,0.0],[-64.001744,80.017491,0.0],[-64.001718,80.017222,0.0],[-63.998618,80.017232,0.0],[-63.998591,80.016963,0.0],[-63.997041,80.016968,0.0],[-63.997015,80.016699,0.0],[-63.995465,80.016703,0.0],[-63.995438,80.016435,0.0],[-63.996988,80.01643,0.0],[-63.996908,80.015624,0.0],[-63.995359,80.015628,0.0],[-63.995332,80.01536,0.0],[-63.990683,80.015373,0.0],[-63.990657,80.015105,0.0],[-63.987558,80.015114,0.0],[-63.987531,80.014845,0.0],[-63.984432,80.014854,0.0],[-63.984406,80.014586,0.0],[-63.982856,80.01459,0.0],[-63.98283,80.014321,0.0],[-63.981281,80.014326,0.0],[-63.981307,80.014595,0.0],[-63.979757,80.014599,0.0],[-63.979783,80.014868,0.0],[-63.978234,80.014872,0.0],[-63.978338,80.015947,0.0],[-63.976788,80.015952,0.0],[-63.976919,80.017296,0.0],[-63.975369,80.0173,0.0],[-63.975395,80.017569,0.0],[-63.973845,80.017573,0.0],[-63.973819,80.017305,0.0],[-63.972269,80.017309,0.0],[-63.972217,80.016772,0.0],[-63.970667,80.016776,0.0],[-63.970641,80.016507,0.0],[-63.969091,80.016512,0.0],[-63.96904,80.015974,0.0],[-63.96749,80.015979,0.0],[-63.967438,80.015441,0.0],[-63.965889,80.015446,0.0],[-63.965837,80.014908,0.0],[-63.964288,80.014913,0.0],[-63.964236,80.014375,0.0],[-63.962687,80.01438,0.0],[-63.962661,80.014111,0.0],[-63.959562,80.01412,0.0],[-63.959537,80.013851,0.0],[-63.951789,80.013873,0.0],[-63.951764,80.013604,0.0],[-63.947116,80.013618,0.0],[-63.947091,80.013349,0.0],[-63.943992,80.013358,0.0],[-63.944017,80.013626,0.0],[-63.942468,80.013631,0.0],[-63.942518,80.014168,0.0],[-63.940968,80.014173,0.0],[-63.941018,80.01471,0.0],[-63.939469,80.014714,0.0],[-63.939494,80.014983,0.0],[-63.937944,80.014987,0.0],[-63.938019,80.015794,0.0],[-63.936469,80.015798,0.0],[-63.936494,80.016067,0.0],[-63.931845,80.01608,0.0],[-63.93182,80.015811,0.0],[-63.93027,80.015815,0.0],[-63.930246,80.015547,0.0],[-63.928696,80.015551,0.0],[-63.928671,80.015282,0.0],[-63.924022,80.015295,0.0],[-63.923998,80.015026,0.0],[-63.922448,80.01503,0.0],[-63.922423,80.014762,0.0],[-63.919324,80.01477,0.0],[-63.9193,80.014501,0.0],[-63.916201,80.01451,0.0],[-63.916176,80.014241,0.0],[-63.913077,80.01425,0.0],[-63.913053,80.013981,0.0],[-63.911503,80.013985,0.0],[-63.911479,80.013716,0.0],[-63.90993,80.013721,0.0],[-63.909881,80.013183,0.0],[-63.91143,80.013179,0.0],[-63.911333,80.012104,0.0],[-63.909784,80.012108,0.0],[-63.90976,80.011839,0.0],[-63.905113,80.011852,0.0],[-63.905137,80.012121,0.0],[-63.903587,80.012125,0.0],[-63.903611,80.012394,0.0],[-63.902062,80.012398,0.0],[-63.90211,80.012935,0.0],[-63.900561,80.012939,0.0],[-63.900585,80.013208,0.0],[-63.897486,80.013216,0.0],[-63.897534,80.013754,0.0],[-63.899083,80.01375,0.0],[-63.899107,80.014019,0.0],[-63.900657,80.014014,0.0],[-63.900681,80.014283,0.0],[-63.897582,80.014291,0.0],[-63.897558,80.014023,0.0],[-63.896008,80.014027,0.0],[-63.895985,80.013758,0.0],[-63.892886,80.013766,0.0],[-63.892862,80.013498,0.0],[-63.891313,80.013502,0.0],[-63.891289,80.013233,0.0],[-63.881993,80.013258,0.0],[-63.881969,80.012989,0.0],[-63.875772,80.013005,0.0],[-63.875795,80.013274,0.0],[-63.874246,80.013278,0.0],[-63.874269,80.013547,0.0],[-63.875818,80.013543,0.0],[-63.875888,80.014349,0.0],[-63.877438,80.014345,0.0],[-63.877461,80.014614,0.0],[-63.879011,80.014609,0.0],[-63.879034,80.014878,0.0],[-63.882133,80.01487,0.0],[-63.882157,80.015139,0.0],[-63.883707,80.015135,0.0],[-63.88373,80.015403,0.0],[-63.88528,80.015399,0.0],[-63.885303,80.015668,0.0],[-63.886853,80.015664,0.0],[-63.8869,80.016202,0.0],[-63.885351,80.016206,0.0],[-63.885327,80.015937,0.0],[-63.880678,80.015949,0.0],[-63.880654,80.01568,0.0],[-63.876005,80.015693,0.0],[-63.875982,80.015424,0.0],[-63.872882,80.015432,0.0],[-63.872812,80.014626,0.0],[-63.874362,80.014622,0.0],[-63.874339,80.014353,0.0],[-63.86969,80.014365,0.0],[-63.869713,80.014634,0.0],[-63.871263,80.01463,0.0],[-63.871309,80.015167,0.0],[-63.86976,80.015171,0.0],[-63.869783,80.01544,0.0],[-63.865134,80.015452,0.0],[-63.865157,80.015721,0.0],[-63.862057,80.015729,0.0],[-63.86208,80.015997,0.0],[-63.854331,80.016017,0.0],[-63.854354,80.016286,0.0],[-63.852804,80.01629,0.0],[-63.852827,80.016559,0.0],[-63.851277,80.016563,0.0],[-63.851322,80.0171,0.0],[-63.849772,80.017104,0.0],[-63.849795,80.017373,0.0],[-63.846695,80.017381,0.0],[-63.846672,80.017112,0.0],[-63.843572,80.01712,0.0],[-63.84355,80.016851,0.0],[-63.842,80.016855,0.0],[-63.841977,80.016586,0.0],[-63.840427,80.01659,0.0],[-63.840405,80.016321,0.0],[-63.835755,80.016333,0.0],[-63.835778,80.016602,0.0],[-63.832678,80.016609,0.0],[-63.8327,80.016878,0.0],[-63.83115,80.016882,0.0],[-63.831239,80.017957,0.0],[-63.832789,80.017953,0.0],[-63.832811,80.018222,0.0],[-63.834361,80.018218,0.0],[-63.834383,80.018487,0.0],[-63.835934,80.018483,0.0],[-63.835978,80.01902,0.0],[-63.831327,80.019032,0.0],[-63.831305,80.018763,0.0],[-63.825104,80.018778,0.0],[-63.825126,80.019047,0.0],[-63.823576,80.019051,0.0],[-63.823554,80.018782,0.0],[-63.820453,80.01879,0.0],[-63.820432,80.018521,0.0],[-63.817331,80.018529,0.0],[-63.817309,80.01826,0.0],[-63.811109,80.018275,0.0],[-63.81113,80.018544,0.0],[-63.80648,80.018555,0.0],[-63.806458,80.018286,0.0],[-63.803358,80.018294,0.0],[-63.803379,80.018562,0.0],[-63.786327,80.018603,0.0],[-63.786348,80.018872,0.0],[-63.777046,80.018893,0.0],[-63.777067,80.019162,0.0],[-63.753811,80.019215,0.0],[-63.753832,80.019484,0.0],[-63.736777,80.019522,0.0],[-63.736758,80.019253,0.0],[-63.732107,80.019263,0.0],[-63.732126,80.019532,0.0],[-63.730576,80.019535,0.0],[-63.730634,80.020341,0.0],[-63.729084,80.020345,0.0],[-63.729122,80.020882,0.0],[-63.727572,80.020886,0.0],[-63.727591,80.021154,0.0],[-63.726041,80.021158,0.0],[-63.72606,80.021427,0.0],[-63.724509,80.02143,0.0],[-63.724548,80.021967,0.0],[-63.726099,80.021964,0.0],[-63.726079,80.021695,0.0],[-63.730731,80.021685,0.0],[-63.730751,80.021954,0.0],[-63.736954,80.02194,0.0],[-63.736974,80.022209,0.0],[-63.744728,80.022192,0.0],[-63.744708,80.021923,0.0],[-63.76952,80.021867,0.0],[-63.76954,80.022136,0.0],[-63.775744,80.022122,0.0],[-63.775723,80.021853,0.0],[-63.777274,80.02185,0.0],[-63.777232,80.021312,0.0],[-63.778783,80.021308,0.0],[-63.778741,80.020771,0.0],[-63.777191,80.020775,0.0],[-63.777149,80.020237,0.0],[-63.775599,80.020241,0.0],[-63.775558,80.019703,0.0],[-63.777108,80.019699,0.0],[-63.777087,80.019431,0.0],[-63.778638,80.019427,0.0],[-63.778658,80.019696,0.0],[-63.780209,80.019692,0.0],[-63.780271,80.020499,0.0],[-63.781822,80.020495,0.0],[-63.781884,80.021301,0.0],[-63.783435,80.021298,0.0],[-63.783456,80.021566,0.0],[-63.788108,80.021555,0.0],[-63.788129,80.021824,0.0],[-63.798984,80.021799,0.0],[-63.799005,80.022067,0.0],[-63.809861,80.022041,0.0],[-63.809882,80.02231,0.0],[-63.811433,80.022306,0.0],[-63.811455,80.022575,0.0],[-63.813005,80.022571,0.0],[-63.813027,80.02284,0.0],[-63.809925,80.022848,0.0],[-63.809969,80.023385,0.0],[-63.808418,80.023389,0.0],[-63.808439,80.023658,0.0],[-63.806888,80.023661,0.0],[-63.80691,80.02393,0.0],[-63.805359,80.023934,0.0],[-63.80538,80.024203,0.0],[-63.803829,80.024206,0.0],[-63.80385,80.024475,0.0],[-63.802299,80.024479,0.0],[-63.802363,80.025285,0.0],[-63.803915,80.025281,0.0],[-63.803936,80.02555,0.0],[-63.802385,80.025554,0.0],[-63.802406,80.025822,0.0],[-63.794649,80.025841,0.0],[-63.794628,80.025572,0.0],[-63.791526,80.025579,0.0],[-63.791505,80.025311,0.0],[-63.779094,80.02534,0.0],[-63.779115,80.025609,0.0],[-63.77291,80.025623,0.0],[-63.772931,80.025892,0.0],[-63.769828,80.025899,0.0],[-63.769848,80.026167,0.0],[-63.763643,80.026182,0.0],[-63.763663,80.02645,0.0],[-63.76056,80.026457,0.0],[-63.76058,80.026726,0.0],[-63.757477,80.026733,0.0],[-63.757498,80.027002,0.0],[-63.755946,80.027005,0.0],[-63.755966,80.027274,0.0],[-63.754415,80.027278,0.0],[-63.754435,80.027546,0.0],[-63.746677,80.027564,0.0],[-63.746697,80.027833,0.0],[-63.745145,80.027836,0.0],[-63.745165,80.028105,0.0],[-63.742061,80.028112,0.0],[-63.742081,80.02838,0.0],[-63.734322,80.028397,0.0],[-63.734342,80.028666,0.0],[-63.728135,80.02868,0.0],[-63.728154,80.028948,0.0],[-63.721947,80.028962,0.0],[-63.721966,80.029231,0.0],[-63.712655,80.029251,0.0],[-63.712674,80.029519,0.0],[-63.708018,80.029529,0.0],[-63.707999,80.02926,0.0],[-63.700239,80.029277,0.0],[-63.700221,80.029008,0.0],[-63.697117,80.029014,0.0],[-63.697098,80.028746,0.0],[-63.695546,80.028749,0.0],[-63.695472,80.027674,0.0],[-63.679956,80.027706,0.0],[-63.679974,80.027974,0.0],[-63.659801,80.028015,0.0],[-63.659819,80.028283,0.0],[-63.656715,80.028289,0.0],[-63.656733,80.028558,0.0],[-63.653629,80.028564,0.0],[-63.653647,80.028833,0.0],[-63.648991,80.028842,0.0],[-63.649008,80.029111,0.0],[-63.644353,80.02912,0.0],[-63.64437,80.029388,0.0],[-63.642818,80.029391,0.0],[-63.642835,80.02966,0.0],[-63.638179,80.029669,0.0],[-63.638196,80.029938,0.0],[-63.635092,80.029944,0.0],[-63.635109,80.030212,0.0],[-63.633557,80.030215,0.0],[-63.633574,80.030484,0.0],[-63.632022,80.030487,0.0],[-63.632055,80.031025,0.0],[-63.630503,80.031028,0.0],[-63.63052,80.031296,0.0],[-63.628968,80.031299,0.0],[-63.629001,80.031837,0.0],[-63.627449,80.03184,0.0],[-63.627499,80.032646,0.0],[-63.625947,80.032649,0.0],[-63.625964,80.032918,0.0],[-63.624411,80.03292,0.0],[-63.624444,80.033458,0.0],[-63.627484,80.033452,0.0]],[[-63.622892,80.033461,0.0],[-63.622908,80.03373,0.0],[-63.624461,80.033727,0.0],[-63.624444,80.033458,0.0],[-63.622892,80.033461,0.0]],[[-63.621356,80.033733,0.0],[-63.621372,80.034001,0.0],[-63.622925,80.033998,0.0],[-63.622908,80.03373,0.0],[-63.621356,80.033733,0.0]],[[-63.702781,80.021207,0.0],[-63.696578,80.02122,0.0],[-63.696615,80.021758,0.0],[-63.702818,80.021745,0.0],[-63.702781,80.021207,0.0]],[[-63.290166,80.018055,0.0],[-63.291716,80.018053,0.0],[-63.291662,80.016172,0.0],[-63.293212,80.016171,0.0],[-63.293204,80.015902,0.0],[-63.297854,80.015898,0.0],[-63.297869,80.016435,0.0],[-63.29942,80.016434,0.0],[-63.299435,80.016971,0.0],[-63.300986,80.01697,0.0],[-63.301002,80.017508,0.0],[-63.302552,80.017506,0.0],[-63.30256,80.017775,0.0],[-63.30566,80.017772,0.0],[-63.305628,80.016697,0.0],[-63.304078,80.016698,0.0],[-63.304053,80.015892,0.0],[-63.305603,80.015891,0.0],[-63.305595,80.015622,0.0],[-63.307145,80.015621,0.0],[-63.307137,80.015352,0.0],[-63.313336,80.015346,0.0],[-63.313328,80.015077,0.0],[-63.314878,80.015076,0.0],[-63.314861,80.014538,0.0],[-63.311762,80.014541,0.0],[-63.31177,80.01481,0.0],[-63.30867,80.014813,0.0],[-63.308662,80.014544,0.0],[-63.304013,80.014548,0.0],[-63.304005,80.014279,0.0],[-63.302455,80.014281,0.0],[-63.302447,80.014012,0.0],[-63.303997,80.014011,0.0],[-63.303989,80.013742,0.0],[-63.307088,80.013739,0.0],[-63.30708,80.01347,0.0],[-63.314828,80.013463,0.0],[-63.314819,80.013194,0.0],[-63.317918,80.013191,0.0],[-63.31791,80.012923,0.0],[-63.319459,80.012921,0.0],[-63.319451,80.012652,0.0],[-63.321,80.012651,0.0],[-63.320992,80.012382,0.0],[-63.322541,80.012381,0.0],[-63.322498,80.011037,0.0],[-63.320949,80.011038,0.0],[-63.32094,80.01077,0.0],[-63.319391,80.010771,0.0],[-63.3194,80.01104,0.0],[-63.316301,80.011043,0.0],[-63.31631,80.011311,0.0],[-63.31476,80.011313,0.0],[-63.314752,80.011044,0.0],[-63.313203,80.011046,0.0],[-63.313186,80.010508,0.0],[-63.310088,80.010511,0.0],[-63.310096,80.01078,0.0],[-63.308547,80.010781,0.0],[-63.308555,80.01105,0.0],[-63.307006,80.011051,0.0],[-63.307014,80.01132,0.0],[-63.305465,80.011322,0.0],[-63.305473,80.01159,0.0],[-63.302375,80.011593,0.0],[-63.302383,80.011862,0.0],[-63.300833,80.011863,0.0],[-63.300857,80.01267,0.0],[-63.302407,80.012668,0.0],[-63.302431,80.013475,0.0],[-63.300881,80.013476,0.0],[-63.300889,80.013745,0.0],[-63.29779,80.013747,0.0],[-63.297782,80.013479,0.0],[-63.296233,80.01348,0.0],[-63.296225,80.013211,0.0],[-63.291576,80.013215,0.0],[-63.291584,80.013484,0.0],[-63.290034,80.013485,0.0],[-63.29005,80.014023,0.0],[-63.2885,80.014024,0.0],[-63.288508,80.014293,0.0],[-63.286958,80.014294,0.0],[-63.286973,80.014832,0.0],[-63.285424,80.014833,0.0],[-63.285439,80.015371,0.0],[-63.283889,80.015372,0.0],[-63.283912,80.016179,0.0],[-63.282362,80.01618,0.0],[-63.282414,80.018061,0.0],[-63.283965,80.01806,0.0],[-63.283972,80.018329,0.0],[-63.290173,80.018323,0.0],[-63.290166,80.018055,0.0]],[[-63.998299,80.014007,0.0],[-64.002947,80.013993,0.0],[-64.002974,80.014262,0.0],[-64.006073,80.014252,0.0],[-64.006019,80.013715,0.0],[-64.00447,80.01372,0.0],[-64.004443,80.013451,0.0],[-64.001344,80.01346,0.0],[-64.001317,80.013191,0.0],[-63.99512,80.01321,0.0],[-63.995173,80.013747,0.0],[-63.998272,80.013738,0.0],[-63.998299,80.014007,0.0]],[[-63.998405,80.015082,0.0],[-63.998352,80.014544,0.0],[-63.996802,80.014549,0.0],[-63.996855,80.015086,0.0],[-63.998405,80.015082,0.0]],[[-64.00324,80.001358,0.0],[-64.004788,80.001353,0.0],[-64.004815,80.001622,0.0],[-64.00791,80.001612,0.0],[-64.007856,80.001075,0.0],[-64.003214,80.001089,0.0],[-64.00324,80.001358,0.0]],[[-63.309791,80.000835,0.0],[-63.309799,80.001104,0.0],[-63.311347,80.001102,0.0],[-63.311339,80.000834,0.0],[-63.309791,80.000835,0.0]],[[-64.007776,80.000269,0.0],[-64.009323,80.000264,0.0],[-64.00935,80.000533,0.0],[-64.012445,80.000523,0.0],[-64.012418,80.000255,0.0],[-64.013965,80.00025,0.0],[-64.013938,79.999981,0.0],[-64.012391,79.999986,0.0],[-64.012364,79.999717,0.0],[-64.007722,79.999731,0.0],[-64.007776,80.000269,0.0]],[[-63.513364,79.986608,0.0],[-63.514909,79.986605,0.0],[-63.514896,79.986337,0.0],[-63.516441,79.986334,0.0],[-63.5164,79.985528,0.0],[-63.511764,79.985535,0.0],[-63.511791,79.986073,0.0],[-63.510246,79.986075,0.0],[-63.51026,79.986344,0.0],[-63.508714,79.986346,0.0],[-63.508741,79.986884,0.0],[-63.513378,79.986877,0.0],[-63.513364,79.986608,0.0]],[[-63.61827,79.983474,0.0],[-63.619815,79.983471,0.0],[-63.619799,79.983202,0.0],[-63.616709,79.983208,0.0],[-63.616692,79.982939,0.0],[-63.612058,79.982947,0.0],[-63.61209,79.983485,0.0],[-63.61518,79.983479,0.0],[-63.615197,79.983748,0.0],[-63.618287,79.983742,0.0],[-63.61827,79.983474,0.0]],[[-63.621261,79.981855,0.0],[-63.628984,79.981841,0.0],[-63.628968,79.981572,0.0],[-63.630512,79.981569,0.0],[-63.630495,79.9813,0.0],[-63.63204,79.981297,0.0],[-63.632023,79.981029,0.0],[-63.633568,79.981026,0.0],[-63.633551,79.980757,0.0],[-63.635095,79.980754,0.0],[-63.635079,79.980485,0.0],[-63.636623,79.980482,0.0],[-63.636505,79.978601,0.0],[-63.634961,79.978604,0.0],[-63.634927,79.978066,0.0],[-63.633383,79.978069,0.0],[-63.633366,79.977801,0.0],[-63.62719,79.977812,0.0],[-63.627207,79.978081,0.0],[-63.617942,79.978098,0.0],[-63.617958,79.978367,0.0],[-63.616414,79.97837,0.0],[-63.616447,79.978907,0.0],[-63.617991,79.978905,0.0],[-63.618008,79.979173,0.0],[-63.619552,79.97917,0.0],[-63.619568,79.979439,0.0],[-63.618024,79.979442,0.0],[-63.61804,79.979711,0.0],[-63.616496,79.979714,0.0],[-63.61648,79.979445,0.0],[-63.613391,79.979451,0.0],[-63.613407,79.979719,0.0],[-63.611863,79.979722,0.0],[-63.611879,79.979991,0.0],[-63.610335,79.979994,0.0],[-63.6104,79.981069,0.0],[-63.611944,79.981066,0.0],[-63.61196,79.981335,0.0],[-63.613505,79.981332,0.0],[-63.613521,79.981601,0.0],[-63.615066,79.981598,0.0],[-63.615082,79.981867,0.0],[-63.616627,79.981864,0.0],[-63.616643,79.982133,0.0],[-63.621277,79.982124,0.0],[-63.621261,79.981855,0.0]],[[-63.607262,79.980268,0.0],[-63.608807,79.980265,0.0],[-63.608774,79.979728,0.0],[-63.610319,79.979725,0.0],[-63.610302,79.979456,0.0],[-63.608758,79.979459,0.0],[-63.608742,79.97919,0.0],[-63.607198,79.979193,0.0],[-63.607182,79.978924,0.0],[-63.604093,79.97893,0.0],[-63.604109,79.979199,0.0],[-63.602565,79.979202,0.0],[-63.602581,79.97947,0.0],[-63.601037,79.979473,0.0],[-63.601085,79.980279,0.0],[-63.602629,79.980277,0.0],[-63.602645,79.980545,0.0],[-63.604189,79.980543,0.0],[-63.604205,79.980811,0.0],[-63.607294,79.980806,0.0],[-63.607262,79.980268,0.0]],[[-63.875629,79.975641,0.0],[-63.875652,79.97591,0.0],[-63.88337,79.975889,0.0],[-63.883347,79.975621,0.0],[-63.886434,79.975612,0.0],[-63.886411,79.975344,0.0],[-63.887954,79.97534,0.0],[-63.887907,79.974802,0.0],[-63.889451,79.974798,0.0],[-63.889309,79.973185,0.0],[-63.887766,79.97319,0.0],[-63.887719,79.972652,0.0],[-63.886176,79.972656,0.0],[-63.886152,79.972387,0.0],[-63.884609,79.972391,0.0],[-63.884586,79.972123,0.0],[-63.883042,79.972127,0.0],[-63.883066,79.972396,0.0],[-63.881523,79.9724,0.0],[-63.88157,79.972937,0.0],[-63.880026,79.972941,0.0],[-63.880073,79.973479,0.0],[-63.87853,79.973483,0.0],[-63.878576,79.97402,0.0],[-63.877033,79.974024,0.0],[-63.877056,79.974293,0.0],[-63.875513,79.974297,0.0],[-63.875559,79.974835,0.0],[-63.874016,79.974839,0.0],[-63.874085,79.975645,0.0],[-63.875629,79.975641,0.0]],[[-63.498949,80.039044,0.0],[-63.492735,80.039053,0.0],[-63.492748,80.039322,0.0],[-63.491195,80.039324,0.0],[-63.491208,80.039593,0.0],[-63.489654,80.039595,0.0],[-63.489667,80.039864,0.0],[-63.48656,80.039868,0.0],[-63.486547,80.039599,0.0],[-63.480333,80.039608,0.0],[-63.480346,80.039877,0.0],[-63.477239,80.039881,0.0],[-63.477251,80.04015,0.0],[-63.475698,80.040152,0.0],[-63.47571,80.040421,0.0],[-63.474157,80.040423,0.0],[-63.474169,80.040692,0.0],[-63.472616,80.040694,0.0],[-63.472628,80.040963,0.0],[-63.471074,80.040965,0.0],[-63.471087,80.041234,0.0],[-63.472641,80.041232,0.0],[-63.472653,80.041501,0.0],[-63.477315,80.041494,0.0],[-63.477328,80.041763,0.0],[-63.486651,80.041749,0.0],[-63.486638,80.041481,0.0],[-63.488192,80.041478,0.0],[-63.488166,80.040941,0.0],[-63.48972,80.040939,0.0],[-63.489707,80.04067,0.0],[-63.49126,80.040668,0.0],[-63.491247,80.040399,0.0],[-63.492801,80.040397,0.0],[-63.492788,80.040128,0.0],[-63.494341,80.040126,0.0],[-63.494328,80.039857,0.0],[-63.497435,80.039852,0.0],[-63.497422,80.039583,0.0],[-63.498976,80.039581,0.0],[-63.498962,80.039312,0.0],[-63.502069,80.039308,0.0],[-63.502043,80.03877,0.0],[-63.498936,80.038775,0.0],[-63.498949,80.039044,0.0]],[[-63.356369,80.048901,0.0],[-63.357924,80.0489,0.0],[-63.357905,80.048362,0.0],[-63.35635,80.048364,0.0],[-63.356369,80.048901,0.0]],[[-63.698576,80.027667,0.0],[-63.701679,80.027661,0.0],[-63.701641,80.027123,0.0],[-63.698538,80.02713,0.0],[-63.698576,80.027667,0.0]],[[-63.218998,80.024828,0.0],[-63.22055,80.024827,0.0],[-63.22052,80.023483,0.0],[-63.218969,80.023484,0.0],[-63.218963,80.023216,0.0],[-63.215861,80.023218,0.0],[-63.215867,80.023486,0.0],[-63.214316,80.023487,0.0],[-63.214339,80.024562,0.0],[-63.21589,80.024561,0.0],[-63.215896,80.02483,0.0],[-63.217447,80.024829,0.0],[-63.217453,80.025098,0.0],[-63.219004,80.025097,0.0],[-63.218998,80.024828,0.0]],[[-63.797561,80.023415,0.0],[-63.79601,80.023418,0.0],[-63.796052,80.023956,0.0],[-63.797603,80.023952,0.0],[-63.797561,80.023415,0.0]]]}}]}
