{"type":"FeatureCollection","features":[{"type":"Feature","properties":{"rgi_id":"RGI2000-v7.0-G-18-03004","o1region":"18"},"geometry":{"type":"Polygon","coordinates":[[[172.585697,-42.222865,0.0],[172.585276,-42.223188,0.0],[172.585068,-42.22313,0.0],[172.585219,-42.222865,0.0],[172.58532,-42.222688,0.0],[172.585516,-42.222492,0.0],[172.585889,-42.221746,0.0],[172.586262,-42.221373,0.0],[172.586635,-42.221,0.0],[172.586973,-42.220627,0.0],[172.58717,-42.220627,0.0],[172.587212,-42.221,0.0],[172.587008,-42.221,0.0],[172.587008,-42.221426,0.0],[172.58676,-42.221746,0.0],[172.586635,-42.221908,0.0],[172.586472,-42.222119,0.0],[172.586262,-42.22239,0.0],[172.586183,-42.222492,0.0],[172.585889,-42.222718,0.0],[172.585697,-42.222865,0.0]]]}},{"type":"Feature","properties":{"rgi_id":"RGI2000-v7.0-G-18-03005","o1region":"18"},"geometry":{"type":"Polygon","coordinates":[[[172.589719,-42.217972,0.0],[172.589746,-42.21822,0.0],[172.590332,-42.218135,0.0],[172.590332,-42.218345,0.0],[172.59,-42.218462,0.0],[172.590009,-42.218718,0.0],[172.589213,-42.218718,0.0],[172.589213,-42.219091,0.0],[172.58884,-42.219091,0.0],[172.588157,-42.219211,0.0],[172.588094,-42.219464,0.0],[172.588094,-42.219837,0.0],[172.587525,-42.219837,0.0],[172.58751,-42.219464,0.0],[172.587721,-42.219464,0.0],[172.588043,-42.218797,0.0],[172.587721,-42.218787,0.0],[172.587721,-42.218345,0.0],[172.588094,-42.218345,0.0],[172.588539,-42.217972,0.0],[172.58884,-42.217972,0.0],[172.589213,-42.217972,0.0],[172.589719,-42.217972,0.0]]]}}]}
