{"type":"FeatureCollection","features":[{"type":"Feature","properties":{"rgi_id":"RGI2000-v7.0-G-19-00967","o1region":"19"},"geometry":{"type":"Polygon","coordinates":[[[37.716203,-46.894028,0.0],[37.716735,-46.894004,0.0],[37.717119,-46.894003,0.0],[37.717535,-46.893999,0.0],[37.717831,-46.894067,0.0],[37.718049,-46.894145,0.0],[37.71816,-46.894239,0.0],[37.71829,-46.894392,0.0],[37.718371,-46.894582,0.0],[37.718335,-46.894826,0.0],[37.718114,-46.895294,0.0],[37.717738,-46.895925,0.0],[37.717512,-46.896717,0.0],[37.717665,-46.897082,0.0],[37.717919,-46.897306,0.0],[37.71841,-46.897483,0.0],[37.71927,-46.897539,0.0],[37.720305,-46.897369,0.0],[37.721044,-46.897304,0.0],[37.72196,-46.897257,0.0],[37.722668,-46.89703,0.0],[37.723317,-46.896803,0.0],[37.723729,-46.896679,0.0],[37.724084,-46.896656,0.0],[37.724278,-46.8967,0.0],[37.724471,-46.896796,0.0],[37.724628,-46.896967,0.0],[37.724654,-46.89716,0.0],[37.724621,-46.897287,0.0],[37.72445,-46.897384,0.0],[37.723684,-46.897653,0.0],[37.722858,-46.897922,0.0],[37.722062,-46.89817,0.0],[37.721239,-46.898642,0.0],[37.720298,-46.899094,0.0],[37.719159,-46.899429,0.0],[37.718881,-46.899468,0.0],[37.718609,-46.899479,0.0],[37.718115,-46.899436,0.0],[37.717457,-46.899334,0.0],[37.716416,-46.898915,0.0],[37.71588,-46.898736,0.0],[37.715139,-46.8987,0.0],[37.714312,-46.89881,0.0],[37.714118,-46.898883,0.0],[37.713194,-46.899342,0.0],[37.712518,-46.899731,0.0],[37.711902,-46.900141,0.0],[37.7112,-46.900773,0.0],[37.710318,-46.901306,0.0],[37.709434,-46.901596,0.0],[37.708755,-46.901803,0.0],[37.707661,-46.901972,0.0],[37.706893,-46.902038,0.0],[37.706005,-46.902104,0.0],[37.705333,-46.902135,0.0],[37.705116,-46.902109,0.0],[37.704789,-46.90197,0.0],[37.704639,-46.901788,0.0],[37.704576,-46.901656,0.0],[37.704603,-46.901341,0.0],[37.704672,-46.901092,0.0],[37.704812,-46.900962,0.0],[37.705129,-46.900852,0.0],[37.705988,-46.900805,0.0],[37.706903,-46.900597,0.0],[37.707736,-46.900468,0.0],[37.707966,-46.900388,0.0],[37.708179,-46.900284,0.0],[37.708525,-46.90002,0.0],[37.70949,-46.899141,0.0],[37.710281,-46.898466,0.0],[37.711042,-46.897874,0.0],[37.711715,-46.8972,0.0],[37.712061,-46.896508,0.0],[37.712233,-46.896061,0.0],[37.712267,-46.895925,0.0],[37.712228,-46.895756,0.0],[37.71211,-46.895584,0.0],[37.711808,-46.895273,0.0],[37.711298,-46.894789,0.0],[37.710374,-46.894267,0.0],[37.709952,-46.893783,0.0],[37.70986,-46.893519,0.0],[37.709916,-46.893296,0.0],[37.710355,-46.892908,0.0],[37.711001,-46.892458,0.0],[37.711853,-46.892026,0.0],[37.712338,-46.891803,0.0],[37.712587,-46.89173,0.0],[37.712767,-46.891716,0.0],[37.713124,-46.891856,0.0],[37.713484,-46.892158,0.0],[37.713877,-46.892805,0.0],[37.713977,-46.893616,0.0],[37.714366,-46.893917,0.0],[37.715048,-46.894056,0.0],[37.715671,-46.894052,0.0],[37.716203,-46.894028,0.0]]]}}]}
