{"type":"FeatureCollection","features":[{"type":"Feature","properties":{"rgi_id":"RGI2000-v7.0-G-12-02195","o1region":"12"},"geometry":{"type":"Polygon","coordinates":[[[41.148614,40.825451,0.0],[41.148671,40.825462,0.0],[41.14894,40.825445,0.0],[41.149278,40.825425,0.0],[41.149655,40.825418,0.0],[41.149807,40.825422,0.0],[41.15006,40.82538,0.0],[41.15054,40.82543,0.0],[41.150992,40.825436,0.0],[41.151387,40.825428,0.0],[41.151704,40.825351,0.0],[41.152096,40.825229,0.0],[41.152316,40.825054,0.0],[41.152459,40.824836,0.0],[41.152527,40.824592,0.0],[41.152576,40.824362,0.0],[41.152502,40.82414,0.0],[41.15243,40.823922,0.0],[41.152355,40.823735,0.0],[41.152191,40.823487,0.0],[41.151826,40.823261,0.0],[41.151446,40.823125,0.0],[41.151069,40.823083,0.0],[41.150838,40.823008,0.0],[41.15044,40.822915,0.0],[41.150062,40.822893,0.0],[41.149649,40.822915,0.0],[41.149296,40.823051,0.0],[41.149074,40.823184,0.0],[41.148893,40.823387,0.0],[41.148843,40.82345,0.0],[41.148559,40.823676,0.0],[41.148557,40.823679,0.0],[41.148438,40.823891,0.0],[41.148323,40.824198,0.0],[41.14823,40.824448,0.0],[41.148238,40.824677,0.0],[41.148245,40.824905,0.0],[41.148301,40.825095,0.0],[41.148385,40.825341,0.0],[41.148614,40.825451,0.0]]]}},{"type":"Feature","properties":{"rgi_id":"RGI2000-v7.0-G-12-02196","o1region":"12"},"geometry":{"type":"Polygon","coordinates":[[[41.152456,40.837003,0.0],[41.152559,40.837077,0.0],[41.152915,40.837223,0.0],[41.153167,40.837257,0.0],[41.153344,40.837311,0.0],[41.153448,40.837423,0.0],[41.153506,40.837651,0.0],[41.153464,40.837899,0.0],[41.153345,40.838092,0.0],[41.153351,40.838283,0.0],[41.15336,40.838569,0.0],[41.153367,40.838797,0.0],[41.153277,40.839123,0.0],[41.153109,40.839336,0.0],[41.153012,40.839469,0.0],[41.152988,40.839692,0.0],[41.153013,40.839911,0.0],[41.153019,40.840118,0.0],[41.153007,40.840274,0.0],[41.152965,40.840547,0.0],[41.152973,40.840806,0.0],[41.15308,40.840946,0.0],[41.153353,40.840928,0.0],[41.153809,40.840803,0.0],[41.154092,40.840578,0.0],[41.154184,40.840278,0.0],[41.154213,40.840096,0.0],[41.154208,40.839941,0.0],[41.154197,40.839617,0.0],[41.15434,40.839278,0.0],[41.15455,40.838924,0.0],[41.154571,40.838522,0.0],[41.154543,40.838186,0.0],[41.15462,40.837912,0.0],[41.154698,40.83769,0.0],[41.154692,40.837522,0.0],[41.154594,40.837135,0.0],[41.154372,40.836595,0.0],[41.154328,40.836298,0.0],[41.154259,40.835743,0.0],[41.154244,40.835276,0.0],[41.154207,40.834668,0.0],[41.154192,40.834202,0.0],[41.154181,40.833866,0.0],[41.154184,40.833412,0.0],[41.154146,40.833235,0.0],[41.153937,40.833124,0.0],[41.153632,40.833015,0.0],[41.153406,40.833001,0.0],[41.153034,40.833141,0.0],[41.152687,40.833281,0.0],[41.152392,40.833477,0.0],[41.152274,40.833708,0.0],[41.152382,40.833935,0.0],[41.152666,40.834177,0.0],[41.152724,40.834443,0.0],[41.152582,40.834694,0.0],[41.152312,40.834889,0.0],[41.152143,40.835083,0.0],[41.152104,40.835446,0.0],[41.152087,40.835694,0.0],[41.152097,40.835999,0.0],[41.152055,40.836267,0.0],[41.152139,40.836532,0.0],[41.152298,40.836777,0.0],[41.152456,40.837003,0.0]]]}},{"type":"Feature","properties":{"rgi_id":"RGI2000-v7.0-G-12-02197","o1region":"12"},"geometry":{"type":"Polygon","coordinates":[[[41.158452,40.842772,0.0],[41.158849,40.842765,0.0],[41.159536,40.842752,0.0],[41.15991,40.843083,0.0],[41.160237,40.843169,0.0],[41.160653,40.843047,0.0],[41.160754,40.842954,0.0],[41.160867,40.842796,0.0],[41.160946,40.842683,0.0],[41.161162,40.842355,0.0],[41.161251,40.84201,0.0],[41.161315,40.841666,0.0],[41.161303,40.841304,0.0],[41.161319,40.841017,0.0],[41.161335,40.840731,0.0],[41.16125,40.840428,0.0],[41.161139,40.840125,0.0],[41.160956,40.839899,0.0],[41.160751,40.83977,0.0],[41.160522,40.839679,0.0],[41.160375,40.839613,0.0],[41.160319,40.839587,0.0],[41.159842,40.839596,0.0],[41.159693,40.839578,0.0],[41.159514,40.839545,0.0],[41.159313,40.839549,0.0],[41.158989,40.839612,0.0],[41.158794,40.839787,0.0],[41.158792,40.839788,0.0],[41.158473,40.839965,0.0],[41.158203,40.840161,0.0],[41.158009,40.840374,0.0],[41.157969,40.84068,0.0],[41.157966,40.840702,0.0],[41.157957,40.84077,0.0],[41.157424,40.841226,0.0],[41.157118,40.841397,0.0],[41.157114,40.841401,0.0],[41.156953,40.841518,0.0],[41.156844,40.841597,0.0],[41.156676,40.84178,0.0],[41.156594,40.841869,0.0],[41.156505,40.841966,0.0],[41.156488,40.842233,0.0],[41.156543,40.842365,0.0],[41.156669,40.842401,0.0],[41.156872,40.842454,0.0],[41.157008,40.842513,0.0],[41.157126,40.842564,0.0],[41.157456,40.842653,0.0],[41.157833,40.842665,0.0],[41.158084,40.842661,0.0],[41.158452,40.842772,0.0]]]}},{"type":"Feature","properties":{"rgi_id":"RGI2000-v7.0-G-12-02198","o1region":"12"},"geometry":{"type":"Polygon","coordinates":[[[41.164604,40.845278,0.0],[41.164229,40.845577,0.0],[41.164113,40.84567,0.0],[41.164033,40.845733,0.0],[41.163865,40.845965,0.0],[41.163746,40.846158,0.0],[41.163502,40.846391,0.0],[41.163306,40.846528,0.0],[41.163262,40.84672,0.0],[41.163268,40.84691,0.0],[41.16333,40.846998,0.0],[41.163601,40.847095,0.0],[41.163731,40.8471,0.0],[41.164023,40.846954,0.0],[41.164346,40.84693,0.0],[41.164373,40.846928,0.0],[41.164698,40.846884,0.0],[41.16471,40.846881,0.0],[41.165222,40.846759,0.0],[41.165594,40.846638,0.0],[41.165841,40.8465,0.0],[41.166313,40.846339,0.0],[41.166688,40.846312,0.0],[41.167065,40.846305,0.0],[41.167412,40.846165,0.0],[41.167415,40.845919,0.0],[41.167271,40.845617,0.0],[41.16706,40.845344,0.0],[41.167047,40.844945,0.0],[41.167076,40.844576,0.0],[41.167298,40.843958,0.0],[41.167294,40.843834,0.0],[41.167184,40.843786,0.0],[41.166883,40.843811,0.0],[41.166737,40.843966,0.0],[41.166567,40.844141,0.0],[41.166348,40.844336,0.0],[41.166102,40.844493,0.0],[41.16588,40.844631,0.0],[41.165686,40.844825,0.0],[41.16554,40.844961,0.0],[41.16519,40.845025,0.0],[41.164976,40.845095,0.0],[41.164818,40.845146,0.0],[41.164692,40.845197,0.0],[41.164669,40.845206,0.0],[41.164604,40.845278,0.0]]]}},{"type":"Feature","properties":{"rgi_id":"RGI2000-v7.0-G-12-02199","o1region":"12"},"geometry":{"type":"Polygon","coordinates":[[[41.218842,40.93031,0.0],[41.218867,40.930309,0.0],[41.219016,40.930249,0.0],[41.219311,40.930053,0.0],[41.219785,40.929929,0.0],[41.220237,40.929921,0.0],[41.220894,40.930022,0.0],[41.221249,40.930111,0.0],[41.221678,40.93016,0.0],[41.222155,40.930151,0.0],[41.222506,40.930125,0.0],[41.222782,40.930081,0.0],[41.223508,40.929991,0.0],[41.223928,40.929792,0.0],[41.224274,40.929595,0.0],[41.224542,40.929342,0.0],[41.22468,40.928977,0.0],[41.224597,40.92875,0.0],[41.224437,40.928467,0.0],[41.224227,40.928223,0.0],[41.224071,40.928054,0.0],[41.223888,40.927848,0.0],[41.223804,40.927583,0.0],[41.223491,40.927265,0.0],[41.223246,40.927129,0.0],[41.223007,40.927065,0.0],[41.222525,40.926921,0.0],[41.221647,40.926995,0.0],[41.221222,40.927042,0.0],[41.221129,40.927025,0.0],[41.221108,40.927021,0.0],[41.220943,40.92699,0.0],[41.220712,40.926842,0.0],[41.220456,40.926694,0.0],[41.2201,40.926587,0.0],[41.219746,40.926517,0.0],[41.219295,40.926458,0.0],[41.219166,40.926471,0.0],[41.219115,40.926493,0.0],[41.218795,40.926631,0.0],[41.218477,40.926904,0.0],[41.218412,40.927037,0.0],[41.218336,40.927193,0.0],[41.218168,40.927444,0.0],[41.217976,40.927714,0.0],[41.217943,40.927917,0.0],[41.217914,40.928097,0.0],[41.217914,40.928105,0.0],[41.217925,40.92844,0.0],[41.21796,40.928725,0.0],[41.218119,40.92897,0.0],[41.218126,40.929199,0.0],[41.21806,40.929467,0.0],[41.217945,40.929793,0.0],[41.21795,40.929926,0.0],[41.218109,40.93019,0.0],[41.218288,40.930263,0.0],[41.218565,40.930296,0.0],[41.218842,40.93031,0.0]]]}},{"type":"Feature","properties":{"rgi_id":"RGI2000-v7.0-G-12-02200","o1region":"12"},"geometry":{"type":"Polygon","coordinates":[[[41.215427,40.936799,0.0],[41.215502,40.936889,0.0],[41.215637,40.936987,0.0],[41.215695,40.937028,0.0],[41.215868,40.937139,0.0],[41.216154,40.937234,0.0],[41.216324,40.93723,0.0],[41.216531,40.937226,0.0],[41.216754,40.937136,0.0],[41.216881,40.936962,0.0],[41.21693,40.936747,0.0],[41.216924,40.936561,0.0],[41.216934,40.936318,0.0],[41.216909,40.936138,0.0],[41.216912,40.936109,0.0],[41.216998,40.935865,0.0],[41.217,40.935858,0.0],[41.217066,40.935635,0.0],[41.217075,40.935348,0.0],[41.217062,40.935317,0.0],[41.216953,40.935065,0.0],[41.216776,40.934854,0.0],[41.2166,40.934657,0.0],[41.216348,40.934462,0.0],[41.216193,40.93435,0.0],[41.215906,40.934227,0.0],[41.215695,40.934135,0.0],[41.215471,40.934115,0.0],[41.215357,40.934137,0.0],[41.215191,40.934255,0.0],[41.215103,40.934443,0.0],[41.215055,40.934701,0.0],[41.215065,40.935001,0.0],[41.215021,40.935388,0.0],[41.21502,40.935393,0.0],[41.215103,40.935572,0.0],[41.215246,40.935898,0.0],[41.215369,40.936211,0.0],[41.215416,40.936481,0.0],[41.215423,40.936696,0.0],[41.215427,40.936799,0.0]]]}}]}
