{"type":"FeatureCollection","features":[{"type":"Feature","properties":{"rgi_id":"RGI2000-v7.0-G-14-00035","o1region":"14"},"geometry":{"type":"Polygon","coordinates":[[[68.004994,34.575997,0.0],[68.004945,34.575997,0.0],[68.004707,34.575674,0.0],[68.004566,34.575313,0.0],[68.004082,34.575269,0.0],[68.003645,34.575385,0.0],[68.003159,34.575502,0.0],[68.002769,34.575699,0.0],[68.002475,34.576017,0.0],[68.002325,34.576376,0.0],[68.002612,34.576699,0.0],[68.003047,34.576743,0.0],[68.003485,34.576626,0.0],[68.00397,34.57651,0.0],[68.004994,34.575997,0.0]]]}},{"type":"Feature","properties":{"rgi_id":"RGI2000-v7.0-G-14-00036","o1region":"14"},"geometry":{"type":"Polygon","coordinates":[[[68.01642,34.574456,0.0],[68.016471,34.575077,0.0],[68.016756,34.575366,0.0],[68.017041,34.575654,0.0],[68.017501,34.575754,0.0],[68.017963,34.575757,0.0],[68.018365,34.575904,0.0],[68.018708,34.576193,0.0],[68.019051,34.576434,0.0],[68.019336,34.576723,0.0],[68.019737,34.576965,0.0],[68.020198,34.576968,0.0],[68.020547,34.576732,0.0],[68.02061,34.576351,0.0],[68.020729,34.57597,0.0],[68.020906,34.575638,0.0],[68.021083,34.575305,0.0],[68.02126,34.574973,0.0],[68.021322,34.574591,0.0],[68.021327,34.57421,0.0],[68.021158,34.573874,0.0],[68.020696,34.573871,0.0],[68.020235,34.573819,0.0],[68.019774,34.573815,0.0],[68.019255,34.573811,0.0],[68.018793,34.573808,0.0],[68.018332,34.573804,0.0],[68.01787,34.5738,0.0],[68.01642,34.574456,0.0]]]}}]}
