{"type":"FeatureCollection","features":[{"type":"Feature","properties":{"rgi_id":"RGI2000-v7.0-G-17-23911","o1region":"17"},"geometry":{"type":"Polygon","coordinates":[[[-70.885857,-38.252285,0.0],[-70.886461,-38.252387,0.0],[-70.886775,-38.252242,0.0],[-70.886786,-38.252195,0.0],[-70.886871,-38.252192,0.0],[-70.887185,-38.252047,0.0],[-70.887396,-38.251974,0.0],[-70.887517,-38.251889,0.0],[-70.887515,-38.251801,0.0],[-70.887615,-38.25167,0.0],[-70.887364,-38.251395,0.0],[-70.887114,-38.251002,0.0],[-70.886727,-38.250507,0.0],[-70.88672,-38.250466,0.0],[-70.886411,-38.250122,0.0],[-70.886071,-38.249975,0.0],[-70.885857,-38.249941,0.0],[-70.885661,-38.249822,0.0],[-70.88496,-38.249822,0.0],[-70.884409,-38.249979,0.0],[-70.884259,-38.250136,0.0],[-70.88421,-38.250557,0.0],[-70.884248,-38.250575,0.0],[-70.884394,-38.25074,0.0],[-70.884416,-38.250941,0.0],[-70.884559,-38.251198,0.0],[-70.884764,-38.25144,0.0],[-70.884914,-38.251694,0.0],[-70.885202,-38.251898,0.0],[-70.8854,-38.252062,0.0],[-70.885779,-38.25221,0.0],[-70.885857,-38.252285,0.0]]]}},{"type":"Feature","properties":{"rgi_id":"RGI2000-v7.0-G-17-23912","o1region":"17"},"geometry":{"type":"Polygon","coordinates":[[[-70.889377,-38.254303,0.0],[-70.889334,-38.25464,0.0],[-70.88925,-38.254662,0.0],[-70.889079,-38.25486,0.0],[-70.889101,-38.255041,0.0],[-70.889074,-38.255376,0.0],[-70.889151,-38.255584,0.0],[-70.889213,-38.255643,0.0],[-70.889227,-38.25568,0.0],[-70.889278,-38.255704,0.0],[-70.889295,-38.255721,0.0],[-70.889411,-38.255767,0.0],[-70.889477,-38.255798,0.0],[-70.889489,-38.255798,0.0],[-70.889599,-38.255841,0.0],[-70.890341,-38.255816,0.0],[-70.890621,-38.255727,0.0],[-70.890742,-38.255614,0.0],[-70.890803,-38.255223,0.0],[-70.890799,-38.255192,0.0],[-70.89093,-38.254815,0.0],[-70.89118,-38.254618,0.0],[-70.891198,-38.254596,0.0],[-70.8916,-38.254597,0.0],[-70.891549,-38.254012,0.0],[-70.891419,-38.253913,0.0],[-70.89138,-38.253674,0.0],[-70.89123,-38.253674,0.0],[-70.890228,-38.253595,0.0],[-70.889727,-38.253595,0.0],[-70.889227,-38.253635,0.0],[-70.889277,-38.253753,0.0],[-70.889327,-38.254028,0.0],[-70.889377,-38.254303,0.0]]]}},{"type":"Feature","properties":{"rgi_id":"RGI2000-v7.0-G-17-23913","o1region":"17"},"geometry":{"type":"Polygon","coordinates":[[[-70.892883,-38.255759,0.0],[-70.892815,-38.255776,0.0],[-70.892037,-38.255788,0.0],[-70.891827,-38.255875,0.0],[-70.891794,-38.255946,0.0],[-70.891689,-38.256003,0.0],[-70.891585,-38.256074,0.0],[-70.891553,-38.2562,0.0],[-70.891591,-38.256325,0.0],[-70.891631,-38.256375,0.0],[-70.891631,-38.256388,0.0],[-70.891675,-38.256417,0.0],[-70.891649,-38.256505,0.0],[-70.891794,-38.256628,0.0],[-70.89201,-38.256778,0.0],[-70.892348,-38.256856,0.0],[-70.892597,-38.256922,0.0],[-70.892777,-38.257045,0.0],[-70.892939,-38.257168,0.0],[-70.893046,-38.257208,0.0],[-70.893791,-38.257293,0.0],[-70.894215,-38.2573,0.0],[-70.894323,-38.257354,0.0],[-70.894536,-38.257407,0.0],[-70.894678,-38.257404,0.0],[-70.894727,-38.257278,0.0],[-70.894616,-38.257071,0.0],[-70.894544,-38.257016,0.0],[-70.894452,-38.256878,0.0],[-70.894397,-38.256796,0.0],[-70.894373,-38.256587,0.0],[-70.894153,-38.256284,0.0],[-70.894046,-38.256248,0.0],[-70.893935,-38.256073,0.0],[-70.893284,-38.255759,0.0],[-70.892883,-38.255759,0.0]]]}},{"type":"Feature","properties":{"rgi_id":"RGI2000-v7.0-G-17-23914","o1region":"17"},"geometry":{"type":"Polygon","coordinates":[[[-70.864984,-38.246786,0.0],[-70.865039,-38.246908,0.0],[-70.865264,-38.246986,0.0],[-70.865299,-38.247017,0.0],[-70.865477,-38.247024,0.0],[-70.865595,-38.246885,0.0],[-70.865821,-38.246882,0.0],[-70.865772,-38.246992,0.0],[-70.865671,-38.247117,0.0],[-70.865481,-38.247147,0.0],[-70.865378,-38.247232,0.0],[-70.865243,-38.247398,0.0],[-70.864849,-38.24761,0.0],[-70.864804,-38.247766,0.0],[-70.864657,-38.247891,0.0],[-70.864557,-38.248049,0.0],[-70.864682,-38.248285,0.0],[-70.864983,-38.248383,0.0],[-70.865434,-38.248344,0.0],[-70.865659,-38.248324,0.0],[-70.865709,-38.248285,0.0],[-70.866035,-38.248088,0.0],[-70.86631,-38.247891,0.0],[-70.866511,-38.247557,0.0],[-70.866811,-38.247164,0.0],[-70.867137,-38.246731,0.0],[-70.867262,-38.246377,0.0],[-70.867287,-38.246141,0.0],[-70.866911,-38.245787,0.0],[-70.866792,-38.245724,0.0],[-70.866504,-38.245719,0.0],[-70.866537,-38.245523,0.0],[-70.86646,-38.245413,0.0],[-70.866235,-38.245393,0.0],[-70.86616,-38.245472,0.0],[-70.866035,-38.24561,0.0],[-70.865985,-38.245767,0.0],[-70.865884,-38.246043,0.0],[-70.865684,-38.246259,0.0],[-70.865384,-38.246436,0.0],[-70.865363,-38.24645,0.0],[-70.86522,-38.246494,0.0],[-70.865015,-38.246634,0.0],[-70.864984,-38.246786,0.0]]]}},{"type":"Feature","properties":{"rgi_id":"RGI2000-v7.0-G-17-23915","o1region":"17"},"geometry":{"type":"Polygon","coordinates":[[[-70.945832,-38.274788,0.0],[-70.945853,-38.274796,0.0],[-70.945859,-38.274789,0.0],[-70.945997,-38.274793,0.0],[-70.94622,-38.274655,0.0],[-70.946326,-38.274385,0.0],[-70.946274,-38.274339,0.0],[-70.946271,-38.274296,0.0],[-70.946184,-38.274112,0.0],[-70.945697,-38.273763,0.0],[-70.945692,-38.273759,0.0],[-70.945531,-38.273722,0.0],[-70.94533,-38.27366,0.0],[-70.945283,-38.27344,0.0],[-70.945076,-38.273271,0.0],[-70.944697,-38.273042,0.0],[-70.944412,-38.27299,0.0],[-70.944185,-38.273072,0.0],[-70.944011,-38.27314,0.0],[-70.943982,-38.273299,0.0],[-70.943999,-38.273474,0.0],[-70.944047,-38.273649,0.0],[-70.944254,-38.273799,0.0],[-70.944493,-38.273874,0.0],[-70.944701,-38.273962,0.0],[-70.944828,-38.274037,0.0],[-70.944869,-38.274114,0.0],[-70.944899,-38.274449,0.0],[-70.945104,-38.27454,0.0],[-70.94541,-38.274574,0.0],[-70.945428,-38.274639,0.0],[-70.945524,-38.274682,0.0],[-70.945586,-38.274738,0.0],[-70.945657,-38.274783,0.0],[-70.945832,-38.274788,0.0]]]}},{"type":"Feature","properties":{"rgi_id":"RGI2000-v7.0-G-17-23916","o1region":"17"},"geometry":{"type":"Polygon","coordinates":[[[-70.86216,-38.523164,0.0],[-70.862425,-38.523215,0.0],[-70.862601,-38.523043,0.0],[-70.862778,-38.522939,0.0],[-70.863065,-38.522818,0.0],[-70.863264,-38.522541,0.0],[-70.863264,-38.522386,0.0],[-70.863419,-38.522161,0.0],[-70.863286,-38.521954,0.0],[-70.863242,-38.521833,0.0],[-70.862955,-38.521798,0.0],[-70.862668,-38.521764,0.0],[-70.862336,-38.521764,0.0],[-70.862229,-38.521784,0.0],[-70.862066,-38.522226,0.0],[-70.862027,-38.522264,0.0],[-70.862071,-38.522369,0.0],[-70.862115,-38.522611,0.0],[-70.862115,-38.522904,0.0],[-70.86216,-38.523164,0.0]]]}},{"type":"Feature","properties":{"rgi_id":"RGI2000-v7.0-G-17-23917","o1region":"17"},"geometry":{"type":"Polygon","coordinates":[[[-70.835675,-38.579,0.0],[-70.835733,-38.57941,0.0],[-70.836288,-38.579319,0.0],[-70.836755,-38.578954,0.0],[-70.836784,-38.578657,0.0],[-70.836697,-38.578087,0.0],[-70.836288,-38.578064,0.0],[-70.835996,-38.578064,0.0],[-70.835733,-38.578064,0.0],[-70.835587,-38.578292,0.0],[-70.835704,-38.578794,0.0],[-70.835675,-38.579,0.0]]]}},{"type":"Feature","properties":{"rgi_id":"RGI2000-v7.0-G-17-23918","o1region":"17"},"geometry":{"type":"Polygon","coordinates":[[[-70.835208,-38.586483,0.0],[-70.835325,-38.586483,0.0],[-70.835471,-38.586186,0.0],[-70.8355,-38.585821,0.0],[-70.835617,-38.585456,0.0],[-70.835646,-38.585114,0.0],[-70.835646,-38.584795,0.0],[-70.835442,-38.58443,0.0],[-70.835033,-38.583996,0.0],[-70.834303,-38.583745,0.0],[-70.834157,-38.583973,0.0],[-70.834537,-38.584544,0.0],[-70.834508,-38.584886,0.0],[-70.834274,-38.585274,0.0],[-70.834595,-38.585935,0.0],[-70.834683,-38.58605,0.0],[-70.834916,-38.58646,0.0],[-70.835208,-38.586483,0.0]]]}},{"type":"Feature","properties":{"rgi_id":"RGI2000-v7.0-G-17-23919","o1region":"17"},"geometry":{"type":"Polygon","coordinates":[[[-70.867547,-38.635859,0.0],[-70.868189,-38.636087,0.0],[-70.868364,-38.635836,0.0],[-70.868218,-38.635472,0.0],[-70.86778,-38.634993,0.0],[-70.866934,-38.634491,0.0],[-70.866175,-38.634035,0.0],[-70.865708,-38.633876,0.0],[-70.865446,-38.634035,0.0],[-70.865504,-38.634651,0.0],[-70.865796,-38.634788,0.0],[-70.866409,-38.63513,0.0],[-70.866992,-38.635631,0.0],[-70.867547,-38.635859,0.0]]]}},{"type":"Feature","properties":{"rgi_id":"RGI2000-v7.0-G-17-23920","o1region":"17"},"geometry":{"type":"Polygon","coordinates":[[[-70.626974,-38.963623,0.0],[-70.62697,-38.963638,0.0],[-70.626642,-38.963642,0.0],[-70.626658,-38.964723,0.0],[-70.62689,-38.964724,0.0],[-70.627053,-38.96473,0.0],[-70.627051,-38.964796,0.0],[-70.62694,-38.964928,0.0],[-70.626915,-38.964987,0.0],[-70.627006,-38.96496,0.0],[-70.627045,-38.964998,0.0],[-70.627253,-38.965012,0.0],[-70.627371,-38.965013,0.0],[-70.627378,-38.965011,0.0],[-70.627471,-38.964993,0.0],[-70.627689,-38.964982,0.0],[-70.627699,-38.964956,0.0],[-70.627703,-38.964955,0.0],[-70.627828,-38.964603,0.0],[-70.627734,-38.964288,0.0],[-70.627719,-38.964094,0.0],[-70.627719,-38.96402,0.0],[-70.627743,-38.964006,0.0],[-70.627686,-38.963628,0.0],[-70.627488,-38.963632,0.0],[-70.627483,-38.963638,0.0],[-70.627003,-38.96364,0.0],[-70.626974,-38.963623,0.0]]]}}]}
