{"type":"FeatureCollection","features":[{"type":"Feature","properties":{"rgi_id":"RGI2000-v7.0-G-05-17789","o1region":"05"},"geometry":{"type":"Polygon","coordinates":[[[-22.880679,82.754482,0.0],[-22.88109,82.754355,0.0],[-22.880077,82.754303,0.0],[-22.880489,82.754175,0.0],[-22.879476,82.754123,0.0],[-22.8803,82.753867,0.0],[-22.878274,82.753763,0.0],[-22.878685,82.753636,0.0],[-22.877672,82.753584,0.0],[-22.878084,82.753456,0.0],[-22.877071,82.753404,0.0],[-22.877483,82.753276,0.0],[-22.87647,82.753224,0.0],[-22.876882,82.753096,0.0],[-22.875869,82.753044,0.0],[-22.876692,82.752789,0.0],[-22.87568,82.752737,0.0],[-22.876503,82.752481,0.0],[-22.874478,82.752378,0.0],[-22.874889,82.75225,0.0],[-22.873877,82.752198,0.0],[-22.874288,82.75207,0.0],[-22.872263,82.751966,0.0],[-22.873087,82.751711,0.0],[-22.872074,82.751659,0.0],[-22.872486,82.751531,0.0],[-22.87046,82.751427,0.0],[-22.870872,82.751299,0.0],[-22.868847,82.751195,0.0],[-22.869259,82.751067,0.0],[-22.868246,82.751015,0.0],[-22.86907,82.75076,0.0],[-22.867045,82.750656,0.0],[-22.867457,82.750528,0.0],[-22.866444,82.750476,0.0],[-22.866856,82.750348,0.0],[-22.863819,82.750193,0.0],[-22.864231,82.750065,0.0],[-22.863218,82.750013,0.0],[-22.864042,82.749757,0.0],[-22.86303,82.749705,0.0],[-22.863441,82.749577,0.0],[-22.861417,82.749474,0.0],[-22.861829,82.749346,0.0],[-22.860817,82.749294,0.0],[-22.861228,82.749166,0.0],[-22.860216,82.749114,0.0],[-22.860628,82.748986,0.0],[-22.859616,82.748934,0.0],[-22.860028,82.748806,0.0],[-22.859015,82.748755,0.0],[-22.859427,82.748627,0.0],[-22.858415,82.748575,0.0],[-22.858827,82.748447,0.0],[-22.857815,82.748395,0.0],[-22.858639,82.748139,0.0],[-22.857627,82.748087,0.0],[-22.858038,82.74796,0.0],[-22.857026,82.747908,0.0],[-22.85785,82.747652,0.0],[-22.856838,82.7476,0.0],[-22.857662,82.747345,0.0],[-22.85665,82.747293,0.0],[-22.857061,82.747165,0.0],[-22.85605,82.747113,0.0],[-22.856461,82.746985,0.0],[-22.855449,82.746933,0.0],[-22.856273,82.746678,0.0],[-22.855261,82.746626,0.0],[-22.855673,82.746498,0.0],[-22.854661,82.746446,0.0],[-22.855485,82.74619,0.0],[-22.854473,82.746138,0.0],[-22.854885,82.746011,0.0],[-22.852861,82.745907,0.0],[-22.853273,82.745779,0.0],[-22.852261,82.745727,0.0],[-22.853085,82.745471,0.0],[-22.852073,82.745419,0.0],[-22.852485,82.745292,0.0],[-22.850462,82.745188,0.0],[-22.850874,82.74506,0.0],[-22.849862,82.745008,0.0],[-22.850686,82.744752,0.0],[-22.848663,82.744648,0.0],[-22.849486,82.744393,0.0],[-22.847463,82.744289,0.0],[-22.847875,82.744161,0.0],[-22.846864,82.744109,0.0],[-22.847275,82.743981,0.0],[-22.846264,82.743929,0.0],[-22.847087,82.743674,0.0],[-22.846076,82.743622,0.0],[-22.85472,82.740939,0.0],[-22.853709,82.740887,0.0],[-22.854532,82.740631,0.0],[-22.851499,82.740475,0.0],[-22.851911,82.740347,0.0],[-22.849889,82.740243,0.0],[-22.853592,82.739094,0.0],[-22.854603,82.739146,0.0],[-22.855837,82.738762,0.0],[-22.856847,82.738814,0.0],[-22.857259,82.738687,0.0],[-22.858269,82.738739,0.0],[-22.859092,82.738483,0.0],[-22.860103,82.738535,0.0],[-22.860925,82.73828,0.0],[-22.862946,82.738383,0.0],[-22.866646,82.737234,0.0],[-22.867657,82.737286,0.0],[-22.86889,82.736902,0.0],[-22.8699,82.736954,0.0],[-22.872366,82.736188,0.0],[-22.873376,82.736239,0.0],[-22.874609,82.735856,0.0],[-22.875619,82.735908,0.0],[-22.876441,82.735653,0.0],[-22.877451,82.735704,0.0],[-22.879505,82.735066,0.0],[-22.880515,82.735117,0.0],[-22.882158,82.734606,0.0],[-22.883168,82.734658,0.0],[-22.88399,82.734403,0.0],[-22.885,82.734455,0.0],[-22.886232,82.734071,0.0],[-22.887242,82.734123,0.0],[-22.887652,82.733995,0.0],[-22.888663,82.734047,0.0],[-22.889073,82.73392,0.0],[-22.890083,82.733971,0.0],[-22.891315,82.733588,0.0],[-22.892325,82.73364,0.0],[-22.892735,82.733512,0.0],[-22.893745,82.733564,0.0],[-22.894156,82.733436,0.0],[-22.895166,82.733488,0.0],[-22.895987,82.733233,0.0],[-22.896997,82.733285,0.0],[-22.897407,82.733157,0.0],[-22.898417,82.733209,0.0],[-22.898828,82.733081,0.0],[-22.899838,82.733133,0.0],[-22.900248,82.733005,0.0],[-22.901258,82.733057,0.0],[-22.901669,82.732929,0.0],[-22.902679,82.732981,0.0],[-22.903499,82.732725,0.0],[-22.90552,82.732829,0.0],[-22.90675,82.732446,0.0],[-22.90776,82.732498,0.0],[-22.90858,82.732242,0.0],[-22.90959,82.732294,0.0],[-22.91082,82.73191,0.0],[-22.91183,82.731962,0.0],[-22.91388,82.731323,0.0],[-22.91489,82.731375,0.0],[-22.91612,82.730992,0.0],[-22.91713,82.731043,0.0],[-22.918769,82.730532,0.0],[-22.919779,82.730584,0.0],[-22.920188,82.730456,0.0],[-22.921199,82.730508,0.0],[-22.922018,82.730252,0.0],[-22.924038,82.730356,0.0],[-22.924448,82.730228,0.0],[-22.925458,82.73028,0.0],[-22.925867,82.730152,0.0],[-22.927887,82.730256,0.0],[-22.928706,82.73,0.0],[-22.930726,82.730104,0.0],[-22.931545,82.729848,0.0],[-22.934575,82.730004,0.0],[-22.934985,82.729876,0.0],[-22.942056,82.730239,0.0],[-22.942465,82.730111,0.0],[-22.96065,82.731043,0.0],[-22.960241,82.731171,0.0],[-22.964282,82.731378,0.0],[-22.963464,82.731633,0.0],[-22.97357,82.732151,0.0],[-22.973979,82.732023,0.0],[-22.974989,82.732075,0.0],[-22.975398,82.731947,0.0],[-22.979441,82.732154,0.0],[-22.980258,82.731898,0.0],[-22.98228,82.732001,0.0],[-22.982688,82.731873,0.0],[-22.983699,82.731925,0.0],[-22.984108,82.731797,0.0],[-22.996237,82.732418,0.0],[-22.994603,82.732929,0.0],[-22.995614,82.732981,0.0],[-22.995205,82.733109,0.0],[-22.996216,82.73316,0.0],[-22.995399,82.733416,0.0],[-22.99641,82.733468,0.0],[-22.996001,82.733596,0.0],[-22.997012,82.733647,0.0],[-22.996195,82.733903,0.0],[-22.997206,82.733955,0.0],[-22.996798,82.734083,0.0],[-22.99882,82.734186,0.0],[-22.997594,82.73457,0.0],[-22.998605,82.734622,0.0],[-22.998197,82.734749,0.0],[-23.00123,82.734904,0.0],[-23.000413,82.73516,0.0],[-23.004458,82.735367,0.0],[-23.00405,82.735495,0.0],[-23.009107,82.735753,0.0],[-23.008698,82.735881,0.0],[-23.018813,82.736397,0.0],[-23.018405,82.736525,0.0],[-23.020428,82.736629,0.0],[-23.019611,82.736884,0.0],[-23.020623,82.736936,0.0],[-23.019806,82.737192,0.0],[-23.020818,82.737243,0.0],[-23.02041,82.737371,0.0],[-23.021421,82.737423,0.0],[-23.021013,82.737551,0.0],[-23.022025,82.737602,0.0],[-23.021208,82.737858,0.0],[-23.02222,82.73791,0.0],[-23.021403,82.738166,0.0],[-23.022415,82.738217,0.0],[-23.022007,82.738345,0.0],[-23.023019,82.738397,0.0],[-23.02261,82.738525,0.0],[-23.023622,82.738576,0.0],[-23.022805,82.738832,0.0],[-23.025841,82.738987,0.0],[-23.025433,82.739115,0.0],[-23.028469,82.73927,0.0],[-23.028061,82.739398,0.0],[-23.029073,82.739449,0.0],[-23.028664,82.739577,0.0],[-23.031701,82.739732,0.0],[-23.030884,82.739988,0.0],[-23.03392,82.740143,0.0],[-23.033512,82.740271,0.0],[-23.037561,82.740477,0.0],[-23.037153,82.740605,0.0],[-23.048289,82.741172,0.0],[-23.047881,82.7413,0.0],[-23.050918,82.741455,0.0],[-23.045613,82.743118,0.0],[-23.046625,82.74317,0.0],[-23.045809,82.743426,0.0],[-23.046822,82.743477,0.0],[-23.046005,82.743733,0.0],[-23.047018,82.743785,0.0],[-23.04661,82.743913,0.0],[-23.047622,82.743964,0.0],[-23.046398,82.744348,0.0],[-23.047411,82.744399,0.0],[-23.046594,82.744655,0.0],[-23.047607,82.744707,0.0],[-23.04679,82.744963,0.0],[-23.047803,82.745014,0.0],[-23.047395,82.745142,0.0],[-23.048408,82.745194,0.0],[-23.048,82.745322,0.0],[-23.050026,82.745425,0.0],[-23.049209,82.745681,0.0],[-23.050222,82.745732,0.0],[-23.049814,82.74586,0.0],[-23.050827,82.745912,0.0],[-23.050011,82.746168,0.0],[-23.051024,82.746219,0.0],[-23.050207,82.746475,0.0],[-23.05122,82.746527,0.0],[-23.050812,82.746655,0.0],[-23.051825,82.746706,0.0],[-23.051417,82.746834,0.0],[-23.05243,82.746886,0.0],[-23.051613,82.747142,0.0],[-23.052627,82.747193,0.0],[-23.046092,82.74924,0.0],[-23.045078,82.749189,0.0],[-23.043853,82.749572,0.0],[-23.032704,82.749005,0.0],[-23.031478,82.749389,0.0],[-23.030464,82.749337,0.0],[-23.023103,82.75164,0.0],[-23.022089,82.751588,0.0],[-23.020862,82.751972,0.0],[-23.019848,82.75192,0.0],[-23.018211,82.752432,0.0],[-23.017198,82.75238,0.0],[-23.01597,82.752764,0.0],[-23.014956,82.752712,0.0],[-23.014547,82.75284,0.0],[-23.013533,82.752788,0.0],[-23.011895,82.7533,0.0],[-23.010882,82.753248,0.0],[-23.009244,82.75376,0.0],[-23.00823,82.753708,0.0],[-23.004954,82.754732,0.0],[-23.00394,82.75468,0.0],[-23.002301,82.755192,0.0],[-23.001287,82.75514,0.0],[-23.000058,82.755524,0.0],[-22.999044,82.755472,0.0],[-22.998634,82.7556,0.0],[-22.99762,82.755548,0.0],[-22.9968,82.755804,0.0],[-22.995786,82.755752,0.0],[-22.994967,82.756008,0.0],[-22.992938,82.755905,0.0],[-22.992529,82.756032,0.0],[-22.9905,82.755929,0.0],[-22.99009,82.756057,0.0],[-22.989076,82.756005,0.0],[-22.988256,82.756261,0.0],[-22.987242,82.756209,0.0],[-22.986422,82.756465,0.0],[-22.98338,82.75631,0.0],[-22.98297,82.756438,0.0],[-22.981956,82.756386,0.0],[-22.981546,82.756514,0.0],[-22.979518,82.756411,0.0],[-22.979107,82.756538,0.0],[-22.978093,82.756487,0.0],[-22.977683,82.756615,0.0],[-22.976669,82.756563,0.0],[-22.976259,82.756691,0.0],[-22.975245,82.756639,0.0],[-22.974835,82.756767,0.0],[-22.973821,82.756715,0.0],[-22.97341,82.756843,0.0],[-22.972396,82.756791,0.0],[-22.971986,82.756919,0.0],[-22.970972,82.756867,0.0],[-22.970151,82.757123,0.0],[-22.969137,82.757071,0.0],[-22.968727,82.757199,0.0],[-22.96467,82.756992,0.0],[-22.96385,82.757248,0.0],[-22.962835,82.757196,0.0],[-22.962425,82.757324,0.0],[-22.961411,82.757272,0.0],[-22.955662,82.759062,0.0],[-22.956677,82.759114,0.0],[-22.955034,82.759626,0.0],[-22.956048,82.759677,0.0],[-22.955227,82.759933,0.0],[-22.956241,82.759985,0.0],[-22.954187,82.760624,0.0],[-22.955202,82.760676,0.0],[-22.951915,82.761699,0.0],[-22.953944,82.761802,0.0],[-22.9523,82.762314,0.0],[-22.95433,82.762417,0.0],[-22.953508,82.762673,0.0],[-22.954523,82.762725,0.0],[-22.95329,82.763108,0.0],[-22.954305,82.76316,0.0],[-22.953483,82.763416,0.0],[-22.954498,82.763468,0.0],[-22.953265,82.763851,0.0],[-22.954279,82.763903,0.0],[-22.953457,82.764159,0.0],[-22.954472,82.76421,0.0],[-22.95365,82.764466,0.0],[-22.954665,82.764518,0.0],[-22.952199,82.765285,0.0],[-22.953214,82.765337,0.0],[-22.951981,82.76572,0.0],[-22.954011,82.765824,0.0],[-22.953189,82.76608,0.0],[-22.954204,82.766131,0.0],[-22.953793,82.766259,0.0],[-22.954808,82.766311,0.0],[-22.954397,82.766439,0.0],[-22.957443,82.766594,0.0],[-22.957032,82.766722,0.0],[-22.958047,82.766774,0.0],[-22.957225,82.76703,0.0],[-22.95824,82.767081,0.0],[-22.957829,82.767209,0.0],[-22.958845,82.767261,0.0],[-22.958434,82.767389,0.0],[-22.959449,82.767441,0.0],[-22.951224,82.769998,0.0],[-22.950208,82.769946,0.0],[-22.950619,82.769818,0.0],[-22.949604,82.769766,0.0],[-22.950015,82.769638,0.0],[-22.947984,82.769535,0.0],[-22.948395,82.769407,0.0],[-22.947379,82.769355,0.0],[-22.947791,82.769227,0.0],[-22.94576,82.769124,0.0],[-22.946171,82.768996,0.0],[-22.945156,82.768944,0.0],[-22.945567,82.768816,0.0],[-22.943536,82.768713,0.0],[-22.943947,82.768585,0.0],[-22.941916,82.768481,0.0],[-22.942739,82.768226,0.0],[-22.940708,82.768122,0.0],[-22.94112,82.767994,0.0],[-22.940104,82.767942,0.0],[-22.940927,82.767687,0.0],[-22.936866,82.767479,0.0],[-22.937277,82.767352,0.0],[-22.936262,82.7673,0.0],[-22.937085,82.767044,0.0],[-22.934039,82.766889,0.0],[-22.934451,82.766761,0.0],[-22.933436,82.766709,0.0],[-22.933847,82.766581,0.0],[-22.930802,82.766426,0.0],[-22.931213,82.766298,0.0],[-22.928168,82.766142,0.0],[-22.92858,82.766014,0.0],[-22.925535,82.765859,0.0],[-22.925946,82.765731,0.0],[-22.924931,82.765679,0.0],[-22.925343,82.765551,0.0],[-22.924328,82.7655,0.0],[-22.924739,82.765372,0.0],[-22.92271,82.765268,0.0],[-22.923121,82.76514,0.0],[-22.922106,82.765088,0.0],[-22.922518,82.764961,0.0],[-22.919473,82.764805,0.0],[-22.920297,82.764549,0.0],[-22.918267,82.764446,0.0],[-22.919091,82.76419,0.0],[-22.918076,82.764138,0.0],[-22.918487,82.76401,0.0],[-22.917473,82.763959,0.0],[-22.917884,82.763831,0.0],[-22.91687,82.763779,0.0],[-22.917281,82.763651,0.0],[-22.915252,82.763547,0.0],[-22.915664,82.763419,0.0],[-22.914649,82.763368,0.0],[-22.915473,82.763112,0.0],[-22.914458,82.76306,0.0],[-22.91487,82.762932,0.0],[-22.913855,82.76288,0.0],[-22.914267,82.762753,0.0],[-22.913252,82.762701,0.0],[-22.913664,82.762573,0.0],[-22.91265,82.762521,0.0],[-22.913061,82.762393,0.0],[-22.912047,82.762341,0.0],[-22.91287,82.762086,0.0],[-22.911856,82.762034,0.0],[-22.912267,82.761906,0.0],[-22.911253,82.761854,0.0],[-22.912076,82.761599,0.0],[-22.911062,82.761547,0.0],[-22.911474,82.761419,0.0],[-22.910459,82.761367,0.0],[-22.911283,82.761111,0.0],[-22.909254,82.761008,0.0],[-22.909666,82.76088,0.0],[-22.908651,82.760828,0.0],[-22.909475,82.760572,0.0],[-22.906432,82.760417,0.0],[-22.906844,82.760289,0.0],[-22.90583,82.760237,0.0],[-22.906242,82.760109,0.0],[-22.905227,82.760057,0.0],[-22.905639,82.759929,0.0],[-22.904625,82.759878,0.0],[-22.905037,82.75975,0.0],[-22.904023,82.759698,0.0],[-22.904434,82.75957,0.0],[-22.90342,82.759518,0.0],[-22.903832,82.75939,0.0],[-22.902818,82.759338,0.0],[-22.903641,82.759083,0.0],[-22.901614,82.758979,0.0],[-22.902025,82.758851,0.0],[-22.901011,82.758799,0.0],[-22.901423,82.758672,0.0],[-22.899395,82.758568,0.0],[-22.900219,82.758312,0.0],[-22.897178,82.758156,0.0],[-22.897589,82.758029,0.0],[-22.896576,82.757977,0.0],[-22.896987,82.757849,0.0],[-22.895974,82.757797,0.0],[-22.896385,82.757669,0.0],[-22.895372,82.757617,0.0],[-22.895783,82.75749,0.0],[-22.89477,82.757438,0.0],[-22.895181,82.75731,0.0],[-22.894168,82.757258,0.0],[-22.894579,82.75713,0.0],[-22.893566,82.757078,0.0],[-22.893978,82.75695,0.0],[-22.892964,82.756899,0.0],[-22.893787,82.756643,0.0],[-22.892774,82.756591,0.0],[-22.893186,82.756463,0.0],[-22.891159,82.756359,0.0],[-22.89157,82.756232,0.0],[-22.889544,82.756128,0.0],[-22.889955,82.756,0.0],[-22.888942,82.755948,0.0],[-22.889354,82.75582,0.0],[-22.886314,82.755665,0.0],[-22.886725,82.755537,0.0],[-22.885712,82.755485,0.0],[-22.886124,82.755357,0.0],[-22.883084,82.755201,0.0],[-22.883908,82.754946,0.0],[-22.882894,82.754894,0.0],[-22.883306,82.754766,0.0],[-22.88128,82.754662,0.0],[-22.881692,82.754534,0.0],[-22.880679,82.754482,0.0]]]}}]}
