{"type":"FeatureCollection","features":[{"type":"Feature","properties":{"rgi_id":"RGI2000-v7.0-G-16-01254","o1region":"16"},"geometry":{"type":"Polygon","coordinates":[[[-75.148879,-12.995339,0.0],[-75.14888,-12.99561,0.0],[-75.149156,-12.99561,0.0],[-75.149156,-12.995881,0.0],[-75.149433,-12.995881,0.0],[-75.149433,-12.99561,0.0],[-75.150539,-12.995609,0.0],[-75.150539,-12.995338,0.0],[-75.151093,-12.995338,0.0],[-75.151092,-12.995066,0.0],[-75.149709,-12.995067,0.0],[-75.149709,-12.994796,0.0],[-75.147772,-12.994797,0.0],[-75.147772,-12.994526,0.0],[-75.147219,-12.994526,0.0],[-75.147219,-12.995069,0.0],[-75.147496,-12.995069,0.0],[-75.147496,-12.99534,0.0],[-75.148879,-12.995339,0.0]]]}},{"type":"Feature","properties":{"rgi_id":"RGI2000-v7.0-G-16-01255","o1region":"16"},"geometry":{"type":"Polygon","coordinates":[[[-75.015271,-13.155436,0.0],[-75.015271,-13.155979,0.0],[-75.014718,-13.155979,0.0],[-75.014718,-13.157335,0.0],[-75.014995,-13.157335,0.0],[-75.014995,-13.157607,0.0],[-75.015548,-13.157607,0.0],[-75.015548,-13.158692,0.0],[-75.015825,-13.158692,0.0],[-75.015825,-13.158963,0.0],[-75.016656,-13.158963,0.0],[-75.016656,-13.158692,0.0],[-75.017209,-13.158692,0.0],[-75.017209,-13.15842,0.0],[-75.01804,-13.15842,0.0],[-75.01804,-13.158149,0.0],[-75.017763,-13.158149,0.0],[-75.017763,-13.157606,0.0],[-75.01804,-13.157606,0.0],[-75.01804,-13.157064,0.0],[-75.017486,-13.157064,0.0],[-75.017486,-13.156521,0.0],[-75.017209,-13.156521,0.0],[-75.017209,-13.15625,0.0],[-75.016655,-13.15625,0.0],[-75.016655,-13.155979,0.0],[-75.016102,-13.155979,0.0],[-75.016102,-13.155708,0.0],[-75.015825,-13.155708,0.0],[-75.015825,-13.155436,0.0],[-75.015271,-13.155436,0.0]]]}},{"type":"Feature","properties":{"rgi_id":"RGI2000-v7.0-G-16-01256","o1region":"16"},"geometry":{"type":"Polygon","coordinates":[[[-75.010565,-13.158963,0.0],[-75.011119,-13.158963,0.0],[-75.011119,-13.159234,0.0],[-75.011396,-13.159234,0.0],[-75.011396,-13.158692,0.0],[-75.011673,-13.158692,0.0],[-75.011673,-13.158149,0.0],[-75.01195,-13.158149,0.0],[-75.01195,-13.157878,0.0],[-75.012226,-13.157878,0.0],[-75.012226,-13.157607,0.0],[-75.012503,-13.157607,0.0],[-75.012503,-13.157878,0.0],[-75.013057,-13.157878,0.0],[-75.013057,-13.155708,0.0],[-75.01278,-13.155708,0.0],[-75.01278,-13.155979,0.0],[-75.012503,-13.155979,0.0],[-75.012503,-13.155437,0.0],[-75.011949,-13.155437,0.0],[-75.011949,-13.155708,0.0],[-75.011396,-13.155708,0.0],[-75.011396,-13.155979,0.0],[-75.011673,-13.155979,0.0],[-75.011673,-13.157607,0.0],[-75.011396,-13.157607,0.0],[-75.011396,-13.157336,0.0],[-75.010842,-13.157336,0.0],[-75.010842,-13.157064,0.0],[-75.010289,-13.157064,0.0],[-75.010289,-13.157607,0.0],[-75.010565,-13.157607,0.0],[-75.010565,-13.157878,0.0],[-75.010289,-13.157878,0.0],[-75.010289,-13.158149,0.0],[-75.010012,-13.158149,0.0],[-75.010012,-13.158421,0.0],[-75.010565,-13.158421,0.0],[-75.010565,-13.158963,0.0]],[[-75.011119,-13.158149,0.0],[-75.011119,-13.157878,0.0],[-75.011673,-13.157878,0.0],[-75.011673,-13.158149,0.0],[-75.011119,-13.158149,0.0]],[[-75.010565,-13.158149,0.0],[-75.010842,-13.158149,0.0],[-75.010842,-13.158421,0.0],[-75.010565,-13.158421,0.0],[-75.010565,-13.158149,0.0]],[[-75.012226,-13.157064,0.0],[-75.012503,-13.157064,0.0],[-75.012503,-13.156793,0.0],[-75.01278,-13.156793,0.0],[-75.01278,-13.157335,0.0],[-75.012226,-13.157335,0.0],[-75.012226,-13.157064,0.0]]]}}]}
