{"type":"FeatureCollection","features":[{"type":"Feature","properties":{"rgi_id":"RGI2000-v7.0-G-10-00089","o1region":"10"},"geometry":{"type":"Polygon","coordinates":[[[63.398812,66.444514,0.0],[63.398808,66.444245,0.0],[63.400153,66.444241,0.0],[63.400149,66.443972,0.0],[63.402167,66.443967,0.0],[63.402162,66.443698,0.0],[63.402835,66.443696,0.0],[63.402831,66.443427,0.0],[63.403504,66.443425,0.0],[63.403499,66.443156,0.0],[63.404172,66.443154,0.0],[63.404167,66.442885,0.0],[63.402822,66.442889,0.0],[63.402818,66.442619,0.0],[63.402145,66.442621,0.0],[63.402141,66.442352,0.0],[63.398778,66.442361,0.0],[63.398773,66.442092,0.0],[63.397428,66.442095,0.0],[63.397454,66.44371,0.0],[63.396781,66.443711,0.0],[63.39679,66.44425,0.0],[63.397462,66.444248,0.0],[63.397467,66.444517,0.0],[63.398812,66.444514,0.0]]]}},{"type":"Feature","properties":{"rgi_id":"RGI2000-v7.0-G-10-00090","o1region":"10"},"geometry":{"type":"Polygon","coordinates":[[[63.459231,66.474222,0.0],[63.462598,66.474212,0.0],[63.462593,66.473943,0.0],[63.463267,66.473941,0.0],[63.463272,66.47421,0.0],[63.464619,66.474206,0.0],[63.464609,66.473668,0.0],[63.465282,66.473666,0.0],[63.465277,66.473397,0.0],[63.465951,66.473395,0.0],[63.465941,66.472857,0.0],[63.459879,66.472875,0.0],[63.459874,66.472605,0.0],[63.459201,66.472607,0.0],[63.459186,66.4718,0.0],[63.457839,66.471804,0.0],[63.457849,66.472342,0.0],[63.457176,66.472344,0.0],[63.457171,66.472075,0.0],[63.455824,66.472079,0.0],[63.455844,66.473155,0.0],[63.45719,66.473152,0.0],[63.457195,66.473421,0.0],[63.457869,66.473419,0.0],[63.457874,66.473688,0.0],[63.458547,66.473686,0.0],[63.458552,66.473955,0.0],[63.459226,66.473953,0.0],[63.459231,66.474222,0.0]]]}},{"type":"Feature","properties":{"rgi_id":"RGI2000-v7.0-G-10-00091","o1region":"10"},"geometry":{"type":"Polygon","coordinates":[[[63.800374,66.495902,0.0],[63.806416,66.496104,0.0],[63.806583,66.4953,0.0],[63.805912,66.495277,0.0],[63.806054,66.494596,0.0],[63.806192,66.493937,0.0],[63.806863,66.493959,0.0],[63.807143,66.492619,0.0],[63.807814,66.492642,0.0],[63.807926,66.492106,0.0],[63.806584,66.492061,0.0],[63.806528,66.492329,0.0],[63.805856,66.492307,0.0],[63.8058,66.492575,0.0],[63.805129,66.492552,0.0],[63.805185,66.492284,0.0],[63.803843,66.49224,0.0],[63.803787,66.492508,0.0],[63.802444,66.492463,0.0],[63.802332,66.492999,0.0],[63.80099,66.492954,0.0],[63.800934,66.493222,0.0],[63.800262,66.4932,0.0],[63.800206,66.493468,0.0],[63.799535,66.493445,0.0],[63.799479,66.493714,0.0],[63.798808,66.493691,0.0],[63.798752,66.493959,0.0],[63.798081,66.493937,0.0],[63.797912,66.494741,0.0],[63.798584,66.494763,0.0],[63.798488,66.495223,0.0],[63.798472,66.495299,0.0],[63.798645,66.495305,0.0],[63.799143,66.495322,0.0],[63.799111,66.495477,0.0],[63.799087,66.49559,0.0],[63.799974,66.495619,0.0],[63.80043,66.495634,0.0],[63.800427,66.495644,0.0],[63.800374,66.495902,0.0]]]}},{"type":"Feature","properties":{"rgi_id":"RGI2000-v7.0-G-10-00092","o1region":"10"},"geometry":{"type":"Polygon","coordinates":[[[63.856722,66.530694,0.0],[63.858067,66.530738,0.0],[63.858011,66.531006,0.0],[63.861373,66.531117,0.0],[63.861428,66.530849,0.0],[63.860756,66.530827,0.0],[63.860922,66.530023,0.0],[63.861595,66.530045,0.0],[63.861761,66.529241,0.0],[63.861089,66.529218,0.0],[63.8612,66.528682,0.0],[63.859855,66.528638,0.0],[63.85991,66.52837,0.0],[63.859238,66.528348,0.0],[63.859127,66.528884,0.0],[63.85711,66.528818,0.0],[63.857166,66.52855,0.0],[63.856494,66.528527,0.0],[63.856549,66.528259,0.0],[63.857221,66.528282,0.0],[63.857277,66.528014,0.0],[63.857949,66.528036,0.0],[63.858005,66.527768,0.0],[63.858677,66.52779,0.0],[63.859065,66.525913,0.0],[63.857721,66.525869,0.0],[63.857776,66.525601,0.0],[63.857104,66.525579,0.0],[63.85716,66.525311,0.0],[63.856487,66.525289,0.0],[63.856654,66.524485,0.0],[63.855982,66.524463,0.0],[63.856037,66.524195,0.0],[63.855365,66.524172,0.0],[63.855199,66.524977,0.0],[63.853854,66.524932,0.0],[63.853743,66.525468,0.0],[63.853071,66.525446,0.0],[63.853015,66.525714,0.0],[63.851671,66.52567,0.0],[63.851504,66.526474,0.0],[63.85016,66.52643,0.0],[63.850049,66.526966,0.0],[63.849377,66.526944,0.0],[63.849321,66.527212,0.0],[63.848649,66.52719,0.0],[63.848593,66.527458,0.0],[63.847249,66.527413,0.0],[63.847193,66.527681,0.0],[63.845849,66.527637,0.0],[63.845793,66.527905,0.0],[63.848482,66.527994,0.0],[63.848538,66.527726,0.0],[63.850554,66.527792,0.0],[63.850499,66.52806,0.0],[63.851843,66.528104,0.0],[63.851732,66.528641,0.0],[63.852404,66.528663,0.0],[63.852349,66.528931,0.0],[63.853021,66.528953,0.0],[63.852966,66.529221,0.0],[63.854983,66.529287,0.0],[63.85476,66.53036,0.0],[63.856105,66.530404,0.0],[63.855994,66.53094,0.0],[63.856666,66.530962,0.0],[63.856722,66.530694,0.0]]]}},{"type":"Feature","properties":{"rgi_id":"RGI2000-v7.0-G-10-00093","o1region":"10"},"geometry":{"type":"Polygon","coordinates":[[[63.705243,66.575581,0.0],[63.705236,66.575312,0.0],[63.70456,66.575315,0.0],[63.704552,66.575046,0.0],[63.705228,66.575042,0.0],[63.705213,66.574504,0.0],[63.703861,66.57451,0.0],[63.703868,66.574779,0.0],[63.703192,66.574782,0.0],[63.703215,66.57559,0.0],[63.702539,66.575593,0.0],[63.702546,66.575862,0.0],[63.703222,66.575859,0.0],[63.70323,66.576128,0.0],[63.702554,66.576131,0.0],[63.702561,66.5764,0.0],[63.703238,66.576397,0.0],[63.703253,66.576935,0.0],[63.704605,66.576929,0.0],[63.704598,66.57666,0.0],[63.706626,66.576651,0.0],[63.706619,66.576382,0.0],[63.707295,66.576379,0.0],[63.707303,66.576648,0.0],[63.708655,66.576642,0.0],[63.708671,66.57718,0.0],[63.709347,66.577177,0.0],[63.709355,66.577446,0.0],[63.710064,66.575559,0.0],[63.710006,66.575559,0.0],[63.709301,66.575562,0.0],[63.709308,66.575832,0.0],[63.708632,66.575835,0.0],[63.708617,66.575296,0.0],[63.707264,66.575302,0.0],[63.707272,66.575572,0.0],[63.705243,66.575581,0.0]],[[63.707948,66.575569,0.0],[63.707956,66.575838,0.0],[63.70728,66.575841,0.0],[63.707272,66.575572,0.0],[63.707948,66.575569,0.0]]]}},{"type":"Feature","properties":{"rgi_id":"RGI2000-v7.0-G-10-00094","o1region":"10"},"geometry":{"type":"Polygon","coordinates":[[[63.703825,66.597118,0.0],[63.706532,66.597106,0.0],[63.706524,66.596837,0.0],[63.707878,66.596831,0.0],[63.70787,66.596562,0.0],[63.708547,66.596559,0.0],[63.708539,66.59629,0.0],[63.709893,66.596284,0.0],[63.709885,66.596015,0.0],[63.710562,66.596011,0.0],[63.710546,66.595473,0.0],[63.70987,66.595476,0.0],[63.709862,66.595207,0.0],[63.709185,66.59521,0.0],[63.709147,66.593865,0.0],[63.707793,66.593871,0.0],[63.707786,66.593602,0.0],[63.708462,66.593599,0.0],[63.708432,66.592522,0.0],[63.707078,66.592528,0.0],[63.707094,66.593069,0.0],[63.707102,66.593352,0.0],[63.707132,66.594412,0.0],[63.705779,66.594418,0.0],[63.705771,66.594149,0.0],[63.705529,66.59415,0.0],[63.704417,66.594155,0.0],[63.70442,66.59425,0.0],[63.704425,66.594424,0.0],[63.703737,66.594427,0.0],[63.703072,66.59443,0.0],[63.703086,66.594924,0.0],[63.703102,66.595507,0.0],[63.702425,66.59551,0.0],[63.702448,66.596317,0.0],[63.701771,66.59632,0.0],[63.701779,66.596589,0.0],[63.702456,66.596586,0.0],[63.702463,66.596855,0.0],[63.703817,66.596849,0.0],[63.703825,66.597118,0.0]]]}},{"type":"Feature","properties":{"rgi_id":"RGI2000-v7.0-G-10-00095","o1region":"10"},"geometry":{"type":"Polygon","coordinates":[[[64.010768,66.646587,0.0],[64.011201,66.644442,0.0],[64.00985,66.644399,0.0],[64.009796,66.644668,0.0],[64.00912,66.644646,0.0],[64.009066,66.644914,0.0],[64.009742,66.644936,0.0],[64.009471,66.646276,0.0],[64.008795,66.646255,0.0],[64.008741,66.646523,0.0],[64.00739,66.64648,0.0],[64.007336,66.646748,0.0],[64.005984,66.646705,0.0],[64.00593,66.646973,0.0],[64.004579,66.64693,0.0],[64.004525,66.647198,0.0],[64.003849,66.647177,0.0],[64.003795,66.647445,0.0],[64.003119,66.647423,0.0],[64.003065,66.647691,0.0],[64.005767,66.647777,0.0],[64.005822,66.647509,0.0],[64.007173,66.647552,0.0],[64.007227,66.647284,0.0],[64.007903,66.647306,0.0],[64.007957,66.647038,0.0],[64.008633,66.647059,0.0],[64.008687,66.646791,0.0],[64.009362,66.646812,0.0],[64.009417,66.646544,0.0],[64.010768,66.646587,0.0]]]}}]}
