{"type":"FeatureCollection","features":[{"type":"Feature","properties":{"rgi_id":"RGI2000-v7.0-G-09-00370","o1region":"09"},"geometry":{"type":"Polygon","coordinates":[[[59.325388,81.327067,0.0],[59.196392,81.330529,0.0],[59.107174,81.333872,0.0],[59.010591,81.3413,0.0],[58.930906,81.352881,0.0],[58.925978,81.353596,0.0],[58.887226,81.36586,0.0],[58.864736,81.38067,0.0],[58.870325,81.398507,0.0],[58.899811,81.414791,0.0],[58.911158,81.420952,0.0],[58.914219,81.421105,0.0],[58.934762,81.418829,0.0],[58.960198,81.416768,0.0],[58.975759,81.414032,0.0],[58.996436,81.412476,0.0],[59.007234,81.414451,0.0],[59.029384,81.414998,0.0],[59.067268,81.414181,0.0],[59.106252,81.411654,0.0],[59.116811,81.409112,0.0],[59.122603,81.407017,0.0],[59.116844,81.405568,0.0],[59.098094,81.404997,0.0],[59.089996,81.403784,0.0],[59.104991,81.399821,0.0],[59.147631,81.394136,0.0],[59.177266,81.391689,0.0],[59.216883,81.388806,0.0],[59.233737,81.385326,0.0],[59.237449,81.380954,0.0],[59.228532,81.377623,0.0],[59.227109,81.372073,0.0],[59.243429,81.366662,0.0],[59.264133,81.360356,0.0],[59.290271,81.355266,0.0],[59.303558,81.3506,0.0],[59.306582,81.343816,0.0],[59.309336,81.338234,0.0],[59.314941,81.333534,0.0],[59.325162,81.329204,0.0],[59.325388,81.327067,0.0]]]}},{"type":"Feature","properties":{"rgi_id":"RGI2000-v7.0-G-09-00371","o1region":"09"},"geometry":{"type":"Polygon","coordinates":[[[59.325388,81.327067,0.0],[59.307248,81.322062,0.0],[59.273485,81.314979,0.0],[59.233748,81.310173,0.0],[59.171623,81.304397,0.0],[59.129374,81.301826,0.0],[59.074329,81.298745,0.0],[59.016356,81.296639,0.0],[58.988185,81.296285,0.0],[58.968518,81.296888,0.0],[58.944758,81.297734,0.0],[58.91924,81.297863,0.0],[58.87829,81.300482,0.0],[58.82016,81.305111,0.0],[58.761775,81.308766,0.0],[58.721897,81.309189,0.0],[58.682339,81.311297,0.0],[58.656139,81.316484,0.0],[58.623291,81.32021,0.0],[58.604094,81.322488,0.0],[58.593736,81.325203,0.0],[58.552547,81.336725,0.0],[58.544589,81.339015,0.0],[58.53284,81.340221,0.0],[58.638546,81.343721,0.0],[58.75422,81.349113,0.0],[58.851927,81.350589,0.0],[58.930906,81.352881,0.0],[59.010591,81.3413,0.0],[59.107174,81.333872,0.0],[59.196392,81.330529,0.0],[59.325388,81.327067,0.0]]]}},{"type":"Feature","properties":{"rgi_id":"RGI2000-v7.0-G-09-00372","o1region":"09"},"geometry":{"type":"Polygon","coordinates":[[[59.435789,81.195973,0.0],[59.426796,81.19263,0.0],[59.408098,81.190688,0.0],[59.384248,81.189755,0.0],[59.3809,81.189623,0.0],[59.349978,81.189714,0.0],[59.315402,81.191267,0.0],[59.287268,81.191747,0.0],[59.256599,81.192858,0.0],[59.228896,81.192404,0.0],[59.19781,81.191865,0.0],[59.16185,81.190629,0.0],[59.122042,81.190134,0.0],[59.092225,81.192051,0.0],[59.067819,81.194143,0.0],[59.031443,81.196916,0.0],[59.013436,81.200618,0.0],[59.008105,81.20384,0.0],[59.009781,81.208262,0.0],[59.026737,81.211675,0.0],[59.053573,81.214003,0.0],[59.097478,81.214278,0.0],[59.112358,81.214619,0.0],[59.140886,81.215272,0.0],[59.19643,81.216191,0.0],[59.196827,81.21618,0.0],[59.241332,81.215001,0.0],[59.299557,81.21321,0.0],[59.365454,81.209919,0.0],[59.414395,81.206416,0.0],[59.439425,81.204297,0.0],[59.445272,81.201065,0.0],[59.443805,81.198188,0.0],[59.435789,81.195973,0.0]]]}},{"type":"Feature","properties":{"rgi_id":"RGI2000-v7.0-G-09-00373","o1region":"09"},"geometry":{"type":"Polygon","coordinates":[[[60.16912,81.307235,0.0],[60.166606,81.30401,0.0],[60.192541,81.290597,0.0],[60.241801,81.280552,0.0],[60.276356,81.269335,0.0],[60.286533,81.260361,0.0],[60.281443,81.260576,0.0],[60.269598,81.258969,0.0],[60.254189,81.260383,0.0],[60.227043,81.263035,0.0],[60.202427,81.264952,0.0],[60.170781,81.268207,0.0],[60.147175,81.270397,0.0],[60.120851,81.272892,0.0],[60.090519,81.274705,0.0],[60.067614,81.276314,0.0],[60.044849,81.275642,0.0],[60.021795,81.274116,0.0],[59.9982,81.273733,0.0],[59.967839,81.275536,0.0],[59.92778,81.279263,0.0],[59.883515,81.284584,0.0],[59.860443,81.288744,0.0],[59.850944,81.294226,0.0],[59.856793,81.297742,0.0],[59.876592,81.300726,0.0],[59.904669,81.303077,0.0],[59.929705,81.304737,0.0],[59.952345,81.304848,0.0],[59.97819,81.306072,0.0],[60.004725,81.309283,0.0],[60.0297,81.310653,0.0],[60.059726,81.310272,0.0],[60.085841,81.309493,0.0],[60.121398,81.308777,0.0],[60.144786,81.308301,0.0],[60.165404,81.307989,0.0],[60.16912,81.307235,0.0]]]}},{"type":"Feature","properties":{"rgi_id":"RGI2000-v7.0-G-09-00394","o1region":"09"},"geometry":{"type":"Polygon","coordinates":[[[58.442752,81.72578,0.0],[58.442118,81.726058,0.0],[58.441514,81.726283,0.0],[58.440812,81.72648,0.0],[58.440211,81.726603,0.0],[58.439578,81.726702,0.0],[58.438651,81.726808,0.0],[58.436654,81.727001,0.0],[58.435239,81.727157,0.0],[58.433904,81.727324,0.0],[58.433278,81.727413,0.0],[58.432719,81.727512,0.0],[58.432145,81.727652,0.0],[58.431678,81.727807,0.0],[58.430576,81.728269,0.0],[58.429517,81.728781,0.0],[58.429101,81.728943,0.0],[58.427337,81.72949,0.0],[58.426802,81.729635,0.0],[58.426177,81.729768,0.0],[58.425433,81.729885,0.0],[58.423803,81.730098,0.0],[58.423044,81.730211,0.0],[58.422352,81.730347,0.0],[58.421745,81.730492,0.0],[58.420735,81.730749,0.0],[58.419922,81.730967,0.0],[58.419575,81.731081,0.0],[58.419243,81.731243,0.0],[58.418998,81.731504,0.0],[58.418848,81.731972,0.0],[58.418669,81.732223,0.0],[58.418457,81.732386,0.0],[58.418152,81.73254,0.0],[58.417089,81.732899,0.0],[58.416624,81.733092,0.0],[58.415826,81.733502,0.0],[58.415384,81.733703,0.0],[58.414691,81.733958,0.0],[58.414313,81.734081,0.0],[58.41389,81.734198,0.0],[58.413409,81.734308,0.0],[58.412887,81.734412,0.0],[58.412319,81.734509,0.0],[58.411717,81.734602,0.0],[58.409747,81.734858,0.0],[58.407035,81.735187,0.0],[58.406384,81.735273,0.0],[58.40575,81.735362,0.0],[58.405144,81.735454,0.0],[58.404559,81.735549,0.0],[58.404005,81.735648,0.0],[58.403478,81.735751,0.0],[58.402759,81.735915,0.0],[58.402068,81.736083,0.0],[58.399697,81.736634,0.0],[58.398614,81.736876,0.0],[58.397073,81.737266,0.0],[58.396242,81.737463,0.0],[58.395582,81.7376,0.0],[58.394921,81.737728,0.0],[58.393662,81.737946,0.0],[58.392628,81.738102,0.0],[58.392243,81.738151,0.0],[58.391759,81.738206,0.0],[58.390955,81.738297,0.0],[58.390724,81.738606,0.0],[58.390837,81.739726,0.0],[58.390569,81.739931,0.0],[58.389983,81.740029,0.0],[58.389461,81.740111,0.0],[58.389114,81.740146,0.0],[58.388141,81.740209,0.0],[58.387474,81.740267,0.0],[58.387191,81.740333,0.0],[58.386806,81.740511,0.0],[58.386565,81.740812,0.0],[58.386442,81.741085,0.0],[58.386348,81.741393,0.0],[58.386245,81.742059,0.0],[58.386248,81.742692,0.0],[58.386404,81.743475,0.0],[58.386592,81.743978,0.0],[58.386731,81.744223,0.0],[58.386915,81.744461,0.0],[58.38716,81.74469,0.0],[58.387485,81.744906,0.0],[58.388121,81.745221,0.0],[58.388506,81.74539,0.0],[58.38894,81.745551,0.0],[58.389449,81.745699,0.0],[58.390891,81.746011,0.0],[58.391317,81.746118,0.0],[58.391689,81.746231,0.0],[58.392062,81.746393,0.0],[58.392368,81.746655,0.0],[58.392533,81.747057,0.0],[58.392723,81.747428,0.0],[58.393194,81.748003,0.0],[58.393335,81.748248,0.0],[58.393537,81.74876,0.0],[58.393855,81.749811,0.0],[58.394091,81.750327,0.0],[58.394261,81.750577,0.0],[58.394485,81.75082,0.0],[58.394878,81.751181,0.0],[58.395455,81.751803,0.0],[58.395672,81.752007,0.0],[58.395927,81.752205,0.0],[58.396238,81.752394,0.0],[58.397108,81.752815,0.0],[58.397457,81.753007,0.0],[58.398374,81.753604,0.0],[58.398724,81.753796,0.0],[58.399143,81.753978,0.0],[58.39991,81.75423,0.0],[58.401165,81.754592,0.0],[58.402205,81.754925,0.0],[58.402751,81.755088,0.0],[58.403664,81.755318,0.0],[58.404631,81.75554,0.0],[58.405129,81.755648,0.0],[58.406198,81.755855,0.0],[58.406771,81.755952,0.0],[58.407393,81.756042,0.0],[58.408054,81.756126,0.0],[58.408766,81.756203,0.0],[58.409521,81.756273,0.0],[58.410336,81.756334,0.0],[58.411197,81.756388,0.0],[58.412095,81.756437,0.0],[58.413475,81.756491,0.0],[58.414944,81.756532,0.0],[58.417983,81.7566,0.0],[58.419478,81.756637,0.0],[58.420907,81.756684,0.0],[58.422225,81.756748,0.0],[58.423068,81.756805,0.0],[58.423863,81.756869,0.0],[58.426086,81.757085,0.0],[58.426877,81.75715,0.0],[58.427713,81.757208,0.0],[58.429018,81.757274,0.0],[58.430426,81.757324,0.0],[58.434842,81.757446,0.0],[58.436243,81.757498,0.0],[58.437535,81.757566,0.0],[58.438357,81.757626,0.0],[58.439129,81.757693,0.0],[58.441236,81.757927,0.0],[58.442717,81.758072,0.0],[58.443919,81.758166,0.0],[58.445154,81.758256,0.0],[58.446342,81.758353,0.0],[58.4474,81.758469,0.0],[58.448178,81.758597,0.0],[58.448843,81.758742,0.0],[58.449894,81.759013,0.0],[58.450308,81.759135,0.0],[58.450694,81.759261,0.0],[58.451184,81.759463,0.0],[58.452005,81.759892,0.0],[58.452442,81.760103,0.0],[58.452971,81.7603,0.0],[58.453655,81.760474,0.0],[58.454222,81.760574,0.0],[58.454866,81.760662,0.0],[58.455905,81.760765,0.0],[58.45705,81.760852,0.0],[58.458227,81.760934,0.0],[58.459365,81.761023,0.0],[58.460387,81.761129,0.0],[58.461203,81.761255,0.0],[58.461902,81.761397,0.0],[58.46299,81.761668,0.0],[58.463403,81.761791,0.0],[58.463774,81.761919,0.0],[58.46418,81.762115,0.0],[58.464467,81.762326,0.0],[58.464658,81.762546,0.0],[58.464782,81.762886,0.0],[58.464751,81.763226,0.0],[58.464618,81.763447,0.0],[58.464381,81.763657,0.0],[58.464014,81.763852,0.0],[58.46348,81.764026,0.0],[58.462705,81.764185,0.0],[58.459406,81.76471,0.0],[58.458247,81.764906,0.0],[58.457709,81.765009,0.0],[58.45709,81.76516,0.0],[58.456549,81.765321,0.0],[58.455658,81.76561,0.0],[58.45497,81.765868,0.0],[58.454567,81.766076,0.0],[58.454251,81.766296,0.0],[58.453519,81.766898,0.0],[58.453307,81.767103,0.0],[58.452812,81.767737,0.0],[58.452622,81.767945,0.0],[58.452381,81.768146,0.0],[58.451564,81.768677,0.0],[58.451216,81.768863,0.0],[58.449705,81.76953,0.0],[58.449435,81.769666,0.0],[58.449154,81.769865,0.0],[58.448973,81.770075,0.0],[58.448852,81.770404,0.0],[58.448889,81.770855,0.0],[58.449048,81.771193,0.0],[58.449578,81.771804,0.0],[58.449867,81.77229,0.0],[58.450059,81.772793,0.0],[58.450399,81.774072,0.0],[58.450587,81.774574,0.0],[58.450723,81.774819,0.0],[58.450904,81.775056,0.0],[58.451149,81.775284,0.0],[58.45148,81.775499,0.0],[58.452178,81.775824,0.0],[58.452637,81.776,0.0],[58.453178,81.776164,0.0],[58.453652,81.776277,0.0],[58.454166,81.776384,0.0],[58.455284,81.776583,0.0],[58.455823,81.776686,0.0],[58.45642,81.776826,0.0],[58.456954,81.776976,0.0],[58.457978,81.777282,0.0],[58.458831,81.777521,0.0],[58.45929,81.777682,0.0],[58.459691,81.777851,0.0],[58.46073,81.778339,0.0],[58.461927,81.778989,0.0],[58.462439,81.779227,0.0],[58.463271,81.779571,0.0],[58.463748,81.779805,0.0],[58.464169,81.780045,0.0],[58.465118,81.780661,0.0],[58.465333,81.780838,0.0],[58.465491,81.781057,0.0],[58.465617,81.781426,0.0],[58.465648,81.781807,0.0],[58.465554,81.782106,0.0],[58.465317,81.782412,0.0],[58.464885,81.782702,0.0],[58.464207,81.782953,0.0],[58.463375,81.783134,0.0],[58.510282,81.784052,0.0],[58.547029,81.786623,0.0],[58.572097,81.789848,0.0],[58.617257,81.793488,0.0],[58.650559,81.795167,0.0],[58.704606,81.801004,0.0],[58.745026,81.80444,0.0],[58.794759,81.807114,0.0],[58.876624,81.812137,0.0],[58.917172,81.815555,0.0],[59.008471,81.81979,0.0],[59.134535,81.82643,0.0],[59.216667,81.832864,0.0],[59.293711,81.838642,0.0],[59.295843,81.838234,0.0],[59.315418,81.832999,0.0],[59.332256,81.82754,0.0],[59.337907,81.825571,0.0],[59.34311,81.82301,0.0],[59.335078,81.819609,0.0],[59.32896,81.816537,0.0],[59.328295,81.813544,0.0],[59.336298,81.810264,0.0],[59.33696,81.806172,0.0],[59.333514,81.802038,0.0],[59.325676,81.798449,0.0],[59.321079,81.796658,0.0],[59.322022,81.79516,0.0],[59.324689,81.793328,0.0],[59.320566,81.791599,0.0],[59.297815,81.789442,0.0],[59.28254,81.787207,0.0],[59.282654,81.785974,0.0],[59.287831,81.783349,0.0],[59.292118,81.780793,0.0],[59.298666,81.778225,0.0],[59.295046,81.776623,0.0],[59.291861,81.774954,0.0],[59.294367,81.772539,0.0],[59.300381,81.771337,0.0],[59.301616,81.769253,0.0],[59.304171,81.767032,0.0],[59.303635,81.765019,0.0],[59.298578,81.762468,0.0],[59.300472,81.760239,0.0],[59.292666,81.758206,0.0],[59.290649,81.755817,0.0],[59.278417,81.750824,0.0],[59.231675,81.741806,0.0],[59.227892,81.73949,0.0],[59.226071,81.737748,0.0],[59.21943,81.736552,0.0],[59.207555,81.736033,0.0],[59.191761,81.736055,0.0],[59.166879,81.734113,0.0],[59.137754,81.731413,0.0],[59.124275,81.729863,0.0],[59.109712,81.729355,0.0],[59.093095,81.729637,0.0],[59.077135,81.728941,0.0],[59.037955,81.727324,0.0],[58.991336,81.726585,0.0],[58.937312,81.726913,0.0],[58.861403,81.72818,0.0],[58.8441,81.727416,0.0],[58.835128,81.725576,0.0],[58.797238,81.721271,0.0],[58.774072,81.718259,0.0],[58.75557,81.718081,0.0],[58.733155,81.718568,0.0],[58.72701,81.721514,0.0],[58.716171,81.723571,0.0],[58.701936,81.726681,0.0],[58.680442,81.729626,0.0],[58.649971,81.730595,0.0],[58.620167,81.730392,0.0],[58.567163,81.72911,0.0],[58.540958,81.727439,0.0],[58.52302,81.726879,0.0],[58.505166,81.727854,0.0],[58.488753,81.729343,0.0],[58.493215,81.731596,0.0],[58.495483,81.734183,0.0],[58.486571,81.737329,0.0],[58.487856,81.739465,0.0],[58.492798,81.741847,0.0],[58.488124,81.743486,0.0],[58.479675,81.744231,0.0],[58.483367,81.742141,0.0],[58.474785,81.739578,0.0],[58.474695,81.73653,0.0],[58.47982,81.732359,0.0],[58.475304,81.729781,0.0],[58.471921,81.728496,0.0],[58.461679,81.726653,0.0],[58.444802,81.725929,0.0],[58.442752,81.72578,0.0]]]}},{"type":"Feature","properties":{"rgi_id":"RGI2000-v7.0-G-09-00395","o1region":"09"},"geometry":{"type":"Polygon","coordinates":[[[59.293711,81.838642,0.0],[59.216667,81.832864,0.0],[59.134535,81.82643,0.0],[59.008471,81.81979,0.0],[58.917172,81.815555,0.0],[58.876624,81.812137,0.0],[58.794759,81.807114,0.0],[58.745026,81.80444,0.0],[58.704606,81.801004,0.0],[58.650559,81.795167,0.0],[58.617257,81.793488,0.0],[58.572097,81.789848,0.0],[58.547029,81.786623,0.0],[58.510282,81.784052,0.0],[58.463375,81.783134,0.0],[58.46256,81.783248,0.0],[58.460802,81.783449,0.0],[58.460159,81.783536,0.0],[58.459547,81.783628,0.0],[58.458052,81.783891,0.0],[58.457254,81.784015,0.0],[58.456407,81.784119,0.0],[58.454599,81.78431,0.0],[58.453747,81.784413,0.0],[58.45298,81.784527,0.0],[58.451501,81.784763,0.0],[58.450657,81.784867,0.0],[58.449644,81.784954,0.0],[58.448513,81.785025,0.0],[58.44731,81.785087,0.0],[58.444854,81.785202,0.0],[58.443678,81.785267,0.0],[58.442592,81.785344,0.0],[58.441827,81.785415,0.0],[58.441115,81.785493,0.0],[58.44025,81.785609,0.0],[58.43942,81.785729,0.0],[58.438544,81.785843,0.0],[58.437627,81.785937,0.0],[58.434678,81.786192,0.0],[58.433234,81.786345,0.0],[58.432553,81.786428,0.0],[58.431239,81.786599,0.0],[58.429987,81.786778,0.0],[58.428599,81.787027,0.0],[58.427877,81.787147,0.0],[58.427053,81.787254,0.0],[58.425973,81.787348,0.0],[58.424745,81.787421,0.0],[58.423423,81.787482,0.0],[58.42068,81.78759,0.0],[58.419349,81.787649,0.0],[58.418105,81.787721,0.0],[58.417001,81.787811,0.0],[58.416148,81.787914,0.0],[58.413903,81.788264,0.0],[58.413067,81.788369,0.0],[58.41133,81.78857,0.0],[58.41054,81.788681,0.0],[58.409861,81.788808,0.0],[58.408062,81.789219,0.0],[58.40643,81.789522,0.0],[58.404593,81.789928,0.0],[58.403895,81.790052,0.0],[58.402911,81.790181,0.0],[58.400792,81.790417,0.0],[58.399864,81.790553,0.0],[58.399178,81.790705,0.0],[58.398629,81.790875,0.0],[58.397222,81.791419,0.0],[58.39646,81.791665,0.0],[58.396112,81.791793,0.0],[58.395801,81.791925,0.0],[58.395467,81.792125,0.0],[58.395234,81.792338,0.0],[58.395067,81.792561,0.0],[58.394671,81.793242,0.0],[58.394478,81.793461,0.0],[58.394201,81.793668,0.0],[58.393799,81.793858,0.0],[58.393223,81.794025,0.0],[58.392531,81.794149,0.0],[58.391722,81.794258,0.0],[58.389995,81.794461,0.0],[58.389337,81.794546,0.0],[58.388696,81.794634,0.0],[58.387044,81.794876,0.0],[58.386116,81.794983,0.0],[58.384887,81.795078,0.0],[58.383502,81.795152,0.0],[58.382023,81.795214,0.0],[58.378996,81.795327,0.0],[58.377545,81.795392,0.0],[58.373881,81.795594,0.0],[58.372929,81.795639,0.0],[58.371491,81.795691,0.0],[58.369954,81.795729,0.0],[58.368343,81.795756,0.0],[58.366679,81.795777,0.0],[58.363247,81.795804,0.0],[58.356271,81.795843,0.0],[58.352876,81.795875,0.0],[58.351242,81.7959,0.0],[58.349675,81.795934,0.0],[58.348198,81.79598,0.0],[58.346841,81.796042,0.0],[58.345642,81.796126,0.0],[58.34473,81.796221,0.0],[58.343064,81.796432,0.0],[58.342153,81.796526,0.0],[58.340891,81.796615,0.0],[58.339457,81.796679,0.0],[58.337895,81.796727,0.0],[58.336239,81.796761,0.0],[58.334514,81.796786,0.0],[58.332739,81.796804,0.0],[58.329097,81.796828,0.0],[58.32352,81.796848,0.0],[58.302905,81.796899,0.0],[58.295456,81.796924,0.0],[58.29179,81.796944,0.0],[58.289989,81.796959,0.0],[58.288221,81.796978,0.0],[58.286499,81.797003,0.0],[58.284839,81.797037,0.0],[58.283262,81.797082,0.0],[58.28024,81.797195,0.0],[58.278726,81.797242,0.0],[58.277148,81.79728,0.0],[58.272276,81.797374,0.0],[58.270686,81.797411,0.0],[58.269159,81.797455,0.0],[58.267725,81.797513,0.0],[58.266426,81.797589,0.0],[58.26562,81.797654,0.0],[58.264868,81.797727,0.0],[58.263037,81.797944,0.0],[58.262055,81.798044,0.0],[58.260922,81.798123,0.0],[58.259655,81.798184,0.0],[58.258288,81.798231,0.0],[58.25685,81.798268,0.0],[58.255363,81.798299,0.0],[58.250803,81.798378,0.0],[58.248197,81.798431,0.0],[58.246621,81.798459,0.0],[58.243337,81.798496,0.0],[58.23655,81.798541,0.0],[58.233198,81.79857,0.0],[58.231571,81.798591,0.0],[58.229997,81.798619,0.0],[58.228498,81.798658,0.0],[58.227099,81.798711,0.0],[58.22616,81.798758,0.0],[58.225254,81.798811,0.0],[58.224387,81.798868,0.0],[58.222771,81.799,0.0],[58.222012,81.799072,0.0],[58.221301,81.799151,0.0],[58.22062,81.799234,0.0],[58.219339,81.79941,0.0],[58.218028,81.799581,0.0],[58.215282,81.799893,0.0],[58.21459,81.799967,0.0],[58.213157,81.800098,0.0],[58.212404,81.800153,0.0],[58.211624,81.800199,0.0],[58.210514,81.800241,0.0],[58.209356,81.800261,0.0],[58.208197,81.800262,0.0],[58.205631,81.80023,0.0],[58.204452,81.800225,0.0],[58.203261,81.800236,0.0],[58.202101,81.800262,0.0],[58.201271,81.800292,0.0],[58.197255,81.80047,0.0],[58.194611,81.800566,0.0],[58.193547,81.80062,0.0],[58.192544,81.800691,0.0],[58.191854,81.800758,0.0],[58.19054,81.800911,0.0],[58.187277,81.801324,0.0],[58.186576,81.801403,0.0],[58.185814,81.801474,0.0],[58.184991,81.801537,0.0],[58.183686,81.801608,0.0],[58.182242,81.801659,0.0],[58.180699,81.801698,0.0],[58.179087,81.801727,0.0],[58.172441,81.801814,0.0],[58.17084,81.801845,0.0],[58.169312,81.801885,0.0],[58.167891,81.801939,0.0],[58.166614,81.802013,0.0],[58.165563,81.802104,0.0],[58.163585,81.802302,0.0],[58.162607,81.802379,0.0],[58.159484,81.802584,0.0],[58.158499,81.80266,0.0],[58.157738,81.802731,0.0],[58.157015,81.802808,0.0],[58.156337,81.802891,0.0],[58.15569,81.802978,0.0],[58.155084,81.803071,0.0],[58.15451,81.803168,0.0],[58.153979,81.803271,0.0],[58.153486,81.803379,0.0],[58.153046,81.803494,0.0],[58.152657,81.803617,0.0],[58.152246,81.803795,0.0],[58.151935,81.803986,0.0],[58.151221,81.804591,0.0],[58.150945,81.804788,0.0],[58.150383,81.805106,0.0],[58.150038,81.805278,0.0],[58.149632,81.805442,0.0],[58.149125,81.805593,0.0],[58.148359,81.805751,0.0],[58.145634,81.806227,0.0],[58.144855,81.806355,0.0],[58.143968,81.806468,0.0],[58.142957,81.806555,0.0],[58.141824,81.806626,0.0],[58.140615,81.806686,0.0],[58.138132,81.806798,0.0],[58.136936,81.80686,0.0],[58.135826,81.806934,0.0],[58.135039,81.807002,0.0],[58.134302,81.807076,0.0],[58.133397,81.807187,0.0],[58.13252,81.807301,0.0],[58.131587,81.807407,0.0],[58.13048,81.807502,0.0],[58.126836,81.80774,0.0],[58.125713,81.807832,0.0],[58.124987,81.807909,0.0],[58.124313,81.807992,0.0],[58.123502,81.808115,0.0],[58.122734,81.808245,0.0],[58.121937,81.80837,0.0],[58.120947,81.808498,0.0],[58.11926,81.808706,0.0],[58.117326,81.808968,0.0],[58.115792,81.809197,0.0],[58.114979,81.80935,0.0],[58.114374,81.809518,0.0],[58.113897,81.809704,0.0],[58.113079,81.810094,0.0],[58.11262,81.810282,0.0],[58.112046,81.810454,0.0],[58.111286,81.810602,0.0],[58.11029,81.810716,0.0],[58.109112,81.810806,0.0],[58.107827,81.810881,0.0],[58.105198,81.811023,0.0],[58.103985,81.811108,0.0],[58.102935,81.811215,0.0],[58.102192,81.811333,0.0],[58.101577,81.811468,0.0],[58.101039,81.811614,0.0],[58.100126,81.811885,0.0],[58.099751,81.812009,0.0],[58.099319,81.812201,0.0],[58.098978,81.812406,0.0],[58.098371,81.812825,0.0],[58.098009,81.813027,0.0],[58.097542,81.813214,0.0],[58.096908,81.813378,0.0],[58.096215,81.813494,0.0],[58.095414,81.813595,0.0],[58.093704,81.813783,0.0],[58.092897,81.813883,0.0],[58.092287,81.813976,0.0],[58.091717,81.814073,0.0],[58.091165,81.814173,0.0],[58.089869,81.814435,0.0],[58.089167,81.814559,0.0],[58.088345,81.814666,0.0],[58.087195,81.81476,0.0],[58.085856,81.814827,0.0],[58.084376,81.814876,0.0],[58.082793,81.81491,0.0],[58.081138,81.814934,0.0],[58.079434,81.814952,0.0],[58.074227,81.814991,0.0],[58.072517,81.815008,0.0],[58.070853,81.815031,0.0],[58.069259,81.815064,0.0],[58.067769,81.81511,0.0],[58.066425,81.815177,0.0],[58.06559,81.815239,0.0],[58.064822,81.815309,0.0],[58.063822,81.815426,0.0],[58.062738,81.815561,0.0],[58.061518,81.815697,0.0],[58.060216,81.815813,0.0],[58.08114,81.817449,0.0],[58.084264,81.822205,0.0],[58.114431,81.823475,0.0],[58.142696,81.825388,0.0],[58.166575,81.828023,0.0],[58.185927,81.830385,0.0],[58.205081,81.831325,0.0],[58.224644,81.831622,0.0],[58.259207,81.831801,0.0],[58.288683,81.831088,0.0],[58.318887,81.829407,0.0],[58.343172,81.827976,0.0],[58.366391,81.826192,0.0],[58.389659,81.824762,0.0],[58.41331,81.825605,0.0],[58.428417,81.826193,0.0],[58.446426,81.8262,0.0],[58.467872,81.825839,0.0],[58.49989,81.825864,0.0],[58.506122,81.827122,0.0],[58.511948,81.828878,0.0],[58.525542,81.829326,0.0],[58.530741,81.830373,0.0],[58.532586,81.832216,0.0],[58.536367,81.833695,0.0],[58.550833,81.836059,0.0],[58.566416,81.838987,0.0],[58.585228,81.840408,0.0],[58.598635,81.842347,0.0],[58.627105,81.844369,0.0],[58.67267,81.846532,0.0],[58.696072,81.848143,0.0],[58.706554,81.850304,0.0],[58.718928,81.851888,0.0],[58.743283,81.853137,0.0],[58.763161,81.854545,0.0],[58.782089,81.85617,0.0],[58.806325,81.856775,0.0],[58.837477,81.85685,0.0],[58.8562,81.857477,0.0],[58.879764,81.857298,0.0],[58.904115,81.856189,0.0],[58.92831,81.856573,0.0],[58.95391,81.856523,0.0],[58.974733,81.85749,0.0],[58.984818,81.857655,0.0],[59.005802,81.857196,0.0],[59.034809,81.856697,0.0],[59.066482,81.856823,0.0],[59.078932,81.856404,0.0],[59.091937,81.856195,0.0],[59.103172,81.85692,0.0],[59.110029,81.856244,0.0],[59.117669,81.85471,0.0],[59.134718,81.854622,0.0],[59.154534,81.853592,0.0],[59.188568,81.849427,0.0],[59.196786,81.850223,0.0],[59.21983,81.848119,0.0],[59.230833,81.847988,0.0],[59.242085,81.84693,0.0],[59.2458,81.845842,0.0],[59.249574,81.844967,0.0],[59.263342,81.843966,0.0],[59.278234,81.841606,0.0],[59.293711,81.838642,0.0]]]}}]}
