{"type":"FeatureCollection","features":[{"type":"Feature","properties":{"rgi_id":"RGI2000-v7.0-G-10-00235","o1region":"10"},"geometry":{"type":"Polygon","coordinates":[[[105.22856,75.526813,0.0],[105.22642,75.526761,0.0],[105.226316,75.527028,0.0],[105.227385,75.527054,0.0],[105.227176,75.527589,0.0],[105.228246,75.527616,0.0],[105.228036,75.528151,0.0],[105.229106,75.528177,0.0],[105.229002,75.528444,0.0],[105.230072,75.52847,0.0],[105.229967,75.528738,0.0],[105.231037,75.528764,0.0],[105.230932,75.529032,0.0],[105.232002,75.529058,0.0],[105.231793,75.529593,0.0],[105.232863,75.529619,0.0],[105.232759,75.529887,0.0],[105.234899,75.529939,0.0],[105.234794,75.530206,0.0],[105.235864,75.530232,0.0],[105.23576,75.5305,0.0],[105.23683,75.530526,0.0],[105.236621,75.531061,0.0],[105.237691,75.531087,0.0],[105.237586,75.531355,0.0],[105.239727,75.531407,0.0],[105.239936,75.530872,0.0],[105.238866,75.530846,0.0],[105.23897,75.530578,0.0],[105.2379,75.530552,0.0],[105.238005,75.530285,0.0],[105.236934,75.530259,0.0],[105.237039,75.529991,0.0],[105.235969,75.529965,0.0],[105.236074,75.529697,0.0],[105.235003,75.529671,0.0],[105.235108,75.529404,0.0],[105.234038,75.529378,0.0],[105.234247,75.528843,0.0],[105.233177,75.528816,0.0],[105.233282,75.528549,0.0],[105.232212,75.528523,0.0],[105.232316,75.528255,0.0],[105.231246,75.528229,0.0],[105.231351,75.527962,0.0],[105.230281,75.527935,0.0],[105.23049,75.5274,0.0],[105.229421,75.527374,0.0],[105.229525,75.527107,0.0],[105.228455,75.527081,0.0],[105.22856,75.526813,0.0]]]}}]}
