{"type":"FeatureCollection","features":[{"type":"Feature","properties":{"rgi_id":"RGI2000-v7.0-G-11-04079","o1region":"11"},"geometry":{"type":"Polygon","coordinates":[[[1.087892,42.798969,0.0],[1.087959,42.799006,0.0],[1.08798,42.799016,0.0],[1.088019,42.79904,0.0],[1.08805,42.799048,0.0],[1.088058,42.79905,0.0],[1.088097,42.79905,0.0],[1.088113,42.799048,0.0],[1.088134,42.799045,0.0],[1.088247,42.799032,0.0],[1.088417,42.799007,0.0],[1.088493,42.798995,0.0],[1.088564,42.798978,0.0],[1.088669,42.798972,0.0],[1.088768,42.798978,0.0],[1.088856,42.798972,0.0],[1.088973,42.798978,0.0],[1.089061,42.799007,0.0],[1.089149,42.799061,0.0],[1.089188,42.799072,0.0],[1.089253,42.799078,0.0],[1.089301,42.799088,0.0],[1.089353,42.799098,0.0],[1.089396,42.799102,0.0],[1.089445,42.799117,0.0],[1.089483,42.799118,0.0],[1.089559,42.799093,0.0],[1.089602,42.799084,0.0],[1.089643,42.799079,0.0],[1.089685,42.799072,0.0],[1.089717,42.799069,0.0],[1.08977,42.799064,0.0],[1.089804,42.799063,0.0],[1.089851,42.79906,0.0],[1.089916,42.799057,0.0],[1.089965,42.799053,0.0],[1.089992,42.799051,0.0],[1.090009,42.799046,0.0],[1.09003,42.799037,0.0],[1.090098,42.799016,0.0],[1.090164,42.798997,0.0],[1.090255,42.798969,0.0],[1.090641,42.798969,0.0],[1.090992,42.799008,0.0],[1.091294,42.798998,0.0],[1.091607,42.798988,0.0],[1.091753,42.798978,0.0],[1.091802,42.798978,0.0],[1.091909,42.798969,0.0],[1.091968,42.798935,0.0],[1.091987,42.798847,0.0],[1.091997,42.798813,0.0],[1.091972,42.798764,0.0],[1.091897,42.798686,0.0],[1.09186,42.798665,0.0],[1.091829,42.79866,0.0],[1.091776,42.798665,0.0],[1.091729,42.798665,0.0],[1.091656,42.79865,0.0],[1.091577,42.798629,0.0],[1.091499,42.798576,0.0],[1.09142,42.79855,0.0],[1.09132,42.798566,0.0],[1.091258,42.798561,0.0],[1.091216,42.798555,0.0],[1.091142,42.798561,0.0],[1.091069,42.798571,0.0],[1.09099,42.798576,0.0],[1.090901,42.798566,0.0],[1.090833,42.79854,0.0],[1.090781,42.798534,0.0],[1.090692,42.798524,0.0],[1.090618,42.798513,0.0],[1.09054,42.798508,0.0],[1.090445,42.798503,0.0],[1.090351,42.798498,0.0],[1.090272,42.798482,0.0],[1.09022,42.798477,0.0],[1.090142,42.798482,0.0],[1.090042,42.798461,0.0],[1.089979,42.798451,0.0],[1.089916,42.79843,0.0],[1.089864,42.798424,0.0],[1.089822,42.798419,0.0],[1.089801,42.798414,0.0],[1.089691,42.798388,0.0],[1.08956,42.798356,0.0],[1.089508,42.79832,0.0],[1.089439,42.798272,0.0],[1.089377,42.798257,0.0],[1.089345,42.798246,0.0],[1.089267,42.79822,0.0],[1.089209,42.798194,0.0],[1.08912,42.798189,0.0],[1.089067,42.798194,0.0],[1.089052,42.798189,0.0],[1.088994,42.798168,0.0],[1.088904,42.79812,0.0],[1.088757,42.79812,0.0],[1.088595,42.79812,0.0],[1.088505,42.79812,0.0],[1.088416,42.798131,0.0],[1.088401,42.798136,0.0],[1.088361,42.798139,0.0],[1.088281,42.798145,0.0],[1.088174,42.798166,0.0],[1.088132,42.798177,0.0],[1.088061,42.7982,0.0],[1.087997,42.798248,0.0],[1.08799,42.798253,0.0],[1.087917,42.79831,0.0],[1.087846,42.79836,0.0],[1.087794,42.798381,0.0],[1.087717,42.798442,0.0],[1.087668,42.798476,0.0],[1.087625,42.798505,0.0],[1.087605,42.79853,0.0],[1.087581,42.798588,0.0],[1.087561,42.798632,0.0],[1.087522,42.798676,0.0],[1.087488,42.798705,0.0],[1.087449,42.798725,0.0],[1.087425,42.798754,0.0],[1.087414,42.798804,0.0],[1.087411,42.798809,0.0],[1.08741,42.798815,0.0],[1.087409,42.79882,0.0],[1.08741,42.798829,0.0],[1.087411,42.798837,0.0],[1.087413,42.798841,0.0],[1.087416,42.798849,0.0],[1.087422,42.798852,0.0],[1.08744,42.798852,0.0],[1.087465,42.798849,0.0],[1.087487,42.798847,0.0],[1.087505,42.798843,0.0],[1.087514,42.798847,0.0],[1.087521,42.798854,0.0],[1.087527,42.798868,0.0],[1.087536,42.798881,0.0],[1.087585,42.798882,0.0],[1.087623,42.79888,0.0],[1.08767,42.798878,0.0],[1.087703,42.798882,0.0],[1.087757,42.798893,0.0],[1.087783,42.798898,0.0],[1.08782,42.798909,0.0],[1.087851,42.798922,0.0],[1.087875,42.79893,0.0],[1.087892,42.798969,0.0]]]}}]}
