{"type":"FeatureCollection","features":[{"type":"Feature","properties":{"rgi_id":"RGI2000-v7.0-G-02-02161","o1region":"02"},"geometry":{"type":"Polygon","coordinates":[[[-128.078061,53.010004,0.0],[-128.07831,53.009798,0.0],[-128.078459,53.009872,0.0],[-128.079237,53.01007,0.0],[-128.079973,53.010294,0.0],[-128.080983,53.010461,0.0],[-128.080919,53.010995,0.0],[-128.08101,53.011408,0.0],[-128.080528,53.011663,0.0],[-128.080142,53.012075,0.0],[-128.081258,53.013169,0.0],[-128.082865,53.013923,0.0],[-128.08069,53.014782,0.0],[-128.076562,53.014602,0.0],[-128.076761,53.012952,0.0],[-128.076415,53.011374,0.0],[-128.076684,53.010532,0.0],[-128.07758,53.010516,0.0],[-128.077566,53.010247,0.0],[-128.078061,53.010004,0.0]]]}},{"type":"Feature","properties":{"rgi_id":"RGI2000-v7.0-G-02-02164","o1region":"02"},"geometry":{"type":"Polygon","coordinates":[[[-128.162637,53.009794,0.0],[-128.162592,53.010901,0.0],[-128.161763,53.01261,0.0],[-128.160887,53.013192,0.0],[-128.159969,53.013198,0.0],[-128.159069,53.013225,0.0],[-128.158616,53.012959,0.0],[-128.157933,53.01284,0.0],[-128.15792,53.012571,0.0],[-128.157472,53.012579,0.0],[-128.157647,53.012417,0.0],[-128.158891,53.012111,0.0],[-128.157851,53.011227,0.0],[-128.158731,53.011085,0.0],[-128.158102,53.009993,0.0],[-128.157501,53.009786,0.0],[-128.156989,53.008967,0.0],[-128.157248,53.008407,0.0],[-128.158149,53.008262,0.0],[-128.158397,53.008294,0.0],[-128.158711,53.008523,0.0],[-128.159962,53.008658,0.0],[-128.159968,53.008767,0.0],[-128.160415,53.008759,0.0],[-128.160826,53.008751,0.0],[-128.160864,53.008755,0.0],[-128.160877,53.009019,0.0],[-128.161773,53.009003,0.0],[-128.1618,53.00954,0.0],[-128.162248,53.009532,0.0],[-128.162261,53.009801,0.0],[-128.162637,53.009794,0.0]]]}},{"type":"Feature","properties":{"rgi_id":"RGI2000-v7.0-G-02-02165","o1region":"02"},"geometry":{"type":"Polygon","coordinates":[[[-128.160423,52.99127,0.0],[-128.160409,52.991002,0.0],[-128.159514,52.991018,0.0],[-128.159762,52.989943,0.0],[-128.160587,52.989536,0.0],[-128.160774,52.989381,0.0],[-128.16167,52.989364,0.0],[-128.162756,52.989504,0.0],[-128.163921,52.989592,0.0],[-128.164369,52.989584,0.0],[-128.164383,52.989853,0.0],[-128.164396,52.990121,0.0],[-128.164844,52.990113,0.0],[-128.164858,52.990382,0.0],[-128.165305,52.990374,0.0],[-128.165319,52.990642,0.0],[-128.165767,52.990634,0.0],[-128.16578,52.990903,0.0],[-128.166228,52.990895,0.0],[-128.166255,52.991432,0.0],[-128.165667,52.991622,0.0],[-128.164479,52.991734,0.0],[-128.164288,52.991578,0.0],[-128.161509,52.99141,0.0],[-128.160423,52.99127,0.0]]]}},{"type":"Feature","properties":{"rgi_id":"RGI2000-v7.0-G-02-02166","o1region":"02"},"geometry":{"type":"Polygon","coordinates":[[[-128.144579,52.979184,0.0],[-128.144565,52.978915,0.0],[-128.144118,52.978923,0.0],[-128.144104,52.978654,0.0],[-128.143657,52.978662,0.0],[-128.14363,52.978125,0.0],[-128.143182,52.978133,0.0],[-128.142779,52.976929,0.0],[-128.141297,52.976284,0.0],[-128.141284,52.976015,0.0],[-128.141731,52.976007,0.0],[-128.142179,52.975999,0.0],[-128.142165,52.97573,0.0],[-128.143235,52.975551,0.0],[-128.144837,52.975412,0.0],[-128.144846,52.975425,0.0],[-128.144681,52.976527,0.0],[-128.146719,52.977918,0.0],[-128.147382,52.978743,0.0],[-128.14796,52.978977,0.0],[-128.148173,52.979387,0.0],[-128.14675,52.979521,0.0],[-128.14641,52.979957,0.0],[-128.146423,52.980226,0.0],[-128.146122,52.980141,0.0],[-128.145484,52.979438,0.0],[-128.144579,52.979184,0.0]]]}},{"type":"Feature","properties":{"rgi_id":"RGI2000-v7.0-G-02-02167","o1region":"02"},"geometry":{"type":"Polygon","coordinates":[[[-128.137581,52.982539,0.0],[-128.137567,52.982271,0.0],[-128.13712,52.982279,0.0],[-128.137106,52.98201,0.0],[-128.136659,52.982018,0.0],[-128.136618,52.981212,0.0],[-128.136578,52.980405,0.0],[-128.137473,52.980389,0.0],[-128.137459,52.98012,0.0],[-128.138354,52.980104,0.0],[-128.138341,52.979835,0.0],[-128.138788,52.979827,0.0],[-128.138775,52.979558,0.0],[-128.140565,52.979526,0.0],[-128.140578,52.979795,0.0],[-128.141026,52.979786,0.0],[-128.141501,52.980316,0.0],[-128.141053,52.980324,0.0],[-128.14108,52.980862,0.0],[-128.141121,52.981668,0.0],[-128.139947,52.982049,0.0],[-128.139805,52.98223,0.0],[-128.139819,52.982499,0.0],[-128.139371,52.982507,0.0],[-128.139385,52.982776,0.0],[-128.138042,52.9828,0.0],[-128.138029,52.982531,0.0],[-128.137581,52.982539,0.0]]]}},{"type":"Feature","properties":{"rgi_id":"RGI2000-v7.0-G-02-02168","o1region":"02"},"geometry":{"type":"Polygon","coordinates":[[[-128.130096,52.978007,0.0],[-128.131179,52.9772,0.0],[-128.132031,52.976841,0.0],[-128.132102,52.976829,0.0],[-128.134599,52.976674,0.0],[-128.135046,52.976666,0.0],[-128.135033,52.976398,0.0],[-128.135758,52.976272,0.0],[-128.135591,52.975911,0.0],[-128.135782,52.975862,0.0],[-128.136746,52.976187,0.0],[-128.13728,52.97613,0.0],[-128.137819,52.976213,0.0],[-128.138179,52.97661,0.0],[-128.138002,52.977293,0.0],[-128.137542,52.977555,0.0],[-128.137098,52.977872,0.0],[-128.136182,52.977292,0.0],[-128.131095,52.97821,0.0],[-128.130096,52.978007,0.0]]]}},{"type":"Feature","properties":{"rgi_id":"RGI2000-v7.0-G-02-02169","o1region":"02"},"geometry":{"type":"Polygon","coordinates":[[[-128.121166,52.967769,0.0],[-128.122481,52.967208,0.0],[-128.122928,52.9672,0.0],[-128.122888,52.966393,0.0],[-128.123222,52.966321,0.0],[-128.123474,52.965804,0.0],[-128.124091,52.966167,0.0],[-128.124176,52.965294,0.0],[-128.124624,52.965286,0.0],[-128.124597,52.964748,0.0],[-128.125044,52.96474,0.0],[-128.125789,52.965569,0.0],[-128.126123,52.964394,0.0],[-128.126807,52.96417,0.0],[-128.126847,52.964977,0.0],[-128.127042,52.96513,0.0],[-128.128022,52.965337,0.0],[-128.128682,52.965857,0.0],[-128.129111,52.965474,0.0],[-128.129558,52.965466,0.0],[-128.130723,52.965615,0.0],[-128.130873,52.964904,0.0],[-128.13086,52.964635,0.0],[-128.131307,52.964627,0.0],[-128.131519,52.965347,0.0],[-128.132927,52.965055,0.0],[-128.13311,52.964863,0.0],[-128.136948,52.964684,0.0],[-128.138113,52.964197,0.0],[-128.136713,52.963653,0.0],[-128.135226,52.962404,0.0],[-128.135199,52.961866,0.0],[-128.135429,52.961735,0.0],[-128.135874,52.961416,0.0],[-128.138193,52.963468,0.0],[-128.141215,52.964104,0.0],[-128.141828,52.964847,0.0],[-128.142803,52.965634,0.0],[-128.141434,52.965915,0.0],[-128.140881,52.966311,0.0],[-128.140014,52.967542,0.0],[-128.138332,52.967032,0.0],[-128.137515,52.967616,0.0],[-128.135878,52.967953,0.0],[-128.134377,52.967926,0.0],[-128.131483,52.968289,0.0],[-128.132716,52.969561,0.0],[-128.132686,52.97017,0.0],[-128.131714,52.970725,0.0],[-128.127832,52.970656,0.0],[-128.127413,52.971566,0.0],[-128.126927,52.971843,0.0],[-128.127046,52.972638,0.0],[-128.125301,52.97335,0.0],[-128.124827,52.974382,0.0],[-128.123535,52.975118,0.0],[-128.123127,52.97541,0.0],[-128.119582,52.975973,0.0],[-128.11914,52.976289,0.0],[-128.118282,52.976777,0.0],[-128.116441,52.976053,0.0],[-128.114605,52.975397,0.0],[-128.113277,52.975862,0.0],[-128.112287,52.974985,0.0],[-128.111657,52.974666,0.0],[-128.111643,52.974398,0.0],[-128.111603,52.973591,0.0],[-128.111577,52.973054,0.0],[-128.112187,52.972774,0.0],[-128.11155,52.972516,0.0],[-128.111523,52.971978,0.0],[-128.110628,52.971994,0.0],[-128.110588,52.971188,0.0],[-128.111931,52.971164,0.0],[-128.111904,52.970626,0.0],[-128.112351,52.970618,0.0],[-128.112817,52.970985,0.0],[-128.113246,52.970602,0.0],[-128.114128,52.970317,0.0],[-128.11487,52.970523,0.0],[-128.115137,52.969583,0.0],[-128.11617,52.969383,0.0],[-128.116439,52.968752,0.0],[-128.117024,52.968561,0.0],[-128.117139,52.967842,0.0],[-128.117586,52.967834,0.0],[-128.117573,52.967565,0.0],[-128.117824,52.967683,0.0],[-128.119346,52.968719,0.0],[-128.11985,52.968331,0.0],[-128.120745,52.968315,0.0],[-128.121166,52.967769,0.0]],[[-128.121065,52.968655,0.0],[-128.122247,52.968405,0.0],[-128.120745,52.968315,0.0],[-128.121065,52.968655,0.0]]]}},{"type":"Feature","properties":{"rgi_id":"RGI2000-v7.0-G-02-02170","o1region":"02"},"geometry":{"type":"Polygon","coordinates":[[[-128.156925,52.97557,0.0],[-128.156206,52.974984,0.0],[-128.154948,52.975178,0.0],[-128.15448,52.974877,0.0],[-128.155417,52.973951,0.0],[-128.155062,52.973118,0.0],[-128.155439,52.972528,0.0],[-128.155887,52.97252,0.0],[-128.156128,52.97286,0.0],[-128.156334,52.972512,0.0],[-128.156594,52.972397,0.0],[-128.156915,52.971535,0.0],[-128.157673,52.971301,0.0],[-128.158315,52.972635,0.0],[-128.159791,52.973635,0.0],[-128.160654,52.974596,0.0],[-128.158682,52.974368,0.0],[-128.157638,52.975338,0.0],[-128.156925,52.97557,0.0]]]}},{"type":"Feature","properties":{"rgi_id":"RGI2000-v7.0-G-02-02171","o1region":"02"},"geometry":{"type":"Polygon","coordinates":[[[-128.163016,53.016376,0.0],[-128.163537,53.015803,0.0],[-128.162815,53.014654,0.0],[-128.162903,53.01384,0.0],[-128.162656,53.01283,0.0],[-128.162622,53.01084,0.0],[-128.162592,53.010901,0.0],[-128.162637,53.009794,0.0],[-128.162709,53.009793,0.0],[-128.163404,53.009663,0.0],[-128.163998,53.008693,0.0],[-128.165096,53.00834,0.0],[-128.16624,53.008649,0.0],[-128.168836,53.007813,0.0],[-128.169671,53.007757,0.0],[-128.171178,53.007215,0.0],[-128.171649,53.00616,0.0],[-128.173113,53.005028,0.0],[-128.173443,53.004545,0.0],[-128.173644,53.00448,0.0],[-128.174091,53.004471,0.0],[-128.174078,53.004203,0.0],[-128.174525,53.004194,0.0],[-128.174512,53.003933,0.0],[-128.174571,53.0039,0.0],[-128.176087,53.003249,0.0],[-128.176261,53.003086,0.0],[-128.17719,53.003045,0.0],[-128.178474,53.003307,0.0],[-128.182253,53.003005,0.0],[-128.183414,53.002577,0.0],[-128.183513,53.002549,0.0],[-128.184074,53.002477,0.0],[-128.188351,53.002862,0.0],[-128.188365,53.003131,0.0],[-128.188812,53.003123,0.0],[-128.188826,53.003392,0.0],[-128.189274,53.003383,0.0],[-128.189881,53.003551,0.0],[-128.189949,53.003552,0.0],[-128.190024,53.003698,0.0],[-128.191687,53.003595,0.0],[-128.191974,53.003602,0.0],[-128.19223,53.004223,0.0],[-128.192422,53.003594,0.0],[-128.193318,53.003577,0.0],[-128.193587,53.003377,0.0],[-128.1969,53.003511,0.0],[-128.196913,53.003779,0.0],[-128.197361,53.003771,0.0],[-128.199454,53.003822,0.0],[-128.200683,53.004426,0.0],[-128.202939,53.004493,0.0],[-128.203378,53.005118,0.0],[-128.203876,53.007026,0.0],[-128.20365,53.008489,0.0],[-128.204006,53.009858,0.0],[-128.202056,53.010333,0.0],[-128.201062,53.010007,0.0],[-128.200154,53.010092,0.0],[-128.198416,53.009995,0.0],[-128.198143,53.010214,0.0],[-128.197695,53.010222,0.0],[-128.197709,53.010491,0.0],[-128.197261,53.010499,0.0],[-128.197275,53.010768,0.0],[-128.196827,53.010776,0.0],[-128.196619,53.011333,0.0],[-128.195053,53.011152,0.0],[-128.193942,53.011324,0.0],[-128.192814,53.011194,0.0],[-128.19169,53.011368,0.0],[-128.191143,53.010234,0.0],[-128.190718,53.010462,0.0],[-128.190397,53.011324,0.0],[-128.188087,53.011587,0.0],[-128.18703,53.012035,0.0],[-128.186582,53.012043,0.0],[-128.186568,53.011774,0.0],[-128.185673,53.011791,0.0],[-128.185434,53.01111,0.0],[-128.184396,53.010298,0.0],[-128.183189,53.010395,0.0],[-128.182216,53.010084,0.0],[-128.181808,53.010397,0.0],[-128.180892,53.010358,0.0],[-128.180487,53.010971,0.0],[-128.179097,53.010409,0.0],[-128.178691,53.010722,0.0],[-128.178136,53.010976,0.0],[-128.177304,53.009915,0.0],[-128.176355,53.009688,0.0],[-128.174994,53.00861,0.0],[-128.174464,53.008652,0.0],[-128.17458,53.009178,0.0],[-128.174438,53.00943,0.0],[-128.172942,53.008414,0.0],[-128.171429,53.008972,0.0],[-128.170489,53.009238,0.0],[-128.171245,53.010174,0.0],[-128.171273,53.010711,0.0],[-128.170364,53.010459,0.0],[-128.170242,53.011716,0.0],[-128.168356,53.011462,0.0],[-128.168152,53.011038,0.0],[-128.167756,53.011241,0.0],[-128.16816,53.012802,0.0],[-128.167636,53.013618,0.0],[-128.166596,53.014529,0.0],[-128.165233,53.016025,0.0],[-128.166831,53.016395,0.0],[-128.166443,53.0166,0.0],[-128.165487,53.016862,0.0],[-128.16612,53.017466,0.0],[-128.16563,53.018229,0.0],[-128.164113,53.018896,0.0],[-128.164127,53.018825,0.0],[-128.163686,53.017734,0.0],[-128.162196,53.0174,0.0],[-128.161912,53.01645,0.0],[-128.162387,53.015655,0.0],[-128.163016,53.016376,0.0]],[[-128.193578,53.003914,0.0],[-128.194353,53.003667,0.0],[-128.193318,53.003577,0.0],[-128.193578,53.003914,0.0]],[[-128.169972,53.009706,0.0],[-128.168329,53.009883,0.0],[-128.167166,53.008793,0.0],[-128.166068,53.009164,0.0],[-128.167053,53.009592,0.0],[-128.166951,53.010118,0.0],[-128.167048,53.010441,0.0],[-128.168716,53.010262,0.0],[-128.170364,53.010459,0.0],[-128.169972,53.009706,0.0]],[[-128.169622,53.010896,0.0],[-128.168451,53.010671,0.0],[-128.168152,53.011038,0.0],[-128.169622,53.010896,0.0]],[[-128.162828,53.017397,0.0],[-128.163207,53.016928,0.0],[-128.162617,53.01679,0.0],[-128.162828,53.017397,0.0]],[[-128.179951,53.010356,0.0],[-128.18033,53.009887,0.0],[-128.17974,53.009748,0.0],[-128.179951,53.010356,0.0]]]}},{"type":"Feature","properties":{"rgi_id":"RGI2000-v7.0-G-02-02172","o1region":"02"},"geometry":{"type":"Polygon","coordinates":[[[-128.204006,53.009858,0.0],[-128.20365,53.008489,0.0],[-128.203876,53.007026,0.0],[-128.203378,53.005118,0.0],[-128.202939,53.004493,0.0],[-128.204653,53.004544,0.0],[-128.205203,53.005148,0.0],[-128.205807,53.005318,0.0],[-128.205966,53.005494,0.0],[-128.20598,53.005762,0.0],[-128.206428,53.005754,0.0],[-128.206442,53.006023,0.0],[-128.20689,53.006014,0.0],[-128.207525,53.006719,0.0],[-128.208869,53.0067,0.0],[-128.207605,53.005286,0.0],[-128.207296,53.0052,0.0],[-128.207282,53.004931,0.0],[-128.206834,53.004939,0.0],[-128.206806,53.004402,0.0],[-128.207701,53.004385,0.0],[-128.209315,53.004465,0.0],[-128.211503,53.005011,0.0],[-128.21294,53.005204,0.0],[-128.215155,53.006288,0.0],[-128.216144,53.006489,0.0],[-128.216925,53.007124,0.0],[-128.221835,53.008962,0.0],[-128.222058,53.009098,0.0],[-128.222979,53.009579,0.0],[-128.217624,53.009989,0.0],[-128.216717,53.009723,0.0],[-128.21612,53.010135,0.0],[-128.214907,53.009502,0.0],[-128.214461,53.00923,0.0],[-128.213998,53.00925,0.0],[-128.213096,53.008985,0.0],[-128.211549,53.009425,0.0],[-128.211108,53.008596,0.0],[-128.209541,53.00789,0.0],[-128.208826,53.006954,0.0],[-128.208139,53.008024,0.0],[-128.207412,53.008396,0.0],[-128.206838,53.008855,0.0],[-128.205672,53.009453,0.0],[-128.204006,53.009858,0.0]]]}},{"type":"Feature","properties":{"rgi_id":"RGI2000-v7.0-G-02-04070","o1region":"02"},"geometry":{"type":"Polygon","coordinates":[[[-128.285031,52.992149,0.0],[-128.285002,52.991611,0.0],[-128.284555,52.99162,0.0],[-128.283271,52.990532,0.0],[-128.283718,52.989325,0.0],[-128.286322,52.989026,0.0],[-128.286793,52.988189,0.0],[-128.2875,52.988065,0.0],[-128.287558,52.98914,0.0],[-128.287315,52.989265,0.0],[-128.286966,52.990186,0.0],[-128.28872,52.990974,0.0],[-128.287879,52.991406,0.0],[-128.287702,52.991828,0.0],[-128.287255,52.991837,0.0],[-128.287269,52.992106,0.0],[-128.285031,52.992149,0.0]]]}}]}
