{"type":"FeatureCollection","features":[{"type":"Feature","properties":{"rgi_id":"RGI2000-v7.0-G-17-24508","o1region":"17"},"geometry":{"type":"Polygon","coordinates":[[[-71.128381,-36.011172,0.0],[-71.128262,-36.011441,0.0],[-71.12781,-36.011614,0.0],[-71.127382,-36.011749,0.0],[-71.127203,-36.011749,0.0],[-71.127203,-36.011754,0.0],[-71.127147,-36.011755,0.0],[-71.126745,-36.01182,0.0],[-71.125497,-36.011846,0.0],[-71.12521,-36.011917,0.0],[-71.125214,-36.012059,0.0],[-71.124987,-36.012063,0.0],[-71.124773,-36.012351,0.0],[-71.124872,-36.012591,0.0],[-71.124891,-36.012606,0.0],[-71.124896,-36.012606,0.0],[-71.124896,-36.01261,0.0],[-71.125135,-36.012803,0.0],[-71.125102,-36.013069,0.0],[-71.124905,-36.013255,0.0],[-71.124609,-36.013308,0.0],[-71.124248,-36.013282,0.0],[-71.12399,-36.013163,0.0],[-71.123912,-36.013164,0.0],[-71.123911,-36.013126,0.0],[-71.123787,-36.013069,0.0],[-71.123262,-36.013043,0.0],[-71.123032,-36.013122,0.0],[-71.122834,-36.013255,0.0],[-71.122506,-36.013175,0.0],[-71.122473,-36.012936,0.0],[-71.122177,-36.012724,0.0],[-71.121947,-36.012617,0.0],[-71.121914,-36.012484,0.0],[-71.121914,-36.012272,0.0],[-71.121585,-36.012192,0.0],[-71.121348,-36.012128,0.0],[-71.120889,-36.012136,0.0],[-71.120888,-36.012109,0.0],[-71.120731,-36.012218,0.0],[-71.120731,-36.012537,0.0],[-71.120903,-36.012677,0.0],[-71.120904,-36.012677,0.0],[-71.120904,-36.012677,0.0],[-71.120994,-36.01275,0.0],[-71.121027,-36.013282,0.0],[-71.121388,-36.013441,0.0],[-71.121257,-36.013814,0.0],[-71.121027,-36.013973,0.0],[-71.120632,-36.014265,0.0],[-71.120632,-36.014531,0.0],[-71.120632,-36.014824,0.0],[-71.120628,-36.014827,0.0],[-71.120629,-36.014845,0.0],[-71.120606,-36.014845,0.0],[-71.120435,-36.014983,0.0],[-71.120118,-36.014958,0.0],[-71.119995,-36.015083,0.0],[-71.119994,-36.015084,0.0],[-71.119942,-36.015143,0.0],[-71.119646,-36.015329,0.0],[-71.119643,-36.01533,0.0],[-71.119645,-36.015403,0.0],[-71.119488,-36.015406,0.0],[-71.119482,-36.015409,0.0],[-71.119479,-36.015406,0.0],[-71.119313,-36.015409,0.0],[-71.119309,-36.015284,0.0],[-71.119215,-36.015281,0.0],[-71.118863,-36.015133,0.0],[-71.118649,-36.014972,0.0],[-71.118389,-36.014959,0.0],[-71.118304,-36.015028,0.0],[-71.118307,-36.015138,0.0],[-71.118332,-36.015169,0.0],[-71.118373,-36.015403,0.0],[-71.118458,-36.015609,0.0],[-71.118534,-36.015693,0.0],[-71.118654,-36.015691,0.0],[-71.118658,-36.015832,0.0],[-71.11866,-36.015834,0.0],[-71.118925,-36.015957,0.0],[-71.118994,-36.015955,0.0],[-71.118995,-36.015989,0.0],[-71.119111,-36.016042,0.0],[-71.11966,-36.015951,0.0],[-71.11966,-36.015944,0.0],[-71.119683,-36.015943,0.0],[-71.120117,-36.015652,0.0],[-71.120221,-36.015582,0.0],[-71.120314,-36.015507,0.0],[-71.120311,-36.015391,0.0],[-71.120546,-36.015387,0.0],[-71.121207,-36.015309,0.0],[-71.121355,-36.015249,0.0],[-71.121525,-36.015188,0.0],[-71.121636,-36.015143,0.0],[-71.121634,-36.015097,0.0],[-71.121967,-36.015091,0.0],[-71.121968,-36.015137,0.0],[-71.122289,-36.015157,0.0],[-71.122427,-36.014997,0.0],[-71.122794,-36.015009,0.0],[-71.122978,-36.015195,0.0],[-71.123345,-36.015244,0.0],[-71.123706,-36.015171,0.0],[-71.123755,-36.015143,0.0],[-71.123889,-36.015143,0.0],[-71.124346,-36.015124,0.0],[-71.124412,-36.015116,0.0],[-71.124418,-36.015121,0.0],[-71.124431,-36.01512,0.0],[-71.124691,-36.015244,0.0],[-71.125287,-36.015293,0.0],[-71.125853,-36.015108,0.0],[-71.126159,-36.015096,0.0],[-71.126648,-36.015046,0.0],[-71.12697,-36.014873,0.0],[-71.127,-36.01465,0.0],[-71.127012,-36.014581,0.0],[-71.12691,-36.014531,0.0],[-71.12714,-36.014319,0.0],[-71.127179,-36.014304,0.0],[-71.127352,-36.014192,0.0],[-71.127612,-36.014007,0.0],[-71.127612,-36.013821,0.0],[-71.12749,-36.013685,0.0],[-71.127321,-36.013586,0.0],[-71.127332,-36.013507,0.0],[-71.127271,-36.013441,0.0],[-71.127347,-36.013401,0.0],[-71.127352,-36.013363,0.0],[-71.127416,-36.013363,0.0],[-71.127666,-36.013229,0.0],[-71.128027,-36.013096,0.0],[-71.12814,-36.012868,0.0],[-71.128147,-36.012683,0.0],[-71.128361,-36.012559,0.0],[-71.128729,-36.012559,0.0],[-71.128943,-36.012634,0.0],[-71.128938,-36.012669,0.0],[-71.128943,-36.01267,0.0],[-71.12898,-36.01267,0.0],[-71.12899,-36.012681,0.0],[-71.129032,-36.012691,0.0],[-71.129132,-36.012829,0.0],[-71.129051,-36.012935,0.0],[-71.129046,-36.012963,0.0],[-71.129021,-36.012975,0.0],[-71.129018,-36.012979,0.0],[-71.128902,-36.013065,0.0],[-71.128903,-36.013076,0.0],[-71.128888,-36.013076,0.0],[-71.128832,-36.013118,0.0],[-71.128718,-36.013233,0.0],[-71.128775,-36.013406,0.0],[-71.129103,-36.013544,0.0],[-71.129503,-36.013544,0.0],[-71.129788,-36.013533,0.0],[-71.129922,-36.013526,0.0],[-71.129999,-36.013494,0.0],[-71.130427,-36.013229,0.0],[-71.130854,-36.012936,0.0],[-71.131133,-36.012829,0.0],[-71.131271,-36.012633,0.0],[-71.131392,-36.012599,0.0],[-71.131451,-36.012535,0.0],[-71.13155,-36.01252,0.0],[-71.13155,-36.012488,0.0],[-71.131682,-36.012485,0.0],[-71.131884,-36.012391,0.0],[-71.132212,-36.012045,0.0],[-71.132483,-36.01171,0.0],[-71.132526,-36.011664,0.0],[-71.132526,-36.011659,0.0],[-71.132531,-36.011659,0.0],[-71.13274,-36.011433,0.0],[-71.132858,-36.01136,0.0],[-71.132889,-36.011285,0.0],[-71.133057,-36.01126,0.0],[-71.133271,-36.011334,0.0],[-71.133285,-36.011369,0.0],[-71.13331,-36.011376,0.0],[-71.133396,-36.011641,0.0],[-71.133273,-36.011931,0.0],[-71.133286,-36.012006,0.0],[-71.133239,-36.012075,0.0],[-71.133229,-36.01209,0.0],[-71.133196,-36.012356,0.0],[-71.133196,-36.012552,0.0],[-71.133367,-36.012679,0.0],[-71.133553,-36.01291,0.0],[-71.133595,-36.013118,0.0],[-71.133709,-36.013279,0.0],[-71.133881,-36.013406,0.0],[-71.134209,-36.013556,0.0],[-71.134579,-36.013579,0.0],[-71.134879,-36.013533,0.0],[-71.135064,-36.013337,0.0],[-71.134893,-36.013141,0.0],[-71.13481,-36.01302,0.0],[-71.134699,-36.012963,0.0],[-71.134272,-36.012404,0.0],[-71.133943,-36.012059,0.0],[-71.133918,-36.011965,0.0],[-71.133888,-36.011905,0.0],[-71.133864,-36.011906,0.0],[-71.133862,-36.011855,0.0],[-71.133795,-36.011722,0.0],[-71.133795,-36.011507,0.0],[-71.133779,-36.011447,0.0],[-71.133795,-36.011442,0.0],[-71.133795,-36.011399,0.0],[-71.133795,-36.011099,0.0],[-71.133824,-36.010776,0.0],[-71.133878,-36.01068,0.0],[-71.133878,-36.01057,0.0],[-71.133878,-36.010304,0.0],[-71.133845,-36.010013,0.0],[-71.133813,-36.010014,0.0],[-71.133812,-36.009981,0.0],[-71.133647,-36.009826,0.0],[-71.133385,-36.00964,0.0],[-71.133192,-36.009484,0.0],[-71.133133,-36.009485,0.0],[-71.133132,-36.009435,0.0],[-71.133091,-36.009402,0.0],[-71.132849,-36.009365,0.0],[-71.132493,-36.009384,0.0],[-71.132467,-36.009495,0.0],[-71.132468,-36.009497,0.0],[-71.132467,-36.009497,0.0],[-71.132445,-36.009595,0.0],[-71.132469,-36.009884,0.0],[-71.132374,-36.010211,0.0],[-71.132374,-36.010711,0.0],[-71.132184,-36.011076,0.0],[-71.131922,-36.011172,0.0],[-71.131756,-36.011076,0.0],[-71.131637,-36.010864,0.0],[-71.131756,-36.010653,0.0],[-71.131946,-36.010461,0.0],[-71.131993,-36.010153,0.0],[-71.131851,-36.009941,0.0],[-71.131773,-36.009727,0.0],[-71.131741,-36.009719,0.0],[-71.131478,-36.00964,0.0],[-71.131272,-36.009518,0.0],[-71.131137,-36.00952,0.0],[-71.131135,-36.009437,0.0],[-71.131117,-36.009427,0.0],[-71.130933,-36.009342,0.0],[-71.130662,-36.009307,0.0],[-71.129878,-36.009288,0.0],[-71.129189,-36.009538,0.0],[-71.12869,-36.009807,0.0],[-71.128452,-36.010076,0.0],[-71.128422,-36.010217,0.0],[-71.128422,-36.010543,0.0],[-71.128422,-36.011022,0.0],[-71.128381,-36.011105,0.0],[-71.128381,-36.011172,0.0]]]}},{"type":"Feature","properties":{"rgi_id":"RGI2000-v7.0-G-17-24509","o1region":"17"},"geometry":{"type":"Polygon","coordinates":[[[-71.129004,-36.007033,0.0],[-71.129083,-36.007065,0.0],[-71.129386,-36.007047,0.0],[-71.129756,-36.007088,0.0],[-71.129871,-36.007255,0.0],[-71.129863,-36.007445,0.0],[-71.129863,-36.007461,0.0],[-71.129866,-36.007465,0.0],[-71.129866,-36.007871,0.0],[-71.130006,-36.007936,0.0],[-71.13017,-36.008091,0.0],[-71.130277,-36.008224,0.0],[-71.130327,-36.008386,0.0],[-71.130391,-36.008478,0.0],[-71.130641,-36.008484,0.0],[-71.130814,-36.008484,0.0],[-71.130819,-36.007993,0.0],[-71.130854,-36.007417,0.0],[-71.130669,-36.007209,0.0],[-71.130462,-36.007013,0.0],[-71.130326,-36.006894,0.0],[-71.130125,-36.0068,0.0],[-71.129956,-36.006747,0.0],[-71.129756,-36.006736,0.0],[-71.129634,-36.006646,0.0],[-71.129518,-36.006619,0.0],[-71.129307,-36.006603,0.0],[-71.129129,-36.006644,0.0],[-71.128965,-36.006747,0.0],[-71.128952,-36.006916,0.0],[-71.129004,-36.007033,0.0]]]}},{"type":"Feature","properties":{"rgi_id":"RGI2000-v7.0-G-17-24510","o1region":"17"},"geometry":{"type":"Polygon","coordinates":[[[-71.13236,-36.001483,0.0],[-71.132176,-36.001731,0.0],[-71.131929,-36.002058,0.0],[-71.13189,-36.002401,0.0],[-71.131884,-36.002458,0.0],[-71.131884,-36.002694,0.0],[-71.131816,-36.003094,0.0],[-71.131739,-36.003162,0.0],[-71.131876,-36.003237,0.0],[-71.131876,-36.003683,0.0],[-71.132276,-36.003713,0.0],[-71.132333,-36.003406,0.0],[-71.132746,-36.003381,0.0],[-71.132751,-36.003375,0.0],[-71.133249,-36.003359,0.0],[-71.133226,-36.003237,0.0],[-71.133297,-36.003235,0.0],[-71.133295,-36.003168,0.0],[-71.133245,-36.003175,0.0],[-71.133283,-36.002206,0.0],[-71.133568,-36.002206,0.0],[-71.133568,-36.001775,0.0],[-71.132998,-36.001806,0.0],[-71.132998,-36.001645,0.0],[-71.132922,-36.001647,0.0],[-71.132918,-36.001499,0.0],[-71.13258,-36.001437,0.0],[-71.132409,-36.001452,0.0],[-71.13236,-36.001483,0.0]],[[-71.132271,-36.002199,0.0],[-71.132278,-36.002469,0.0],[-71.132611,-36.002463,0.0],[-71.132618,-36.002734,0.0],[-71.131953,-36.002745,0.0],[-71.131938,-36.002205,0.0],[-71.132271,-36.002199,0.0]]]}},{"type":"Feature","properties":{"rgi_id":"RGI2000-v7.0-G-17-24511","o1region":"17"},"geometry":{"type":"Polygon","coordinates":[[[-71.135811,-35.99771,0.0],[-71.135813,-35.997809,0.0],[-71.135264,-35.997819,0.0],[-71.135239,-35.99809,0.0],[-71.135155,-35.998086,0.0],[-71.135155,-35.998091,0.0],[-71.134949,-35.998095,0.0],[-71.134889,-35.998398,0.0],[-71.134571,-35.998385,0.0],[-71.13454,-35.998784,0.0],[-71.134301,-35.998796,0.0],[-71.13427,-35.999233,0.0],[-71.134047,-35.99922,0.0],[-71.134,-35.999632,0.0],[-71.133539,-35.999632,0.0],[-71.133539,-35.999861,0.0],[-71.133543,-36.000013,0.0],[-71.133539,-36.000013,0.0],[-71.133539,-36.000223,0.0],[-71.133269,-36.000261,0.0],[-71.133269,-36.000814,0.0],[-71.133587,-36.000814,0.0],[-71.133526,-36.001095,0.0],[-71.133572,-36.001094,0.0],[-71.133573,-36.001118,0.0],[-71.133889,-36.001174,0.0],[-71.133904,-36.001264,0.0],[-71.134603,-36.001225,0.0],[-71.134603,-36.00152,0.0],[-71.134937,-36.001585,0.0],[-71.134921,-36.001765,0.0],[-71.135127,-36.001765,0.0],[-71.135127,-36.00233,0.0],[-71.135667,-36.002356,0.0],[-71.135699,-36.001816,0.0],[-71.135699,-36.001713,0.0],[-71.136303,-36.001713,0.0],[-71.136303,-36.001649,0.0],[-71.136604,-36.001649,0.0],[-71.13662,-36.001482,0.0],[-71.137002,-36.001482,0.0],[-71.137001,-36.0017,0.0],[-71.136557,-36.001739,0.0],[-71.136572,-36.002122,0.0],[-71.136595,-36.002122,0.0],[-71.136596,-36.00215,0.0],[-71.136779,-36.00215,0.0],[-71.136779,-36.002381,0.0],[-71.136872,-36.002387,0.0],[-71.136935,-36.002386,0.0],[-71.136935,-36.002392,0.0],[-71.137367,-36.00242,0.0],[-71.137367,-36.002793,0.0],[-71.137589,-36.00278,0.0],[-71.137684,-36.002882,0.0],[-71.1377,-36.003384,0.0],[-71.137446,-36.003396,0.0],[-71.137446,-36.003268,0.0],[-71.136398,-36.003255,0.0],[-71.136394,-36.003207,0.0],[-71.136292,-36.003209,0.0],[-71.136288,-36.00306,0.0],[-71.135747,-36.00305,0.0],[-71.135302,-36.003037,0.0],[-71.135334,-36.003396,0.0],[-71.135524,-36.003435,0.0],[-71.135493,-36.003859,0.0],[-71.13531,-36.003836,0.0],[-71.135318,-36.004141,0.0],[-71.13554,-36.004129,0.0],[-71.135569,-36.004844,0.0],[-71.13567,-36.004843,0.0],[-71.135672,-36.004921,0.0],[-71.136049,-36.004951,0.0],[-71.136049,-36.005002,0.0],[-71.136874,-36.00499,0.0],[-71.136874,-36.004707,0.0],[-71.137399,-36.004733,0.0],[-71.137446,-36.004566,0.0],[-71.137827,-36.00454,0.0],[-71.137818,-36.004804,0.0],[-71.137824,-36.004804,0.0],[-71.137827,-36.004746,0.0],[-71.138479,-36.004694,0.0],[-71.138479,-36.00445,0.0],[-71.138494,-36.003718,0.0],[-71.138635,-36.003723,0.0],[-71.138635,-36.003708,0.0],[-71.138812,-36.003705,0.0],[-71.138812,-36.003281,0.0],[-71.138558,-36.003281,0.0],[-71.138558,-36.002882,0.0],[-71.138796,-36.002857,0.0],[-71.138796,-36.002279,0.0],[-71.139463,-36.00224,0.0],[-71.139447,-36.001726,0.0],[-71.139432,-36.001456,0.0],[-71.14067,-36.001418,0.0],[-71.140797,-36.001392,0.0],[-71.140782,-36.0017,0.0],[-71.140578,-36.001709,0.0],[-71.14058,-36.00178,0.0],[-71.140482,-36.001782,0.0],[-71.140493,-36.002052,0.0],[-71.140587,-36.002051,0.0],[-71.140589,-36.002123,0.0],[-71.141512,-36.002112,0.0],[-71.141512,-36.001764,0.0],[-71.141245,-36.001769,0.0],[-71.141238,-36.001498,0.0],[-71.14157,-36.001492,0.0],[-71.141576,-36.001703,0.0],[-71.141798,-36.001713,0.0],[-71.142338,-36.0017,0.0],[-71.14318,-36.001662,0.0],[-71.143307,-36.0017,0.0],[-71.143259,-36.002201,0.0],[-71.14426,-36.002214,0.0],[-71.144255,-36.002315,0.0],[-71.144261,-36.002526,0.0],[-71.144593,-36.00252,0.0],[-71.144594,-36.002536,0.0],[-71.144927,-36.002536,0.0],[-71.144914,-36.002785,0.0],[-71.145473,-36.002775,0.0],[-71.145451,-36.002548,0.0],[-71.145721,-36.002548,0.0],[-71.145721,-36.002793,0.0],[-71.145932,-36.002812,0.0],[-71.145931,-36.002766,0.0],[-71.146013,-36.002765,0.0],[-71.146039,-36.002561,0.0],[-71.146258,-36.002551,0.0],[-71.146256,-36.00249,0.0],[-71.146317,-36.002489,0.0],[-71.14634,-36.002317,0.0],[-71.146565,-36.00231,0.0],[-71.146582,-36.002238,0.0],[-71.146582,-36.002214,0.0],[-71.146588,-36.002214,0.0],[-71.146626,-36.00206,0.0],[-71.14723,-36.00206,0.0],[-71.14723,-36.001752,0.0],[-71.147865,-36.001713,0.0],[-71.147881,-36.001456,0.0],[-71.148358,-36.001443,0.0],[-71.148358,-36.001199,0.0],[-71.148802,-36.001199,0.0],[-71.148802,-36.001341,0.0],[-71.149485,-36.001341,0.0],[-71.149485,-36.001096,0.0],[-71.150057,-36.001084,0.0],[-71.150045,-36.001341,0.0],[-71.150219,-36.001338,0.0],[-71.150222,-36.001458,0.0],[-71.150851,-36.001482,0.0],[-71.150887,-36.001445,0.0],[-71.150884,-36.001326,0.0],[-71.150978,-36.001324,0.0],[-71.150978,-36.001071,0.0],[-71.150676,-36.001058,0.0],[-71.150629,-36.000852,0.0],[-71.150216,-36.000839,0.0],[-71.150213,-36.000797,0.0],[-71.150204,-36.000797,0.0],[-71.150198,-36.00057,0.0],[-71.149565,-36.000557,0.0],[-71.149565,-36.000268,0.0],[-71.149524,-36.000268,0.0],[-71.149191,-36.000274,0.0],[-71.149191,-36.000248,0.0],[-71.148961,-36.000248,0.0],[-71.148913,-36.000017,0.0],[-71.148879,-36.000009,0.0],[-71.148851,-36.00001,0.0],[-71.148851,-36.000003,0.0],[-71.148739,-35.999979,0.0],[-71.148707,-35.999799,0.0],[-71.148469,-35.999734,0.0],[-71.148437,-35.999465,0.0],[-71.147837,-35.999419,0.0],[-71.147839,-35.999487,0.0],[-71.147174,-35.999499,0.0],[-71.147173,-35.99949,0.0],[-71.146928,-35.99949,0.0],[-71.146928,-35.999246,0.0],[-71.146554,-35.99924,0.0],[-71.146501,-35.999241,0.0],[-71.146501,-35.999239,0.0],[-71.146166,-35.999233,0.0],[-71.146182,-35.998989,0.0],[-71.145451,-35.998989,0.0],[-71.144831,-35.999,0.0],[-71.14483,-35.998989,0.0],[-71.144577,-35.998989,0.0],[-71.144562,-35.998758,0.0],[-71.143339,-35.998758,0.0],[-71.143351,-35.998486,0.0],[-71.143153,-35.998489,0.0],[-71.143146,-35.998249,0.0],[-71.142767,-35.998257,0.0],[-71.142735,-35.998038,0.0],[-71.14102,-35.998038,0.0],[-71.138622,-35.998038,0.0],[-71.138082,-35.998038,0.0],[-71.137208,-35.998025,0.0],[-71.137129,-35.998501,0.0],[-71.136493,-35.998527,0.0],[-71.136493,-35.998338,0.0],[-71.136493,-35.998338,0.0],[-71.136487,-35.998115,0.0],[-71.136001,-35.99809,0.0],[-71.135969,-35.997717,0.0],[-71.135811,-35.99771,0.0]]]}},{"type":"Feature","properties":{"rgi_id":"RGI2000-v7.0-G-17-24512","o1region":"17"},"geometry":{"type":"Polygon","coordinates":[[[-71.153028,-36.004397,0.0],[-71.153028,-36.004733,0.0],[-71.153307,-36.004748,0.0],[-71.153301,-36.004527,0.0],[-71.153399,-36.004526,0.0],[-71.153414,-36.004301,0.0],[-71.153627,-36.004279,0.0],[-71.153614,-36.00382,0.0],[-71.153177,-36.003796,0.0],[-71.153147,-36.003628,0.0],[-71.152196,-36.003628,0.0],[-71.152107,-36.004133,0.0],[-71.152672,-36.004205,0.0],[-71.152701,-36.004397,0.0],[-71.153028,-36.004397,0.0]]]}},{"type":"Feature","properties":{"rgi_id":"RGI2000-v7.0-G-17-24513","o1region":"17"},"geometry":{"type":"Polygon","coordinates":[[[-71.13189,-36.002401,0.0],[-71.131929,-36.002058,0.0],[-71.132176,-36.001731,0.0],[-71.13236,-36.001483,0.0],[-71.132445,-36.001367,0.0],[-71.13258,-36.001313,0.0],[-71.132574,-36.001112,0.0],[-71.132671,-36.00111,0.0],[-71.132864,-36.000592,0.0],[-71.132804,-36.000208,0.0],[-71.132685,-35.999895,0.0],[-71.132685,-35.999246,0.0],[-71.132774,-35.998573,0.0],[-71.132893,-35.998141,0.0],[-71.13325,-35.997708,0.0],[-71.13319,-35.997083,0.0],[-71.132834,-35.996891,0.0],[-71.132186,-35.996461,0.0],[-71.13215,-35.996458,0.0],[-71.131556,-35.996218,0.0],[-71.13117,-35.995999,0.0],[-71.131106,-35.996,0.0],[-71.131105,-35.995962,0.0],[-71.130962,-35.995881,0.0],[-71.130784,-35.995545,0.0],[-71.130279,-35.995232,0.0],[-71.129774,-35.994655,0.0],[-71.129506,-35.994198,0.0],[-71.129387,-35.993718,0.0],[-71.129239,-35.993237,0.0],[-71.12915,-35.992732,0.0],[-71.128972,-35.992299,0.0],[-71.128942,-35.991819,0.0],[-71.128942,-35.99141,0.0],[-71.128734,-35.991025,0.0],[-71.128437,-35.990689,0.0],[-71.128347,-35.990641,0.0],[-71.128299,-35.990641,0.0],[-71.128299,-35.990614,0.0],[-71.127991,-35.990448,0.0],[-71.127813,-35.990208,0.0],[-71.127724,-35.989848,0.0],[-71.127753,-35.989703,0.0],[-71.127843,-35.989607,0.0],[-71.12814,-35.989799,0.0],[-71.128407,-35.99016,0.0],[-71.128556,-35.990352,0.0],[-71.128587,-35.990366,0.0],[-71.128625,-35.990365,0.0],[-71.128625,-35.990382,0.0],[-71.129001,-35.990545,0.0],[-71.129387,-35.990376,0.0],[-71.129619,-35.990226,0.0],[-71.129615,-35.990077,0.0],[-71.129685,-35.990076,0.0],[-71.129685,-35.989799,0.0],[-71.129655,-35.989367,0.0],[-71.129655,-35.988742,0.0],[-71.129611,-35.988455,0.0],[-71.129572,-35.988455,0.0],[-71.129568,-35.988309,0.0],[-71.129387,-35.987996,0.0],[-71.129298,-35.987684,0.0],[-71.129262,-35.98765,0.0],[-71.129217,-35.98765,0.0],[-71.129216,-35.987605,0.0],[-71.128985,-35.987384,0.0],[-71.128877,-35.987386,0.0],[-71.128876,-35.987325,0.0],[-71.128674,-35.987227,0.0],[-71.128544,-35.987122,0.0],[-71.128538,-35.987122,0.0],[-71.128537,-35.987116,0.0],[-71.128407,-35.987011,0.0],[-71.128051,-35.986891,0.0],[-71.127664,-35.986891,0.0],[-71.127608,-35.986868,0.0],[-71.127533,-35.986869,0.0],[-71.127532,-35.986837,0.0],[-71.127367,-35.98677,0.0],[-71.127011,-35.986843,0.0],[-71.126773,-35.987083,0.0],[-71.126535,-35.987203,0.0],[-71.126268,-35.987179,0.0],[-71.126506,-35.986939,0.0],[-71.126922,-35.986602,0.0],[-71.126922,-35.986073,0.0],[-71.126743,-35.985641,0.0],[-71.126416,-35.985304,0.0],[-71.126208,-35.985112,0.0],[-71.125763,-35.984919,0.0],[-71.125407,-35.984743,0.0],[-71.124481,-35.98476,0.0],[-71.12448,-35.984701,0.0],[-71.124188,-35.984775,0.0],[-71.123832,-35.984847,0.0],[-71.123416,-35.985016,0.0],[-71.123148,-35.985088,0.0],[-71.122851,-35.985088,0.0],[-71.122554,-35.985088,0.0],[-71.122049,-35.98516,0.0],[-71.121752,-35.985232,0.0],[-71.121306,-35.985256,0.0],[-71.120945,-35.985256,0.0],[-71.120947,-35.985294,0.0],[-71.120341,-35.985352,0.0],[-71.120172,-35.985362,0.0],[-71.120173,-35.985377,0.0],[-71.119979,-35.98538,0.0],[-71.119818,-35.985467,0.0],[-71.11977,-35.985641,0.0],[-71.119699,-35.985756,0.0],[-71.119545,-35.985987,0.0],[-71.119461,-35.98616,0.0],[-71.119236,-35.986208,0.0],[-71.118986,-35.986208,0.0],[-71.118808,-35.98616,0.0],[-71.118546,-35.985996,0.0],[-71.118237,-35.985823,0.0],[-71.118023,-35.985679,0.0],[-71.117809,-35.985592,0.0],[-71.117524,-35.985487,0.0],[-71.116954,-35.985477,0.0],[-71.116704,-35.985516,0.0],[-71.116526,-35.985554,0.0],[-71.116217,-35.985554,0.0],[-71.115908,-35.985525,0.0],[-71.115611,-35.985467,0.0],[-71.115361,-35.985496,0.0],[-71.115243,-35.985564,0.0],[-71.115064,-35.985573,0.0],[-71.114886,-35.985458,0.0],[-71.114565,-35.985439,0.0],[-71.114518,-35.985454,0.0],[-71.114519,-35.985477,0.0],[-71.114447,-35.985478,0.0],[-71.114221,-35.985554,0.0],[-71.113888,-35.985573,0.0],[-71.113603,-35.985669,0.0],[-71.113305,-35.985698,0.0],[-71.113151,-35.985698,0.0],[-71.112961,-35.985631,0.0],[-71.112747,-35.985506,0.0],[-71.11264,-35.985352,0.0],[-71.112559,-35.985241,0.0],[-71.112516,-35.985242,0.0],[-71.112515,-35.98518,0.0],[-71.112485,-35.985141,0.0],[-71.112426,-35.9849,0.0],[-71.112129,-35.984852,0.0],[-71.111998,-35.98491,0.0],[-71.111848,-35.985136,0.0],[-71.111851,-35.985253,0.0],[-71.111803,-35.985254,0.0],[-71.111749,-35.985429,0.0],[-71.111689,-35.985612,0.0],[-71.111629,-35.9856,0.0],[-71.111651,-35.985737,0.0],[-71.111651,-35.986001,0.0],[-71.111651,-35.986386,0.0],[-71.111561,-35.986722,0.0],[-71.111354,-35.987083,0.0],[-71.111238,-35.987212,0.0],[-71.111243,-35.987427,0.0],[-71.11079,-35.987435,0.0],[-71.11067,-35.987468,0.0],[-71.110284,-35.98754,0.0],[-71.109868,-35.98778,0.0],[-71.109601,-35.988021,0.0],[-71.109304,-35.988237,0.0],[-71.109274,-35.988501,0.0],[-71.109363,-35.988694,0.0],[-71.109304,-35.988958,0.0],[-71.109274,-35.989295,0.0],[-71.109482,-35.989751,0.0],[-71.109719,-35.989992,0.0],[-71.109957,-35.99028,0.0],[-71.110106,-35.990713,0.0],[-71.110314,-35.990953,0.0],[-71.110318,-35.990959,0.0],[-71.110339,-35.990959,0.0],[-71.11034,-35.990986,0.0],[-71.11064,-35.991362,0.0],[-71.110878,-35.991482,0.0],[-71.111235,-35.99165,0.0],[-71.11168,-35.99165,0.0],[-71.111977,-35.99165,0.0],[-71.112275,-35.991867,0.0],[-71.112275,-35.992179,0.0],[-71.11272,-35.992227,0.0],[-71.112898,-35.992203,0.0],[-71.112988,-35.991987,0.0],[-71.113285,-35.991867,0.0],[-71.113433,-35.992059,0.0],[-71.113403,-35.992251,0.0],[-71.113374,-35.99254,0.0],[-71.113611,-35.99266,0.0],[-71.113968,-35.992876,0.0],[-71.114325,-35.992973,0.0],[-71.114681,-35.993213,0.0],[-71.115008,-35.993213,0.0],[-71.115246,-35.993069,0.0],[-71.115721,-35.993069,0.0],[-71.116196,-35.993189,0.0],[-71.116345,-35.993381,0.0],[-71.116167,-35.993694,0.0],[-71.115751,-35.994078,0.0],[-71.115747,-35.994082,0.0],[-71.115748,-35.994109,0.0],[-71.115723,-35.994109,0.0],[-71.115424,-35.994439,0.0],[-71.115364,-35.994655,0.0],[-71.115572,-35.994799,0.0],[-71.11581,-35.994823,0.0],[-71.116107,-35.994871,0.0],[-71.116345,-35.994968,0.0],[-71.116464,-35.99516,0.0],[-71.116553,-35.995376,0.0],[-71.116582,-35.995496,0.0],[-71.116553,-35.995689,0.0],[-71.116285,-35.995785,0.0],[-71.116018,-35.995833,0.0],[-71.115929,-35.995953,0.0],[-71.116018,-35.996242,0.0],[-71.116018,-35.996506,0.0],[-71.115691,-35.996578,0.0],[-71.115486,-35.996791,0.0],[-71.115487,-35.996817,0.0],[-71.115469,-35.996818,0.0],[-71.115394,-35.996939,0.0],[-71.115691,-35.997011,0.0],[-71.116077,-35.997059,0.0],[-71.116094,-35.997077,0.0],[-71.11616,-35.997076,0.0],[-71.116162,-35.997154,0.0],[-71.116226,-35.997227,0.0],[-71.116642,-35.997251,0.0],[-71.11682,-35.997059,0.0],[-71.117117,-35.996867,0.0],[-71.117206,-35.996626,0.0],[-71.117266,-35.99629,0.0],[-71.117236,-35.996097,0.0],[-71.117147,-35.995881,0.0],[-71.117385,-35.995761,0.0],[-71.117455,-35.995735,0.0],[-71.117454,-35.995701,0.0],[-71.11755,-35.995699,0.0],[-71.117771,-35.995617,0.0],[-71.118068,-35.995665,0.0],[-71.118099,-35.99569,0.0],[-71.118119,-35.995689,0.0],[-71.11812,-35.995707,0.0],[-71.118424,-35.995953,0.0],[-71.118427,-35.995954,0.0],[-71.118459,-35.995954,0.0],[-71.118459,-35.995969,0.0],[-71.118632,-35.996049,0.0],[-71.118737,-35.996219,0.0],[-71.118799,-35.996218,0.0],[-71.118807,-35.996506,0.0],[-71.118989,-35.996674,0.0],[-71.119075,-35.996754,0.0],[-71.119146,-35.996753,0.0],[-71.119148,-35.996821,0.0],[-71.119197,-35.996867,0.0],[-71.119153,-35.996998,0.0],[-71.119153,-35.997023,0.0],[-71.119144,-35.997023,0.0],[-71.119108,-35.997131,0.0],[-71.119197,-35.99754,0.0],[-71.119197,-35.997828,0.0],[-71.119405,-35.997948,0.0],[-71.119405,-35.998189,0.0],[-71.119191,-35.998448,0.0],[-71.119197,-35.998645,0.0],[-71.119045,-35.998648,0.0],[-71.119019,-35.998886,0.0],[-71.118989,-35.999102,0.0],[-71.118877,-35.99914,0.0],[-71.118878,-35.999191,0.0],[-71.118715,-35.999194,0.0],[-71.118632,-35.999222,0.0],[-71.118246,-35.999463,0.0],[-71.118009,-35.999607,0.0],[-71.117711,-35.999366,0.0],[-71.117622,-35.999174,0.0],[-71.117682,-35.998982,0.0],[-71.117355,-35.998838,0.0],[-71.117088,-35.998814,0.0],[-71.116872,-35.998814,0.0],[-71.116875,-35.998956,0.0],[-71.116733,-35.998959,0.0],[-71.116701,-35.999126,0.0],[-71.11655,-35.999224,0.0],[-71.11655,-35.999232,0.0],[-71.116537,-35.999233,0.0],[-71.116404,-35.999318,0.0],[-71.116137,-35.999631,0.0],[-71.11578,-35.999775,0.0],[-71.115513,-35.999823,0.0],[-71.115305,-35.999919,0.0],[-71.115517,-36.000062,0.0],[-71.115574,-36.000061,0.0],[-71.115575,-36.000101,0.0],[-71.115661,-36.00016,0.0],[-71.115721,-36.000496,0.0],[-71.115632,-36.000736,0.0],[-71.115602,-36.001121,0.0],[-71.11581,-36.001482,0.0],[-71.116018,-36.001746,0.0],[-71.116209,-36.001943,0.0],[-71.11629,-36.001941,0.0],[-71.116292,-36.002028,0.0],[-71.116345,-36.002082,0.0],[-71.116404,-36.002299,0.0],[-71.116761,-36.002371,0.0],[-71.116964,-36.002281,0.0],[-71.116962,-36.0022,0.0],[-71.117295,-36.002194,0.0],[-71.117297,-36.002273,0.0],[-71.117414,-36.002299,0.0],[-71.117528,-36.00246,0.0],[-71.117635,-36.002458,0.0],[-71.117639,-36.002609,0.0],[-71.117801,-36.002827,0.0],[-71.117979,-36.003044,0.0],[-71.118317,-36.003078,0.0],[-71.118314,-36.002987,0.0],[-71.11847,-36.002984,0.0],[-71.118514,-36.002683,0.0],[-71.118454,-36.002395,0.0],[-71.118009,-36.002371,0.0],[-71.117741,-36.002203,0.0],[-71.117746,-36.002186,0.0],[-71.117627,-36.002188,0.0],[-71.11762,-36.001918,0.0],[-71.117919,-36.001912,0.0],[-71.118187,-36.001746,0.0],[-71.118662,-36.001602,0.0],[-71.119078,-36.001602,0.0],[-71.119197,-36.001554,0.0],[-71.119462,-36.001615,0.0],[-71.119609,-36.001612,0.0],[-71.11961,-36.001649,0.0],[-71.119613,-36.00165,0.0],[-71.119922,-36.001877,0.0],[-71.119949,-36.001877,0.0],[-71.119949,-36.001899,0.0],[-71.120118,-36.002058,0.0],[-71.120118,-36.002347,0.0],[-71.120148,-36.002659,0.0],[-71.120185,-36.002684,0.0],[-71.120303,-36.002682,0.0],[-71.120305,-36.002764,0.0],[-71.120474,-36.002876,0.0],[-71.1205,-36.002949,0.0],[-71.120643,-36.002946,0.0],[-71.12065,-36.003216,0.0],[-71.120591,-36.003217,0.0],[-71.120415,-36.003597,0.0],[-71.120329,-36.003644,0.0],[-71.120332,-36.003763,0.0],[-71.120108,-36.003767,0.0],[-71.119851,-36.003909,0.0],[-71.119672,-36.003966,0.0],[-71.119674,-36.004045,0.0],[-71.11941,-36.004049,0.0],[-71.11887,-36.004221,0.0],[-71.11884,-36.004654,0.0],[-71.118959,-36.00487,0.0],[-71.119227,-36.005207,0.0],[-71.119345,-36.005207,0.0],[-71.119524,-36.0054,0.0],[-71.11971,-36.005396,0.0],[-71.119717,-36.005642,0.0],[-71.119821,-36.006,0.0],[-71.120088,-36.006312,0.0],[-71.120385,-36.006385,0.0],[-71.120609,-36.006462,0.0],[-71.120737,-36.00646,0.0],[-71.120738,-36.006507,0.0],[-71.120801,-36.006529,0.0],[-71.121128,-36.006697,0.0],[-71.121485,-36.007009,0.0],[-71.12168,-36.007254,0.0],[-71.121757,-36.007253,0.0],[-71.12176,-36.007353,0.0],[-71.121811,-36.007418,0.0],[-71.122049,-36.007779,0.0],[-71.12207,-36.007788,0.0],[-71.122104,-36.007788,0.0],[-71.122104,-36.007804,0.0],[-71.122257,-36.007875,0.0],[-71.122703,-36.007923,0.0],[-71.122903,-36.008044,0.0],[-71.123109,-36.00804,0.0],[-71.123112,-36.00815,0.0],[-71.123416,-36.008211,0.0],[-71.123713,-36.008043,0.0],[-71.123832,-36.007755,0.0],[-71.123832,-36.007466,0.0],[-71.123624,-36.007226,0.0],[-71.123589,-36.007221,0.0],[-71.12342,-36.007224,0.0],[-71.123419,-36.007195,0.0],[-71.123148,-36.007154,0.0],[-71.122778,-36.006965,0.0],[-71.122748,-36.006965,0.0],[-71.122747,-36.006949,0.0],[-71.122584,-36.006865,0.0],[-71.122227,-36.006649,0.0],[-71.121782,-36.006216,0.0],[-71.121425,-36.006,0.0],[-71.121574,-36.005688,0.0],[-71.12193,-36.005399,0.0],[-71.122039,-36.005377,0.0],[-71.122039,-36.005355,0.0],[-71.122159,-36.005353,0.0],[-71.122406,-36.005303,0.0],[-71.122911,-36.005183,0.0],[-71.123445,-36.005087,0.0],[-71.123695,-36.005075,0.0],[-71.123695,-36.005055,0.0],[-71.124027,-36.005049,0.0],[-71.124028,-36.005069,0.0],[-71.124515,-36.005111,0.0],[-71.124931,-36.005087,0.0],[-71.125228,-36.004894,0.0],[-71.125344,-36.004496,0.0],[-71.125342,-36.004431,0.0],[-71.125317,-36.004149,0.0],[-71.125102,-36.003949,0.0],[-71.124996,-36.003951,0.0],[-71.124994,-36.003847,0.0],[-71.124931,-36.003789,0.0],[-71.124901,-36.003428,0.0],[-71.124961,-36.003092,0.0],[-71.125317,-36.002924,0.0],[-71.125614,-36.002972,0.0],[-71.125703,-36.00314,0.0],[-71.125642,-36.003211,0.0],[-71.125647,-36.003398,0.0],[-71.125487,-36.003401,0.0],[-71.125406,-36.003597,0.0],[-71.125525,-36.003933,0.0],[-71.125537,-36.003941,0.0],[-71.125662,-36.003939,0.0],[-71.125664,-36.004025,0.0],[-71.125852,-36.004149,0.0],[-71.1259,-36.004205,0.0],[-71.126002,-36.004203,0.0],[-71.126005,-36.004326,0.0],[-71.12606,-36.00439,0.0],[-71.126402,-36.004467,0.0],[-71.126674,-36.004462,0.0],[-71.126681,-36.004732,0.0],[-71.126446,-36.004736,0.0],[-71.126357,-36.00487,0.0],[-71.125911,-36.004894,0.0],[-71.125921,-36.005016,0.0],[-71.126023,-36.005014,0.0],[-71.126031,-36.005284,0.0],[-71.126363,-36.005278,0.0],[-71.126385,-36.006089,0.0],[-71.126261,-36.006092,0.0],[-71.126238,-36.006288,0.0],[-71.126208,-36.006673,0.0],[-71.126623,-36.006896,0.0],[-71.126768,-36.006894,0.0],[-71.126951,-36.006721,0.0],[-71.127129,-36.006505,0.0],[-71.127284,-36.006344,0.0],[-71.127058,-36.006348,0.0],[-71.127043,-36.005807,0.0],[-71.127376,-36.005801,0.0],[-71.127368,-36.005531,0.0],[-71.127701,-36.005525,0.0],[-71.127718,-36.006146,0.0],[-71.127724,-36.006144,0.0],[-71.128258,-36.006144,0.0],[-71.128382,-36.006108,0.0],[-71.128381,-36.006054,0.0],[-71.128577,-36.00605,0.0],[-71.128585,-36.006048,0.0],[-71.128711,-36.005956,0.0],[-71.128706,-36.005778,0.0],[-71.129039,-36.005772,0.0],[-71.129041,-36.00584,0.0],[-71.129358,-36.005856,0.0],[-71.129685,-36.006144,0.0],[-71.129893,-36.006337,0.0],[-71.1301,-36.006577,0.0],[-71.130398,-36.006457,0.0],[-71.130576,-36.006072,0.0],[-71.130549,-36.006015,0.0],[-71.130377,-36.006018,0.0],[-71.130366,-36.005619,0.0],[-71.130338,-36.005279,0.0],[-71.130606,-36.00487,0.0],[-71.130992,-36.004462,0.0],[-71.130999,-36.004408,0.0],[-71.130991,-36.004115,0.0],[-71.13104,-36.004114,0.0],[-71.131051,-36.004029,0.0],[-71.131259,-36.003452,0.0],[-71.131616,-36.002972,0.0],[-71.13189,-36.002401,0.0]],[[-71.119941,-36.001606,0.0],[-71.119934,-36.001336,0.0],[-71.118936,-36.001354,0.0],[-71.118915,-36.000543,0.0],[-71.119247,-36.000537,0.0],[-71.11924,-36.000267,0.0],[-71.120903,-36.000237,0.0],[-71.120896,-35.999967,0.0],[-71.121561,-35.999955,0.0],[-71.121532,-35.998874,0.0],[-71.123195,-35.998845,0.0],[-71.123203,-35.999115,0.0],[-71.122205,-35.999132,0.0],[-71.122212,-35.999403,0.0],[-71.122545,-35.999397,0.0],[-71.122552,-35.999667,0.0],[-71.122885,-35.999661,0.0],[-71.122892,-35.999932,0.0],[-71.123224,-35.999926,0.0],[-71.123232,-36.000196,0.0],[-71.122566,-36.000208,0.0],[-71.122559,-35.999937,0.0],[-71.121894,-35.999949,0.0],[-71.121908,-36.00049,0.0],[-71.122574,-36.000478,0.0],[-71.122581,-36.000748,0.0],[-71.121583,-36.000766,0.0],[-71.12159,-36.001036,0.0],[-71.121258,-36.001042,0.0],[-71.121265,-36.001312,0.0],[-71.1206,-36.001324,0.0],[-71.120607,-36.001595,0.0],[-71.119941,-36.001606,0.0]],[[-71.127671,-35.992005,0.0],[-71.127663,-35.991734,0.0],[-71.127996,-35.991728,0.0],[-71.128003,-35.991999,0.0],[-71.127671,-35.992005,0.0]],[[-71.113015,-35.991453,0.0],[-71.113007,-35.991182,0.0],[-71.11334,-35.991176,0.0],[-71.113347,-35.991447,0.0],[-71.113015,-35.991453,0.0]],[[-71.12861,-35.989825,0.0],[-71.128603,-35.989554,0.0],[-71.128936,-35.989548,0.0],[-71.128943,-35.989819,0.0],[-71.12861,-35.989825,0.0]],[[-71.109956,-35.989073,0.0],[-71.109949,-35.988802,0.0],[-71.110614,-35.988791,0.0],[-71.110622,-35.989061,0.0],[-71.109956,-35.989073,0.0]]]}},{"type":"Feature","properties":{"rgi_id":"RGI2000-v7.0-G-17-24514","o1region":"17"},"geometry":{"type":"Polygon","coordinates":[[[-71.111812,-35.99627,0.0],[-71.111814,-35.996341,0.0],[-71.111746,-35.996342,0.0],[-71.11174,-35.996408,0.0],[-71.111613,-35.996432,0.0],[-71.111607,-35.996459,0.0],[-71.111561,-35.996875,0.0],[-71.111586,-35.996956,0.0],[-71.11174,-35.996966,0.0],[-71.11174,-35.997027,0.0],[-71.111785,-35.997036,0.0],[-71.111819,-35.997152,0.0],[-71.111836,-35.997152,0.0],[-71.111837,-35.997214,0.0],[-71.111888,-35.997389,0.0],[-71.112168,-35.997389,0.0],[-71.112263,-35.997677,0.0],[-71.112275,-35.997927,0.0],[-71.112643,-35.997927,0.0],[-71.11262,-35.997257,0.0],[-71.112588,-35.997253,0.0],[-71.112588,-35.997252,0.0],[-71.112489,-35.997245,0.0],[-71.112477,-35.996841,0.0],[-71.112571,-35.996835,0.0],[-71.112558,-35.996483,0.0],[-71.112558,-35.996389,0.0],[-71.112311,-35.996389,0.0],[-71.112334,-35.996101,0.0],[-71.111942,-35.996101,0.0],[-71.111918,-35.996264,0.0],[-71.111812,-35.99627,0.0]]]}},{"type":"Feature","properties":{"rgi_id":"RGI2000-v7.0-G-17-24515","o1region":"17"},"geometry":{"type":"Polygon","coordinates":[[[-71.110512,-35.992983,0.0],[-71.110483,-35.993102,0.0],[-71.110493,-35.993337,0.0],[-71.110455,-35.993637,0.0],[-71.110449,-35.993649,0.0],[-71.110448,-35.993671,0.0],[-71.110436,-35.99368,0.0],[-71.110433,-35.993685,0.0],[-71.110426,-35.993817,0.0],[-71.110426,-35.993948,0.0],[-71.110398,-35.994167,0.0],[-71.110431,-35.994298,0.0],[-71.110469,-35.994421,0.0],[-71.110621,-35.994494,0.0],[-71.11094,-35.994529,0.0],[-71.111439,-35.994533,0.0],[-71.112038,-35.994517,0.0],[-71.112665,-35.994517,0.0],[-71.112665,-35.994402,0.0],[-71.112665,-35.994175,0.0],[-71.112603,-35.994067,0.0],[-71.11252,-35.994032,0.0],[-71.112469,-35.994032,0.0],[-71.112456,-35.994004,0.0],[-71.112432,-35.993994,0.0],[-71.112328,-35.99386,0.0],[-71.112252,-35.993814,0.0],[-71.112171,-35.99374,0.0],[-71.112138,-35.99356,0.0],[-71.112047,-35.993464,0.0],[-71.112019,-35.993325,0.0],[-71.112019,-35.99319,0.0],[-71.111881,-35.99306,0.0],[-71.111619,-35.993033,0.0],[-71.111472,-35.993037,0.0],[-71.111386,-35.993064,0.0],[-71.111215,-35.993079,0.0],[-71.111101,-35.993056,0.0],[-71.110973,-35.993006,0.0],[-71.110906,-35.992944,0.0],[-71.110759,-35.99289,0.0],[-71.110654,-35.992914,0.0],[-71.110512,-35.992983,0.0]]]}},{"type":"Feature","properties":{"rgi_id":"RGI2000-v7.0-G-17-24516","o1region":"17"},"geometry":{"type":"Polygon","coordinates":[[[-71.108152,-35.98099,0.0],[-71.108127,-35.981224,0.0],[-71.108156,-35.981625,0.0],[-71.108289,-35.981807,0.0],[-71.10842,-35.981807,0.0],[-71.10842,-35.982069,0.0],[-71.108439,-35.982068,0.0],[-71.108441,-35.98216,0.0],[-71.108521,-35.98231,0.0],[-71.1086,-35.98237,0.0],[-71.108841,-35.982368,0.0],[-71.108857,-35.982549,0.0],[-71.109034,-35.982545,0.0],[-71.109045,-35.982854,0.0],[-71.108966,-35.982854,0.0],[-71.108987,-35.98303,0.0],[-71.108957,-35.983099,0.0],[-71.108967,-35.983215,0.0],[-71.108969,-35.983276,0.0],[-71.108981,-35.983284,0.0],[-71.109089,-35.983289,0.0],[-71.109217,-35.983251,0.0],[-71.109217,-35.983149,0.0],[-71.109381,-35.983152,0.0],[-71.109381,-35.983151,0.0],[-71.109392,-35.982947,0.0],[-71.109542,-35.982947,0.0],[-71.109549,-35.982799,0.0],[-71.109689,-35.982797,0.0],[-71.109731,-35.982616,0.0],[-71.109548,-35.982319,0.0],[-71.109444,-35.982321,0.0],[-71.109441,-35.982228,0.0],[-71.109265,-35.982085,0.0],[-71.109238,-35.982054,0.0],[-71.109104,-35.982057,0.0],[-71.109102,-35.981994,0.0],[-71.109024,-35.981995,0.0],[-71.109042,-35.981862,0.0],[-71.108938,-35.981856,0.0],[-71.108942,-35.981712,0.0],[-71.108813,-35.981712,0.0],[-71.108816,-35.981524,0.0],[-71.108684,-35.981535,0.0],[-71.108663,-35.981333,0.0],[-71.108661,-35.98133,0.0],[-71.108506,-35.981333,0.0],[-71.108509,-35.981212,0.0],[-71.10842,-35.981243,0.0],[-71.108423,-35.981041,0.0],[-71.108334,-35.981055,0.0],[-71.108345,-35.980986,0.0],[-71.108152,-35.98099,0.0]]]}},{"type":"Feature","properties":{"rgi_id":"RGI2000-v7.0-G-17-24517","o1region":"17"},"geometry":{"type":"Polygon","coordinates":[[[-71.118756,-35.980661,0.0],[-71.1188,-35.980864,0.0],[-71.119008,-35.980858,0.0],[-71.119008,-35.981071,0.0],[-71.119059,-35.98107,0.0],[-71.119061,-35.981124,0.0],[-71.119108,-35.981124,0.0],[-71.119144,-35.981367,0.0],[-71.119026,-35.981382,0.0],[-71.119031,-35.981543,0.0],[-71.11907,-35.981611,0.0],[-71.119074,-35.98161,0.0],[-71.119074,-35.981616,0.0],[-71.11909,-35.981644,0.0],[-71.119327,-35.981662,0.0],[-71.119327,-35.981876,0.0],[-71.119413,-35.981875,0.0],[-71.119421,-35.982145,0.0],[-71.119338,-35.982147,0.0],[-71.119366,-35.982247,0.0],[-71.119347,-35.982576,0.0],[-71.119144,-35.982621,0.0],[-71.119107,-35.982397,0.0],[-71.119107,-35.982187,0.0],[-71.11907,-35.982151,0.0],[-71.118755,-35.982157,0.0],[-71.118749,-35.981904,0.0],[-71.118571,-35.981798,0.0],[-71.118367,-35.981678,0.0],[-71.11825,-35.981625,0.0],[-71.117743,-35.981634,0.0],[-71.117742,-35.981581,0.0],[-71.116619,-35.981563,0.0],[-71.116619,-35.981699,0.0],[-71.116349,-35.981706,0.0],[-71.116296,-35.981753,0.0],[-71.116129,-35.981948,0.0],[-71.11605,-35.98203,0.0],[-71.116044,-35.98212,0.0],[-71.115694,-35.982129,0.0],[-71.115408,-35.982172,0.0],[-71.115057,-35.982292,0.0],[-71.115001,-35.982487,0.0],[-71.115004,-35.982494,0.0],[-71.115105,-35.982492,0.0],[-71.115106,-35.982553,0.0],[-71.11536,-35.982577,0.0],[-71.115333,-35.982758,0.0],[-71.115444,-35.982756,0.0],[-71.115445,-35.982767,0.0],[-71.115679,-35.982778,0.0],[-71.115785,-35.982677,0.0],[-71.11578,-35.98254,0.0],[-71.116345,-35.982525,0.0],[-71.116354,-35.982695,0.0],[-71.1165,-35.982688,0.0],[-71.1165,-35.982798,0.0],[-71.116628,-35.982791,0.0],[-71.116645,-35.982905,0.0],[-71.116647,-35.982906,0.0],[-71.116832,-35.982995,0.0],[-71.11722,-35.98304,0.0],[-71.117353,-35.983076,0.0],[-71.117767,-35.983079,0.0],[-71.117794,-35.983177,0.0],[-71.11796,-35.983205,0.0],[-71.118116,-35.983311,0.0],[-71.118415,-35.983344,0.0],[-71.118378,-35.983471,0.0],[-71.118509,-35.983524,0.0],[-71.118825,-35.983581,0.0],[-71.118817,-35.983759,0.0],[-71.11883,-35.983772,0.0],[-71.119099,-35.983765,0.0],[-71.119087,-35.983934,0.0],[-71.119144,-35.983968,0.0],[-71.119262,-35.984132,0.0],[-71.119409,-35.984127,0.0],[-71.119427,-35.984304,0.0],[-71.119427,-35.984305,0.0],[-71.119433,-35.984308,0.0],[-71.119478,-35.984308,0.0],[-71.119479,-35.984339,0.0],[-71.119736,-35.984507,0.0],[-71.119804,-35.984572,0.0],[-71.119818,-35.984572,0.0],[-71.119819,-35.984586,0.0],[-71.119919,-35.984682,0.0],[-71.120371,-35.984687,0.0],[-71.120423,-35.984669,0.0],[-71.120439,-35.98451,0.0],[-71.120548,-35.984488,0.0],[-71.120548,-35.98437,0.0],[-71.120986,-35.984377,0.0],[-71.120986,-35.984477,0.0],[-71.121058,-35.98455,0.0],[-71.121149,-35.984548,0.0],[-71.121153,-35.984718,0.0],[-71.121342,-35.98482,0.0],[-71.121342,-35.984905,0.0],[-71.121349,-35.984908,0.0],[-71.121472,-35.984897,0.0],[-71.121659,-35.984821,0.0],[-71.12177,-35.984746,0.0],[-71.121807,-35.984552,0.0],[-71.121807,-35.9843,0.0],[-71.121799,-35.983996,0.0],[-71.121821,-35.983996,0.0],[-71.121826,-35.983908,0.0],[-71.121833,-35.983908,0.0],[-71.121825,-35.983839,0.0],[-71.122181,-35.983831,0.0],[-71.122199,-35.983949,0.0],[-71.122363,-35.983942,0.0],[-71.122363,-35.984104,0.0],[-71.122518,-35.984119,0.0],[-71.122545,-35.984379,0.0],[-71.122552,-35.984385,0.0],[-71.122755,-35.984392,0.0],[-71.122773,-35.984503,0.0],[-71.122901,-35.984554,0.0],[-71.122916,-35.98466,0.0],[-71.12301,-35.984732,0.0],[-71.123229,-35.984811,0.0],[-71.12352,-35.984817,0.0],[-71.123658,-35.98477,0.0],[-71.123667,-35.984724,0.0],[-71.123782,-35.98472,0.0],[-71.123885,-35.984637,0.0],[-71.123895,-35.984591,0.0],[-71.124111,-35.984582,0.0],[-71.124212,-35.984567,0.0],[-71.124242,-35.984555,0.0],[-71.124259,-35.983876,0.0],[-71.124278,-35.983765,0.0],[-71.124413,-35.983765,0.0],[-71.124424,-35.983743,0.0],[-71.124433,-35.983389,0.0],[-71.12456,-35.983359,0.0],[-71.124569,-35.983197,0.0],[-71.124663,-35.983193,0.0],[-71.124748,-35.983055,0.0],[-71.124925,-35.982969,0.0],[-71.124925,-35.982872,0.0],[-71.125335,-35.982872,0.0],[-71.125445,-35.982968,0.0],[-71.125472,-35.983197,0.0],[-71.12549,-35.983515,0.0],[-71.125654,-35.983624,0.0],[-71.125695,-35.983657,0.0],[-71.125783,-35.983655,0.0],[-71.125785,-35.983729,0.0],[-71.125839,-35.983774,0.0],[-71.125936,-35.983878,0.0],[-71.126037,-35.983883,0.0],[-71.126031,-35.983921,0.0],[-71.126334,-35.983916,0.0],[-71.126487,-35.983834,0.0],[-71.126513,-35.983818,0.0],[-71.12653,-35.983721,0.0],[-71.126659,-35.983721,0.0],[-71.12674,-35.98365,0.0],[-71.126703,-35.982821,0.0],[-71.126758,-35.982819,0.0],[-71.126751,-35.982555,0.0],[-71.12669,-35.982337,0.0],[-71.126468,-35.982337,0.0],[-71.126329,-35.982449,0.0],[-71.126329,-35.98254,0.0],[-71.126293,-35.982607,0.0],[-71.126167,-35.982608,0.0],[-71.126154,-35.982621,0.0],[-71.125858,-35.982636,0.0],[-71.125777,-35.982612,0.0],[-71.125563,-35.982614,0.0],[-71.125568,-35.982548,0.0],[-71.125562,-35.982546,0.0],[-71.125445,-35.982496,0.0],[-71.12519,-35.982496,0.0],[-71.12519,-35.982375,0.0],[-71.125118,-35.982337,0.0],[-71.125117,-35.982334,0.0],[-71.125016,-35.982334,0.0],[-71.125007,-35.982127,0.0],[-71.124834,-35.982112,0.0],[-71.124819,-35.981779,0.0],[-71.124734,-35.981781,0.0],[-71.124732,-35.981714,0.0],[-71.12467,-35.981714,0.0],[-71.124654,-35.981633,0.0],[-71.1246,-35.981604,0.0],[-71.124323,-35.981559,0.0],[-71.124304,-35.981572,0.0],[-71.124296,-35.981751,0.0],[-71.124068,-35.981754,0.0],[-71.124069,-35.981793,0.0],[-71.12384,-35.981797,0.0],[-71.123694,-35.981933,0.0],[-71.12363,-35.982062,0.0],[-71.123639,-35.982267,0.0],[-71.123083,-35.982252,0.0],[-71.123083,-35.981854,0.0],[-71.123001,-35.981825,0.0],[-71.122983,-35.981478,0.0],[-71.12273,-35.981472,0.0],[-71.122732,-35.981546,0.0],[-71.122686,-35.981547,0.0],[-71.12267,-35.9816,0.0],[-71.122664,-35.981861,0.0],[-71.122299,-35.981839,0.0],[-71.122308,-35.981485,0.0],[-71.122144,-35.981478,0.0],[-71.122128,-35.9811,0.0],[-71.122048,-35.981035,0.0],[-71.12202,-35.981018,0.0],[-71.12172,-35.981023,0.0],[-71.121716,-35.980893,0.0],[-71.121679,-35.980895,0.0],[-71.121643,-35.980792,0.0],[-71.121642,-35.980792,0.0],[-71.121248,-35.980792,0.0],[-71.121234,-35.980945,0.0],[-71.121245,-35.981073,0.0],[-71.121387,-35.981087,0.0],[-71.121387,-35.981204,0.0],[-71.121456,-35.981229,0.0],[-71.121474,-35.981379,0.0],[-71.121363,-35.981453,0.0],[-71.121343,-35.98157,0.0],[-71.121401,-35.981569,0.0],[-71.121409,-35.98184,0.0],[-71.121416,-35.98211,0.0],[-71.121355,-35.982111,0.0],[-71.12136,-35.982179,0.0],[-71.121032,-35.982186,0.0],[-71.121032,-35.981935,0.0],[-71.120749,-35.981898,0.0],[-71.120722,-35.981766,0.0],[-71.120685,-35.981766,0.0],[-71.120694,-35.981662,0.0],[-71.120266,-35.98164,0.0],[-71.120271,-35.981589,0.0],[-71.120071,-35.981593,0.0],[-71.120057,-35.981052,0.0],[-71.120389,-35.981046,0.0],[-71.120382,-35.980776,0.0],[-71.12005,-35.980782,0.0],[-71.120042,-35.980512,0.0],[-71.11971,-35.980518,0.0],[-71.119707,-35.980403,0.0],[-71.119532,-35.980376,0.0],[-71.11907,-35.980376,0.0],[-71.118848,-35.980436,0.0],[-71.118756,-35.980661,0.0]],[[-71.116767,-35.982462,0.0],[-71.11676,-35.982192,0.0],[-71.117425,-35.98218,0.0],[-71.117432,-35.982451,0.0],[-71.116767,-35.982462,0.0]]]}},{"type":"Feature","properties":{"rgi_id":"RGI2000-v7.0-G-17-24518","o1region":"17"},"geometry":{"type":"Polygon","coordinates":[[[-71.123085,-35.977405,0.0],[-71.122957,-35.977554,0.0],[-71.122972,-35.97809,0.0],[-71.123151,-35.978166,0.0],[-71.123072,-35.978348,0.0],[-71.123032,-35.978637,0.0],[-71.123032,-35.979077,0.0],[-71.123059,-35.979291,0.0],[-71.123032,-35.979623,0.0],[-71.123013,-35.979625,0.0],[-71.123014,-35.979648,0.0],[-71.122693,-35.979654,0.0],[-71.122556,-35.979666,0.0],[-71.122278,-35.979677,0.0],[-71.122198,-35.979473,0.0],[-71.122198,-35.979216,0.0],[-71.122185,-35.97898,0.0],[-71.122091,-35.978853,0.0],[-71.121994,-35.978855,0.0],[-71.121987,-35.978584,0.0],[-71.121654,-35.97859,0.0],[-71.12164,-35.97805,0.0],[-71.121972,-35.978044,0.0],[-71.121953,-35.977323,0.0],[-71.121791,-35.977236,0.0],[-71.121783,-35.977236,0.0],[-71.12162,-35.977302,0.0],[-71.121625,-35.977509,0.0],[-71.121306,-35.977515,0.0],[-71.121245,-35.97763,0.0],[-71.121245,-35.977786,0.0],[-71.1213,-35.977785,0.0],[-71.121313,-35.978274,0.0],[-71.121324,-35.978337,0.0],[-71.121444,-35.978787,0.0],[-71.12143,-35.979023,0.0],[-71.121499,-35.979134,0.0],[-71.121669,-35.979131,0.0],[-71.121677,-35.979422,0.0],[-71.121695,-35.979452,0.0],[-71.121775,-35.979559,0.0],[-71.121947,-35.979773,0.0],[-71.12198,-35.979937,0.0],[-71.122023,-35.979936,0.0],[-71.122027,-35.98007,0.0],[-71.122159,-35.980266,0.0],[-71.12237,-35.980416,0.0],[-71.12244,-35.980469,0.0],[-71.122703,-35.980465,0.0],[-71.122707,-35.980635,0.0],[-71.122966,-35.980716,0.0],[-71.123012,-35.98073,0.0],[-71.123708,-35.980717,0.0],[-71.12404,-35.980711,0.0],[-71.124047,-35.980982,0.0],[-71.124713,-35.98097,0.0],[-71.124705,-35.9807,0.0],[-71.124373,-35.980705,0.0],[-71.124365,-35.980435,0.0],[-71.125031,-35.980423,0.0],[-71.125036,-35.980618,0.0],[-71.125058,-35.980523,0.0],[-71.12527,-35.980576,0.0],[-71.125319,-35.980689,0.0],[-71.12537,-35.980688,0.0],[-71.125373,-35.9808,0.0],[-71.125468,-35.980962,0.0],[-71.125601,-35.981134,0.0],[-71.125758,-35.981222,0.0],[-71.12605,-35.981217,0.0],[-71.126052,-35.981302,0.0],[-71.126064,-35.981305,0.0],[-71.126249,-35.981391,0.0],[-71.126369,-35.981455,0.0],[-71.126429,-35.98148,0.0],[-71.126722,-35.981475,0.0],[-71.127055,-35.981469,0.0],[-71.127387,-35.981463,0.0],[-71.127395,-35.981734,0.0],[-71.127727,-35.981728,0.0],[-71.127729,-35.981798,0.0],[-71.127878,-35.981798,0.0],[-71.12805,-35.981734,0.0],[-71.128143,-35.981669,0.0],[-71.128249,-35.981498,0.0],[-71.128354,-35.981305,0.0],[-71.128527,-35.981155,0.0],[-71.128659,-35.98108,0.0],[-71.128884,-35.98093,0.0],[-71.129003,-35.980651,0.0],[-71.129003,-35.980416,0.0],[-71.129003,-35.980137,0.0],[-71.129003,-35.979869,0.0],[-71.128911,-35.979655,0.0],[-71.128721,-35.979547,0.0],[-71.128667,-35.979548,0.0],[-71.128317,-35.979554,0.0],[-71.128235,-35.979677,0.0],[-71.128248,-35.979826,0.0],[-71.128342,-35.979824,0.0],[-71.128363,-35.980635,0.0],[-71.128247,-35.980637,0.0],[-71.128209,-35.980855,0.0],[-71.128037,-35.980885,0.0],[-71.128038,-35.980911,0.0],[-71.127869,-35.980914,0.0],[-71.127838,-35.980919,0.0],[-71.127827,-35.980915,0.0],[-71.127705,-35.980917,0.0],[-71.127704,-35.980865,0.0],[-71.127547,-35.980801,0.0],[-71.127413,-35.980652,0.0],[-71.127366,-35.980652,0.0],[-71.127364,-35.980604,0.0],[-71.127084,-35.980491,0.0],[-71.126881,-35.980391,0.0],[-71.126361,-35.9804,0.0],[-71.126354,-35.98013,0.0],[-71.126021,-35.980135,0.0],[-71.126014,-35.979871,0.0],[-71.126002,-35.979865,0.0],[-71.125681,-35.979871,0.0],[-71.125677,-35.979701,0.0],[-71.125627,-35.979677,0.0],[-71.12523,-35.979644,0.0],[-71.125145,-35.97961,0.0],[-71.125009,-35.979613,0.0],[-71.125006,-35.979502,0.0],[-71.124914,-35.979344,0.0],[-71.124669,-35.979348,0.0],[-71.124663,-35.979107,0.0],[-71.124619,-35.979079,0.0],[-71.124329,-35.979084,0.0],[-71.124336,-35.979354,0.0],[-71.124004,-35.97936,0.0],[-71.123982,-35.978549,0.0],[-71.12365,-35.978555,0.0],[-71.123642,-35.978285,0.0],[-71.12331,-35.978291,0.0],[-71.123288,-35.97748,0.0],[-71.123787,-35.977471,0.0],[-71.123787,-35.97747,0.0],[-71.123813,-35.977245,0.0],[-71.123672,-35.977202,0.0],[-71.123113,-35.977212,0.0],[-71.123112,-35.977212,0.0],[-71.123085,-35.977405,0.0]],[[-71.124011,-35.97963,0.0],[-71.124026,-35.980171,0.0],[-71.123693,-35.980177,0.0],[-71.123679,-35.979636,0.0],[-71.124011,-35.97963,0.0]]]}},{"type":"Feature","properties":{"rgi_id":"RGI2000-v7.0-G-17-24519","o1region":"17"},"geometry":{"type":"Polygon","coordinates":[[[-71.129621,-35.977908,0.0],[-71.129626,-35.978115,0.0],[-71.129899,-35.978126,0.0],[-71.129898,-35.978174,0.0],[-71.129961,-35.978173,0.0],[-71.129964,-35.978281,0.0],[-71.130004,-35.978278,0.0],[-71.130008,-35.978704,0.0],[-71.130323,-35.978701,0.0],[-71.130328,-35.978707,0.0],[-71.13064,-35.978701,0.0],[-71.130646,-35.978907,0.0],[-71.130722,-35.9789,0.0],[-71.130725,-35.97897,0.0],[-71.131223,-35.978961,0.0],[-71.13123,-35.97871,0.0],[-71.131306,-35.978713,0.0],[-71.131305,-35.97869,0.0],[-71.131638,-35.978684,0.0],[-71.13164,-35.978778,0.0],[-71.13267,-35.978759,0.0],[-71.132684,-35.978889,0.0],[-71.133032,-35.97888,0.0],[-71.133035,-35.978929,0.0],[-71.133613,-35.978919,0.0],[-71.133594,-35.978736,0.0],[-71.133636,-35.978735,0.0],[-71.133633,-35.978648,0.0],[-71.133904,-35.978643,0.0],[-71.133883,-35.978373,0.0],[-71.133626,-35.978378,0.0],[-71.133619,-35.978108,0.0],[-71.132954,-35.978119,0.0],[-71.132953,-35.978102,0.0],[-71.132887,-35.978105,0.0],[-71.132865,-35.977994,0.0],[-71.132699,-35.977988,0.0],[-71.13268,-35.977908,0.0],[-71.132379,-35.977906,0.0],[-71.132354,-35.977741,0.0],[-71.132031,-35.977771,0.0],[-71.132039,-35.978208,0.0],[-71.130653,-35.978222,0.0],[-71.130639,-35.978161,0.0],[-71.130626,-35.978161,0.0],[-71.130625,-35.978144,0.0],[-71.130563,-35.978146,0.0],[-71.130541,-35.977955,0.0],[-71.130011,-35.977967,0.0],[-71.130015,-35.977706,0.0],[-71.130222,-35.977697,0.0],[-71.130207,-35.977424,0.0],[-71.129678,-35.977444,0.0],[-71.129674,-35.977703,0.0],[-71.12937,-35.977721,0.0],[-71.129366,-35.977913,0.0],[-71.129621,-35.977908,0.0]]]}},{"type":"Feature","properties":{"rgi_id":"RGI2000-v7.0-G-17-24520","o1region":"17"},"geometry":{"type":"Polygon","coordinates":[[[-71.133183,-35.976861,0.0],[-71.133175,-35.97698,0.0],[-71.133484,-35.976966,0.0],[-71.133495,-35.97726,0.0],[-71.133508,-35.977298,0.0],[-71.133597,-35.977297,0.0],[-71.133597,-35.977302,0.0],[-71.133848,-35.977298,0.0],[-71.133915,-35.977306,0.0],[-71.133909,-35.977562,0.0],[-71.133937,-35.977561,0.0],[-71.133947,-35.977961,0.0],[-71.13428,-35.977954,0.0],[-71.134276,-35.977825,0.0],[-71.134368,-35.977824,0.0],[-71.134365,-35.97776,0.0],[-71.135255,-35.97775,0.0],[-71.135255,-35.977808,0.0],[-71.135274,-35.977808,0.0],[-71.135275,-35.977846,0.0],[-71.135608,-35.977838,0.0],[-71.135608,-35.977838,0.0],[-71.13552,-35.977838,0.0],[-71.135528,-35.977743,0.0],[-71.135858,-35.977743,0.0],[-71.135858,-35.977797,0.0],[-71.136208,-35.977791,0.0],[-71.136174,-35.977586,0.0],[-71.135341,-35.977592,0.0],[-71.135342,-35.977536,0.0],[-71.135267,-35.977537,0.0],[-71.135265,-35.977458,0.0],[-71.134938,-35.977466,0.0],[-71.134928,-35.977346,0.0],[-71.134593,-35.977342,0.0],[-71.134583,-35.977266,0.0],[-71.134287,-35.977279,0.0],[-71.134281,-35.977077,0.0],[-71.134011,-35.977079,0.0],[-71.134011,-35.977019,0.0],[-71.133922,-35.97702,0.0],[-71.13392,-35.976952,0.0],[-71.13384,-35.976953,0.0],[-71.133824,-35.976814,0.0],[-71.133663,-35.976817,0.0],[-71.133663,-35.976755,0.0],[-71.132917,-35.976768,0.0],[-71.13292,-35.976855,0.0],[-71.133183,-35.976861,0.0]]]}},{"type":"Feature","properties":{"rgi_id":"RGI2000-v7.0-G-17-24521","o1region":"17"},"geometry":{"type":"Polygon","coordinates":[[[-71.138563,-35.976397,0.0],[-71.138533,-35.976398,0.0],[-71.138234,-35.976543,0.0],[-71.138238,-35.976673,0.0],[-71.138071,-35.976676,0.0],[-71.137909,-35.976832,0.0],[-71.137912,-35.976949,0.0],[-71.137785,-35.976952,0.0],[-71.137707,-35.977027,0.0],[-71.137586,-35.977195,0.0],[-71.137587,-35.977226,0.0],[-71.137564,-35.977226,0.0],[-71.137377,-35.977488,0.0],[-71.137269,-35.97775,0.0],[-71.137269,-35.977772,0.0],[-71.13726,-35.977772,0.0],[-71.137227,-35.977852,0.0],[-71.136987,-35.977876,0.0],[-71.136747,-35.978216,0.0],[-71.136717,-35.978531,0.0],[-71.136792,-35.978592,0.0],[-71.136959,-35.978589,0.0],[-71.136962,-35.978729,0.0],[-71.136987,-35.978749,0.0],[-71.137257,-35.979016,0.0],[-71.137137,-35.979283,0.0],[-71.137137,-35.979623,0.0],[-71.136687,-35.979768,0.0],[-71.136385,-35.979681,0.0],[-71.136323,-35.979682,0.0],[-71.136322,-35.979663,0.0],[-71.136267,-35.979647,0.0],[-71.136058,-35.979501,0.0],[-71.135698,-35.979501,0.0],[-71.135654,-35.979566,0.0],[-71.135658,-35.979694,0.0],[-71.135567,-35.979695,0.0],[-71.135518,-35.979768,0.0],[-71.135458,-35.980108,0.0],[-71.135428,-35.98069,0.0],[-71.135353,-35.980721,0.0],[-71.135354,-35.980781,0.0],[-71.135197,-35.980784,0.0],[-71.135188,-35.980787,0.0],[-71.135163,-35.980784,0.0],[-71.135022,-35.980787,0.0],[-71.135021,-35.980768,0.0],[-71.134978,-35.980763,0.0],[-71.134798,-35.980496,0.0],[-71.134712,-35.980251,0.0],[-71.134674,-35.980252,0.0],[-71.134672,-35.98015,0.0],[-71.134439,-35.979938,0.0],[-71.134049,-35.979793,0.0],[-71.133509,-35.979768,0.0],[-71.13294,-35.979768,0.0],[-71.132668,-35.979863,0.0],[-71.132672,-35.980017,0.0],[-71.132232,-35.980025,0.0],[-71.13183,-35.980181,0.0],[-71.131321,-35.980278,0.0],[-71.130871,-35.980399,0.0],[-71.130361,-35.980617,0.0],[-71.129882,-35.980666,0.0],[-71.129372,-35.980836,0.0],[-71.128982,-35.981006,0.0],[-71.128563,-35.9812,0.0],[-71.128413,-35.981612,0.0],[-71.128533,-35.981709,0.0],[-71.128443,-35.981879,0.0],[-71.128443,-35.982243,0.0],[-71.128593,-35.982558,0.0],[-71.128803,-35.982728,0.0],[-71.128623,-35.982946,0.0],[-71.128593,-35.983359,0.0],[-71.128563,-35.983723,0.0],[-71.128263,-35.983941,0.0],[-71.128083,-35.984353,0.0],[-71.128083,-35.984693,0.0],[-71.128113,-35.98513,0.0],[-71.128383,-35.985324,0.0],[-71.128443,-35.985421,0.0],[-71.128653,-35.985663,0.0],[-71.128922,-35.985954,0.0],[-71.129132,-35.986246,0.0],[-71.129442,-35.986565,0.0],[-71.129521,-35.986563,0.0],[-71.129522,-35.986606,0.0],[-71.129672,-35.986658,0.0],[-71.130242,-35.986755,0.0],[-71.130391,-35.986803,0.0],[-71.130409,-35.986818,0.0],[-71.130526,-35.986816,0.0],[-71.130528,-35.986914,0.0],[-71.130736,-35.987083,0.0],[-71.130866,-35.98708,0.0],[-71.130868,-35.987157,0.0],[-71.131201,-35.987337,0.0],[-71.13183,-35.98741,0.0],[-71.13222,-35.987774,0.0],[-71.13237,-35.98821,0.0],[-71.132483,-35.988404,0.0],[-71.132565,-35.988402,0.0],[-71.132569,-35.988552,0.0],[-71.13261,-35.988623,0.0],[-71.132802,-35.988668,0.0],[-71.132905,-35.988667,0.0],[-71.132906,-35.988693,0.0],[-71.13312,-35.988744,0.0],[-71.133415,-35.988928,0.0],[-71.133577,-35.988925,0.0],[-71.133581,-35.989048,0.0],[-71.133839,-35.989011,0.0],[-71.134079,-35.989351,0.0],[-71.134439,-35.989472,0.0],[-71.134409,-35.989739,0.0],[-71.134169,-35.990006,0.0],[-71.133809,-35.990127,0.0],[-71.133449,-35.990345,0.0],[-71.133389,-35.990588,0.0],[-71.13318,-35.990782,0.0],[-71.13318,-35.991146,0.0],[-71.13309,-35.991315,0.0],[-71.13285,-35.991509,0.0],[-71.13264,-35.991679,0.0],[-71.13231,-35.991752,0.0],[-71.13219,-35.992043,0.0],[-71.13219,-35.992431,0.0],[-71.13219,-35.992722,0.0],[-71.13246,-35.992965,0.0],[-71.13267,-35.992916,0.0],[-71.13297,-35.992674,0.0],[-71.133299,-35.992431,0.0],[-71.133329,-35.992213,0.0],[-71.13321,-35.992092,0.0],[-71.133419,-35.991776,0.0],[-71.133809,-35.991582,0.0],[-71.133869,-35.991582,0.0],[-71.134109,-35.991631,0.0],[-71.134199,-35.991485,0.0],[-71.134199,-35.99134,0.0],[-71.134139,-35.991121,0.0],[-71.134019,-35.990952,0.0],[-71.133929,-35.99083,0.0],[-71.134049,-35.990709,0.0],[-71.134349,-35.990563,0.0],[-71.134529,-35.990394,0.0],[-71.134649,-35.990054,0.0],[-71.134948,-35.989908,0.0],[-71.135158,-35.989811,0.0],[-71.135548,-35.98969,0.0],[-71.135878,-35.989545,0.0],[-71.136148,-35.989617,0.0],[-71.136297,-35.98969,0.0],[-71.136417,-35.989884,0.0],[-71.136627,-35.99003,0.0],[-71.136897,-35.990054,0.0],[-71.137107,-35.989908,0.0],[-71.137317,-35.989714,0.0],[-71.137467,-35.989472,0.0],[-71.137579,-35.989236,0.0],[-71.137576,-35.989124,0.0],[-71.137617,-35.989124,0.0],[-71.137617,-35.988914,0.0],[-71.137437,-35.988793,0.0],[-71.137107,-35.988599,0.0],[-71.136897,-35.988477,0.0],[-71.136867,-35.98821,0.0],[-71.136897,-35.987992,0.0],[-71.136927,-35.98775,0.0],[-71.137017,-35.987361,0.0],[-71.136927,-35.987022,0.0],[-71.136927,-35.986658,0.0],[-71.136867,-35.986512,0.0],[-71.136897,-35.986318,0.0],[-71.137107,-35.986027,0.0],[-71.137182,-35.985886,0.0],[-71.137155,-35.985887,0.0],[-71.137148,-35.985616,0.0],[-71.13744,-35.985611,0.0],[-71.137677,-35.985494,0.0],[-71.138096,-35.985275,0.0],[-71.138126,-35.98496,0.0],[-71.137826,-35.984693,0.0],[-71.137527,-35.984499,0.0],[-71.1375,-35.984258,0.0],[-71.137444,-35.984259,0.0],[-71.137437,-35.983989,0.0],[-71.13762,-35.983986,0.0],[-71.137765,-35.98381,0.0],[-71.137762,-35.983713,0.0],[-71.137846,-35.983711,0.0],[-71.137856,-35.983698,0.0],[-71.137799,-35.983442,0.0],[-71.137755,-35.983442,0.0],[-71.137748,-35.983172,0.0],[-71.137865,-35.98317,0.0],[-71.137916,-35.982971,0.0],[-71.138366,-35.982582,0.0],[-71.138546,-35.982291,0.0],[-71.138936,-35.981661,0.0],[-71.139026,-35.981175,0.0],[-71.138996,-35.980642,0.0],[-71.138816,-35.980423,0.0],[-71.138636,-35.980132,0.0],[-71.138636,-35.979768,0.0],[-71.138654,-35.979763,0.0],[-71.13865,-35.97964,0.0],[-71.138983,-35.979635,0.0],[-71.138985,-35.979721,0.0],[-71.139086,-35.979744,0.0],[-71.139215,-35.979901,0.0],[-71.139323,-35.979899,0.0],[-71.139327,-35.980035,0.0],[-71.139715,-35.980059,0.0],[-71.139975,-35.979887,0.0],[-71.139655,-35.979893,0.0],[-71.139641,-35.979352,0.0],[-71.139973,-35.979346,0.0],[-71.139988,-35.979879,0.0],[-71.140045,-35.979841,0.0],[-71.140165,-35.979429,0.0],[-71.140055,-35.979075,0.0],[-71.139966,-35.979076,0.0],[-71.139963,-35.97897,0.0],[-71.139595,-35.978652,0.0],[-71.139235,-35.978628,0.0],[-71.138786,-35.978652,0.0],[-71.138906,-35.978507,0.0],[-71.139116,-35.97824,0.0],[-71.139275,-35.978146,0.0],[-71.139272,-35.978007,0.0],[-71.139534,-35.978002,0.0],[-71.139932,-35.977805,0.0],[-71.13993,-35.977725,0.0],[-71.140148,-35.977721,0.0],[-71.140261,-35.977681,0.0],[-71.140255,-35.977448,0.0],[-71.140502,-35.977444,0.0],[-71.140525,-35.977415,0.0],[-71.140465,-35.976978,0.0],[-71.140365,-35.976906,0.0],[-71.14024,-35.976908,0.0],[-71.140238,-35.976813,0.0],[-71.140165,-35.97676,0.0],[-71.139909,-35.976643,0.0],[-71.1399,-35.976644,0.0],[-71.1399,-35.976639,0.0],[-71.139685,-35.976542,0.0],[-71.139349,-35.976383,0.0],[-71.139228,-35.976385,0.0],[-71.139227,-35.976352,0.0],[-71.138966,-35.976299,0.0],[-71.138636,-35.976348,0.0],[-71.138563,-35.976383,0.0],[-71.138563,-35.976397,0.0]],[[-71.138318,-35.979646,0.0],[-71.137985,-35.979652,0.0],[-71.137978,-35.979382,0.0],[-71.138311,-35.979376,0.0],[-71.138318,-35.979646,0.0]],[[-71.138376,-35.981809,0.0],[-71.138384,-35.982079,0.0],[-71.138051,-35.982085,0.0],[-71.138044,-35.981815,0.0],[-71.138376,-35.981809,0.0]],[[-71.137711,-35.981821,0.0],[-71.137689,-35.98101,0.0],[-71.138022,-35.981004,0.0],[-71.138044,-35.981815,0.0],[-71.137711,-35.981821,0.0]],[[-71.136388,-35.982115,0.0],[-71.136056,-35.98212,0.0],[-71.136048,-35.98185,0.0],[-71.136381,-35.981844,0.0],[-71.136388,-35.982115,0.0]],[[-71.13034,-35.983375,0.0],[-71.130439,-35.983572,0.0],[-71.130626,-35.983696,0.0],[-71.130778,-35.983837,0.0],[-71.131097,-35.983937,0.0],[-71.131451,-35.984095,0.0],[-71.131458,-35.984366,0.0],[-71.130898,-35.984489,0.0],[-71.130539,-35.984358,0.0],[-71.130453,-35.984113,0.0],[-71.129956,-35.984007,0.0],[-71.12977,-35.983596,0.0],[-71.129163,-35.983345,0.0],[-71.129039,-35.983114,0.0],[-71.129262,-35.983024,0.0],[-71.130099,-35.983308,0.0],[-71.13034,-35.983375,0.0]],[[-71.136187,-35.986986,0.0],[-71.135854,-35.986992,0.0],[-71.13584,-35.986451,0.0],[-71.136172,-35.986445,0.0],[-71.136187,-35.986986,0.0]],[[-71.136867,-35.987514,0.0],[-71.136534,-35.98752,0.0],[-71.136527,-35.98725,0.0],[-71.136859,-35.987244,0.0],[-71.136867,-35.987514,0.0]]]}},{"type":"Feature","properties":{"rgi_id":"RGI2000-v7.0-G-17-24522","o1region":"17"},"geometry":{"type":"Polygon","coordinates":[[[-71.142037,-35.972522,0.0],[-71.14204,-35.972798,0.0],[-71.142137,-35.972798,0.0],[-71.142162,-35.973092,0.0],[-71.142406,-35.973092,0.0],[-71.142434,-35.973302,0.0],[-71.142691,-35.973304,0.0],[-71.142694,-35.973578,0.0],[-71.142782,-35.973581,0.0],[-71.142785,-35.973971,0.0],[-71.142882,-35.973968,0.0],[-71.142879,-35.974289,0.0],[-71.143372,-35.974284,0.0],[-71.143373,-35.974211,0.0],[-71.143494,-35.974206,0.0],[-71.143492,-35.974146,0.0],[-71.14356,-35.974144,0.0],[-71.143564,-35.974092,0.0],[-71.143755,-35.97409,0.0],[-71.143758,-35.973935,0.0],[-71.143918,-35.973922,0.0],[-71.14391,-35.973597,0.0],[-71.14381,-35.973599,0.0],[-71.143804,-35.973376,0.0],[-71.143802,-35.973373,0.0],[-71.143498,-35.973383,0.0],[-71.143495,-35.973334,0.0],[-71.14347,-35.973335,0.0],[-71.143468,-35.973254,0.0],[-71.14317,-35.973264,0.0],[-71.143154,-35.973082,0.0],[-71.143092,-35.973087,0.0],[-71.143088,-35.972869,0.0],[-71.142844,-35.972876,0.0],[-71.142843,-35.972805,0.0],[-71.142791,-35.972806,0.0],[-71.142789,-35.972726,0.0],[-71.142569,-35.972745,0.0],[-71.142572,-35.972605,0.0],[-71.1423,-35.972608,0.0],[-71.142307,-35.972544,0.0],[-71.142118,-35.972548,0.0],[-71.142118,-35.972522,0.0],[-71.142037,-35.972522,0.0]]]}},{"type":"Feature","properties":{"rgi_id":"RGI2000-v7.0-G-17-24523","o1region":"17"},"geometry":{"type":"Polygon","coordinates":[[[-71.148759,-35.97985,0.0],[-71.148702,-35.97995,0.0],[-71.147866,-35.979942,0.0],[-71.147866,-35.980442,0.0],[-71.148179,-35.980442,0.0],[-71.148189,-35.980735,0.0],[-71.147856,-35.980735,0.0],[-71.147866,-35.980635,0.0],[-71.147162,-35.980627,0.0],[-71.147162,-35.980858,0.0],[-71.147048,-35.980866,0.0],[-71.147048,-35.981535,0.0],[-71.147552,-35.981543,0.0],[-71.148103,-35.981543,0.0],[-71.148122,-35.98132,0.0],[-71.148693,-35.98132,0.0],[-71.150404,-35.981304,0.0],[-71.150575,-35.981296,0.0],[-71.150556,-35.981573,0.0],[-71.15106,-35.981573,0.0],[-71.151184,-35.981535,0.0],[-71.151127,-35.981089,0.0],[-71.151127,-35.981027,0.0],[-71.150936,-35.981027,0.0],[-71.150946,-35.980789,0.0],[-71.150898,-35.980712,0.0],[-71.150661,-35.980712,0.0],[-71.150642,-35.980442,0.0],[-71.150357,-35.980458,0.0],[-71.150357,-35.98025,0.0],[-71.150613,-35.980227,0.0],[-71.150585,-35.979796,0.0],[-71.150585,-35.979565,0.0],[-71.150195,-35.979589,0.0],[-71.150185,-35.980004,0.0],[-71.149586,-35.980035,0.0],[-71.149586,-35.979712,0.0],[-71.149548,-35.979481,0.0],[-71.148766,-35.979474,0.0],[-71.148759,-35.97985,0.0]]]}},{"type":"Feature","properties":{"rgi_id":"RGI2000-v7.0-G-17-24524","o1region":"17"},"geometry":{"type":"Polygon","coordinates":[[[-71.156604,-35.976126,0.0],[-71.15658,-35.976274,0.0],[-71.156453,-35.976261,0.0],[-71.156437,-35.976409,0.0],[-71.156278,-35.976416,0.0],[-71.156286,-35.976795,0.0],[-71.15658,-35.976821,0.0],[-71.15658,-35.977065,0.0],[-71.156294,-35.977078,0.0],[-71.156286,-35.977374,0.0],[-71.156294,-35.977644,0.0],[-71.15581,-35.977631,0.0],[-71.155794,-35.977219,0.0],[-71.155674,-35.977219,0.0],[-71.155659,-35.976969,0.0],[-71.15523,-35.976994,0.0],[-71.155237,-35.977657,0.0],[-71.155007,-35.977669,0.0],[-71.155007,-35.977939,0.0],[-71.15523,-35.977939,0.0],[-71.155237,-35.978216,0.0],[-71.155603,-35.978216,0.0],[-71.155635,-35.979058,0.0],[-71.155961,-35.979039,0.0],[-71.155984,-35.979393,0.0],[-71.156437,-35.979405,0.0],[-71.156421,-35.97918,0.0],[-71.156787,-35.979187,0.0],[-71.156835,-35.979251,0.0],[-71.15747,-35.979245,0.0],[-71.15755,-35.979245,0.0],[-71.15753,-35.978904,0.0],[-71.157391,-35.978904,0.0],[-71.157367,-35.978692,0.0],[-71.157216,-35.978685,0.0],[-71.157176,-35.978589,0.0],[-71.15689,-35.978589,0.0],[-71.156882,-35.978094,0.0],[-71.156866,-35.977927,0.0],[-71.157152,-35.97792,0.0],[-71.157144,-35.977618,0.0],[-71.156978,-35.977612,0.0],[-71.157001,-35.977496,0.0],[-71.156858,-35.977477,0.0],[-71.156842,-35.977386,0.0],[-71.156715,-35.977386,0.0],[-71.156707,-35.97711,0.0],[-71.157136,-35.977091,0.0],[-71.157129,-35.976821,0.0],[-71.156835,-35.976808,0.0],[-71.156819,-35.976448,0.0],[-71.157089,-35.976422,0.0],[-71.157105,-35.976293,0.0],[-71.157613,-35.976287,0.0],[-71.157589,-35.9761,0.0],[-71.156604,-35.976126,0.0]]]}},{"type":"Feature","properties":{"rgi_id":"RGI2000-v7.0-G-17-24525","o1region":"17"},"geometry":{"type":"Polygon","coordinates":[[[-71.149128,-35.957614,0.0],[-71.149118,-35.957963,0.0],[-71.149118,-35.957965,0.0],[-71.149181,-35.958066,0.0],[-71.149288,-35.958064,0.0],[-71.149269,-35.9582,0.0],[-71.149456,-35.958196,0.0],[-71.149484,-35.958927,0.0],[-71.149643,-35.95895,0.0],[-71.149643,-35.959186,0.0],[-71.149735,-35.959285,0.0],[-71.149839,-35.959477,0.0],[-71.149924,-35.959569,0.0],[-71.15016,-35.959704,0.0],[-71.150509,-35.959711,0.0],[-71.150509,-35.959764,0.0],[-71.150752,-35.959775,0.0],[-71.150747,-35.959881,0.0],[-71.150827,-35.959889,0.0],[-71.150844,-35.960035,0.0],[-71.150856,-35.960043,0.0],[-71.151014,-35.960033,0.0],[-71.151003,-35.960151,0.0],[-71.151048,-35.960189,0.0],[-71.151168,-35.960184,0.0],[-71.151168,-35.960287,0.0],[-71.151227,-35.960321,0.0],[-71.151365,-35.960324,0.0],[-71.151365,-35.960402,0.0],[-71.151384,-35.960413,0.0],[-71.151498,-35.960536,0.0],[-71.151649,-35.960585,0.0],[-71.151865,-35.9606,0.0],[-71.151872,-35.960641,0.0],[-71.152048,-35.960666,0.0],[-71.152119,-35.960681,0.0],[-71.152696,-35.960683,0.0],[-71.152694,-35.960538,0.0],[-71.15253,-35.960536,0.0],[-71.15253,-35.960439,0.0],[-71.152454,-35.960403,0.0],[-71.152221,-35.960388,0.0],[-71.152232,-35.960273,0.0],[-71.152187,-35.960246,0.0],[-71.152043,-35.960248,0.0],[-71.152038,-35.960146,0.0],[-71.151842,-35.960135,0.0],[-71.151833,-35.960002,0.0],[-71.151674,-35.959995,0.0],[-71.151669,-35.959911,0.0],[-71.151444,-35.959892,0.0],[-71.151435,-35.959794,0.0],[-71.151337,-35.959794,0.0],[-71.151332,-35.95976,0.0],[-71.151037,-35.959756,0.0],[-71.151028,-35.959635,0.0],[-71.150682,-35.959627,0.0],[-71.150677,-35.959408,0.0],[-71.150495,-35.959393,0.0],[-71.150499,-35.9592,0.0],[-71.150298,-35.959211,0.0],[-71.150294,-35.95915,0.0],[-71.150158,-35.959139,0.0],[-71.150149,-35.959056,0.0],[-71.149999,-35.959059,0.0],[-71.149978,-35.958366,0.0],[-71.149939,-35.958284,0.0],[-71.149718,-35.958264,0.0],[-71.149718,-35.958158,0.0],[-71.149716,-35.958157,0.0],[-71.149704,-35.958045,0.0],[-71.149629,-35.958048,0.0],[-71.149611,-35.957666,0.0],[-71.149452,-35.95767,0.0],[-71.149447,-35.957621,0.0],[-71.149128,-35.957614,0.0]]]}}]}
