{"type":"FeatureCollection","features":[{"type":"Feature","properties":{"rgi_id":"RGI2000-v7.0-G-13-53380","o1region":"13"},"geometry":{"type":"Polygon","coordinates":[[[97.04577,35.816559,0.0],[97.044625,35.816701,0.0],[97.043861,35.817362,0.0],[97.042781,35.817532,0.0],[97.042781,35.817945,0.0],[97.042862,35.817987,0.0],[97.043433,35.818765,0.0],[97.044205,35.819419,0.0],[97.045137,35.819915,0.0],[97.046273,35.820126,0.0],[97.047413,35.820176,0.0],[97.0482,35.820189,0.0],[97.048254,35.819581,0.0],[97.048343,35.819166,0.0],[97.049057,35.818953,0.0],[97.04946,35.818575,0.0],[97.048486,35.818174,0.0],[97.048318,35.818039,0.0],[97.048324,35.817784,0.0],[97.048206,35.817475,0.0],[97.047895,35.817368,0.0],[97.047522,35.81726,0.0],[97.047149,35.817152,0.0],[97.046838,35.817045,0.0],[97.046562,35.817008,0.0],[97.04577,35.816559,0.0]]]}},{"type":"Feature","properties":{"rgi_id":"RGI2000-v7.0-G-13-53381","o1region":"13"},"geometry":{"type":"Polygon","coordinates":[[[97.048435,35.795324,0.0],[97.048118,35.795472,0.0],[97.047924,35.795724,0.0],[97.047792,35.795977,0.0],[97.047536,35.796228,0.0],[97.047403,35.796532,0.0],[97.047395,35.796839,0.0],[97.047392,35.796983,0.0],[97.047222,35.797156,0.0],[97.047246,35.797179,0.0],[97.047136,35.797192,0.0],[97.046755,35.79739,0.0],[97.046436,35.79764,0.0],[97.046491,35.797947,0.0],[97.046546,35.798254,0.0],[97.04679,35.798513,0.0],[97.047166,35.798519,0.0],[97.047482,35.798422,0.0],[97.047799,35.798274,0.0],[97.048115,35.798178,0.0],[97.04843,35.798081,0.0],[97.04866,35.798022,0.0],[97.048793,35.798077,0.0],[97.049446,35.798333,0.0],[97.04988,35.798542,0.0],[97.050119,35.798881,0.0],[97.050357,35.799266,0.0],[97.050738,35.799384,0.0],[97.051177,35.799413,0.0],[97.051703,35.799243,0.0],[97.051898,35.799134,0.0],[97.052065,35.799047,0.0],[97.052234,35.798871,0.0],[97.052434,35.798539,0.0],[97.052442,35.798248,0.0],[97.052453,35.797778,0.0],[97.05246,35.797487,0.0],[97.052361,35.79706,0.0],[97.052284,35.796813,0.0],[97.052124,35.796632,0.0],[97.051772,35.796402,0.0],[97.05142,35.796217,0.0],[97.050984,35.796054,0.0],[97.050904,35.795985,0.0],[97.050604,35.795891,0.0],[97.050275,35.795863,0.0],[97.050059,35.795885,0.0],[97.049947,35.795857,0.0],[97.049895,35.796013,0.0],[97.049889,35.796285,0.0],[97.049966,35.796558,0.0],[97.050042,35.796832,0.0],[97.050036,35.797104,0.0],[97.049703,35.79703,0.0],[97.049458,35.796822,0.0],[97.049212,35.796614,0.0],[97.048967,35.796406,0.0],[97.04889,35.796132,0.0],[97.048731,35.795789,0.0],[97.048571,35.795515,0.0],[97.048537,35.795393,0.0],[97.048435,35.795324,0.0]]]}},{"type":"Feature","properties":{"rgi_id":"RGI2000-v7.0-G-13-53382","o1region":"13"},"geometry":{"type":"Polygon","coordinates":[[[97.088465,35.779741,0.0],[97.088465,35.779705,0.0],[97.088586,35.779429,0.0],[97.088592,35.779151,0.0],[97.088599,35.778873,0.0],[97.088549,35.778594,0.0],[97.088327,35.778359,0.0],[97.08799,35.778215,0.0],[97.087813,35.77849,0.0],[97.087806,35.778768,0.0],[97.087799,35.779046,0.0],[97.087793,35.779323,0.0],[97.087787,35.779569,0.0],[97.087325,35.779343,0.0],[97.087173,35.779082,0.0],[97.087066,35.778802,0.0],[97.08673,35.778612,0.0],[97.086389,35.778606,0.0],[97.086048,35.778601,0.0],[97.085705,35.778688,0.0],[97.085362,35.778775,0.0],[97.085336,35.778792,0.0],[97.085265,35.778784,0.0],[97.085309,35.778589,0.0],[97.085373,35.778312,0.0],[97.085436,35.778035,0.0],[97.085386,35.777757,0.0],[97.085279,35.777477,0.0],[97.085057,35.777242,0.0],[97.084714,35.777329,0.0],[97.084537,35.777604,0.0],[97.08436,35.777879,0.0],[97.08424,35.778155,0.0],[97.084176,35.778432,0.0],[97.083998,35.778754,0.0],[97.08382,35.779075,0.0],[97.0837,35.779351,0.0],[97.083578,35.779673,0.0],[97.083515,35.77995,0.0],[97.083514,35.779984,0.0],[97.083482,35.78003,0.0],[97.083255,35.780916,0.0],[97.083262,35.78183,0.0],[97.083624,35.782725,0.0],[97.083641,35.782759,0.0],[97.083733,35.782686,0.0],[97.084077,35.782553,0.0],[97.084367,35.782326,0.0],[97.08471,35.782239,0.0],[97.085052,35.782198,0.0],[97.085274,35.782433,0.0],[97.085381,35.782712,0.0],[97.085525,35.782958,0.0],[97.085565,35.782997,0.0],[97.085594,35.782997,0.0],[97.086718,35.782895,0.0],[97.087731,35.782478,0.0],[97.088456,35.781792,0.0],[97.089325,35.781205,0.0],[97.089949,35.780917,0.0],[97.089974,35.780794,0.0],[97.090078,35.780632,0.0],[97.090151,35.780519,0.0],[97.090158,35.780241,0.0],[97.089936,35.780006,0.0],[97.089829,35.779726,0.0],[97.089722,35.779447,0.0],[97.089383,35.779349,0.0],[97.089093,35.779622,0.0],[97.088908,35.779767,0.0],[97.088465,35.779741,0.0]]]}},{"type":"Feature","properties":{"rgi_id":"RGI2000-v7.0-G-13-53383","o1region":"13"},"geometry":{"type":"Polygon","coordinates":[[[97.239469,35.729317,0.0],[97.239471,35.729261,0.0],[97.239545,35.728983,0.0],[97.239688,35.728706,0.0],[97.239831,35.728429,0.0],[97.239906,35.728151,0.0],[97.239912,35.727872,0.0],[97.239781,35.72759,0.0],[97.239719,35.72731,0.0],[97.239657,35.72703,0.0],[97.239388,35.726803,0.0],[97.239044,35.726854,0.0],[97.238834,35.727074,0.0],[97.23876,35.727352,0.0],[97.238616,35.727629,0.0],[97.238339,35.727793,0.0],[97.238129,35.728013,0.0],[97.238123,35.728292,0.0],[97.238184,35.728628,0.0],[97.238246,35.728908,0.0],[97.238446,35.729134,0.0],[97.238507,35.72947,0.0],[97.238708,35.729696,0.0],[97.239469,35.729317,0.0]]]}},{"type":"Feature","properties":{"rgi_id":"RGI2000-v7.0-G-13-53384","o1region":"13"},"geometry":{"type":"Polygon","coordinates":[[[97.328546,35.682008,0.0],[97.328508,35.682007,0.0],[97.328348,35.682288,0.0],[97.328075,35.682473,0.0],[97.327764,35.682594,0.0],[97.327416,35.682652,0.0],[97.327334,35.682933,0.0],[97.327289,35.683215,0.0],[97.327555,35.683408,0.0],[97.327904,35.683255,0.0],[97.328216,35.683071,0.0],[97.328527,35.68295,0.0],[97.328837,35.682829,0.0],[97.328688,35.682575,0.0],[97.328848,35.682295,0.0],[97.328546,35.682008,0.0]]]}},{"type":"Feature","properties":{"rgi_id":"RGI2000-v7.0-G-13-53385","o1region":"13"},"geometry":{"type":"Polygon","coordinates":[[[97.57374,35.715065,0.0],[97.573875,35.715067,0.0],[97.57402,35.714907,0.0],[97.574182,35.714651,0.0],[97.574267,35.714361,0.0],[97.57439,35.714105,0.0],[97.574576,35.713957,0.0],[97.574447,35.713534,0.0],[97.573967,35.713231,0.0],[97.573894,35.713066,0.0],[97.573879,35.713049,0.0],[97.573773,35.712924,0.0],[97.5737,35.712838,0.0],[97.573386,35.712737,0.0],[97.573029,35.712765,0.0],[97.572671,35.712858,0.0],[97.572547,35.713147,0.0],[97.572384,35.713403,0.0],[97.572105,35.713561,0.0],[97.571786,35.713654,0.0],[97.571742,35.713944,0.0],[97.571776,35.714235,0.0],[97.572049,35.714432,0.0],[97.572176,35.714809,0.0],[97.57224,35.714821,0.0],[97.572596,35.714858,0.0],[97.57299,35.714959,0.0],[97.573385,35.714996,0.0],[97.57374,35.715065,0.0]]]}},{"type":"Feature","properties":{"rgi_id":"RGI2000-v7.0-G-13-53386","o1region":"13"},"geometry":{"type":"Polygon","coordinates":[[[97.634509,35.720412,0.0],[97.634452,35.721343,0.0],[97.634395,35.722273,0.0],[97.634543,35.723173,0.0],[97.634638,35.723262,0.0],[97.634869,35.723828,0.0],[97.635766,35.724361,0.0],[97.636776,35.724788,0.0],[97.63757,35.725137,0.0],[97.638222,35.725144,0.0],[97.638748,35.724796,0.0],[97.639212,35.72449,0.0],[97.639964,35.724206,0.0],[97.639965,35.724158,0.0],[97.640158,35.723854,0.0],[97.640288,35.7236,0.0],[97.640604,35.723399,0.0],[97.640858,35.723198,0.0],[97.640926,35.722892,0.0],[97.641055,35.722638,0.0],[97.641247,35.722385,0.0],[97.641439,35.722132,0.0],[97.641507,35.721827,0.0],[97.64145,35.72152,0.0],[97.641266,35.721262,0.0],[97.640893,35.721105,0.0],[97.640773,35.720848,0.0],[97.640773,35.720797,0.0],[97.640653,35.720541,0.0],[97.640595,35.720234,0.0],[97.640725,35.71998,0.0],[97.640917,35.719727,0.0],[97.641038,35.719489,0.0],[97.641114,35.719167,0.0],[97.640993,35.718911,0.0],[97.640618,35.718907,0.0],[97.640242,35.718902,0.0],[97.640182,35.718982,0.0],[97.64005,35.719155,0.0],[97.639858,35.719409,0.0],[97.639543,35.719507,0.0],[97.639169,35.719452,0.0],[97.638858,35.719295,0.0],[97.638741,35.719236,0.0],[97.638548,35.719138,0.0],[97.638173,35.719083,0.0],[97.637798,35.719079,0.0],[97.637423,35.719024,0.0],[97.637046,35.71907,0.0],[97.636732,35.719169,0.0],[97.636638,35.719262,0.0],[97.636602,35.719423,0.0],[97.636534,35.719728,0.0],[97.636405,35.719982,0.0],[97.636151,35.720183,0.0],[97.635712,35.720229,0.0],[97.635336,35.720225,0.0],[97.635025,35.72012,0.0],[97.634791,35.720001,0.0],[97.634509,35.720412,0.0]]]}},{"type":"Feature","properties":{"rgi_id":"RGI2000-v7.0-G-13-53387","o1region":"13"},"geometry":{"type":"Polygon","coordinates":[[[97.645613,35.724838,0.0],[97.645488,35.724824,0.0],[97.645431,35.724516,0.0],[97.645374,35.724209,0.0],[97.645062,35.724103,0.0],[97.644808,35.724355,0.0],[97.644678,35.724609,0.0],[97.644486,35.724862,0.0],[97.644354,35.725269,0.0],[97.644289,35.725563,0.0],[97.643727,35.725811,0.0],[97.643085,35.726574,0.0],[97.6426,35.727402,0.0],[97.642549,35.728074,0.0],[97.642588,35.728075,0.0],[97.643729,35.728023,0.0],[97.644834,35.727811,0.0],[97.645436,35.727049,0.0],[97.645294,35.72615,0.0],[97.645217,35.726046,0.0],[97.645348,35.72574,0.0],[97.645378,35.725602,0.0],[97.645507,35.725589,0.0],[97.645648,35.72559,0.0],[97.645605,35.725322,0.0],[97.64561,35.725015,0.0],[97.645613,35.724838,0.0]]]}},{"type":"Feature","properties":{"rgi_id":"RGI2000-v7.0-G-13-53388","o1region":"13"},"geometry":{"type":"Polygon","coordinates":[[[97.650347,35.727132,0.0],[97.650582,35.726927,0.0],[97.650541,35.726449,0.0],[97.650605,35.726012,0.0],[97.650477,35.72601,0.0],[97.650481,35.725798,0.0],[97.650486,35.725491,0.0],[97.650302,35.725234,0.0],[97.649928,35.725179,0.0],[97.649891,35.725062,0.0],[97.649895,35.724776,0.0],[97.6499,35.724489,0.0],[97.649905,35.724202,0.0],[97.649769,35.723914,0.0],[97.649562,35.723682,0.0],[97.649212,35.723563,0.0],[97.648997,35.72379,0.0],[97.648852,35.724075,0.0],[97.648498,35.724186,0.0],[97.648214,35.724355,0.0],[97.647861,35.724409,0.0],[97.647508,35.724519,0.0],[97.647155,35.724573,0.0],[97.646732,35.724625,0.0],[97.646447,35.724794,0.0],[97.646445,35.724948,0.0],[97.646269,35.724946,0.0],[97.646201,35.724953,0.0],[97.646175,35.724945,0.0],[97.645848,35.724865,0.0],[97.645613,35.724838,0.0],[97.64561,35.725015,0.0],[97.645605,35.725322,0.0],[97.645648,35.72559,0.0],[97.645683,35.725591,0.0],[97.645927,35.725708,0.0],[97.646162,35.725732,0.0],[97.646159,35.725902,0.0],[97.64628,35.726159,0.0],[97.646655,35.726163,0.0],[97.647029,35.726269,0.0],[97.647467,35.726274,0.0],[97.647707,35.726356,0.0],[97.647688,35.726407,0.0],[97.647626,35.726576,0.0],[97.647586,35.726684,0.0],[97.64758,35.72699,0.0],[97.647638,35.727297,0.0],[97.647821,35.727555,0.0],[97.648132,35.727711,0.0],[97.648443,35.727817,0.0],[97.64882,35.72777,0.0],[97.649135,35.72762,0.0],[97.649196,35.727501,0.0],[97.650023,35.727487,0.0],[97.650087,35.727359,0.0],[97.650347,35.727132,0.0]]]}},{"type":"Feature","properties":{"rgi_id":"RGI2000-v7.0-G-13-53389","o1region":"13"},"geometry":{"type":"Polygon","coordinates":[[[97.650605,35.726012,0.0],[97.650541,35.726449,0.0],[97.650582,35.726927,0.0],[97.650347,35.727132,0.0],[97.650517,35.727881,0.0],[97.650803,35.728282,0.0],[97.651143,35.728763,0.0],[97.651381,35.728911,0.0],[97.651692,35.729107,0.0],[97.652313,35.729088,0.0],[97.652803,35.728344,0.0],[97.653153,35.727791,0.0],[97.65321,35.727314,0.0],[97.652976,35.726755,0.0],[97.652713,35.725963,0.0],[97.652689,35.725944,0.0],[97.65265,35.725944,0.0],[97.652416,35.725919,0.0],[97.652485,35.725608,0.0],[97.65249,35.725321,0.0],[97.652424,35.725033,0.0],[97.652146,35.724858,0.0],[97.651891,35.724751,0.0],[97.651939,35.724569,0.0],[97.651944,35.724282,0.0],[97.652019,35.723996,0.0],[97.652165,35.723711,0.0],[97.65217,35.723424,0.0],[97.652175,35.723137,0.0],[97.651824,35.723076,0.0],[97.65147,35.723187,0.0],[97.65138,35.72323,0.0],[97.651115,35.723355,0.0],[97.650926,35.723414,0.0],[97.650941,35.723582,0.0],[97.650983,35.72385,0.0],[97.651026,35.724119,0.0],[97.650974,35.724386,0.0],[97.650876,35.724653,0.0],[97.650824,35.724921,0.0],[97.650819,35.725227,0.0],[97.650862,35.725496,0.0],[97.650856,35.725802,0.0],[97.650885,35.726015,0.0],[97.650605,35.726012,0.0]]]}},{"type":"Feature","properties":{"rgi_id":"RGI2000-v7.0-G-13-53390","o1region":"13"},"geometry":{"type":"Polygon","coordinates":[[[97.641258,35.734875,0.0],[97.641432,35.733715,0.0],[97.641283,35.73343,0.0],[97.641172,35.733146,0.0],[97.641061,35.732862,0.0],[97.640951,35.732579,0.0],[97.64084,35.732295,0.0],[97.64069,35.732042,0.0],[97.640344,35.732006,0.0],[97.639996,35.732065,0.0],[97.639571,35.732155,0.0],[97.639413,35.732404,0.0],[97.639408,35.732687,0.0],[97.639635,35.732909,0.0],[97.639823,35.733163,0.0],[97.639973,35.733416,0.0],[97.640084,35.733699,0.0],[97.640194,35.734015,0.0],[97.64046,35.734238,0.0],[97.640726,35.734429,0.0],[97.640993,35.734621,0.0],[97.64122,35.734843,0.0],[97.641258,35.734875,0.0]]]}},{"type":"Feature","properties":{"rgi_id":"RGI2000-v7.0-G-13-53391","o1region":"13"},"geometry":{"type":"Polygon","coordinates":[[[97.634712,35.739229,0.0],[97.634674,35.739229,0.0],[97.634407,35.739037,0.0],[97.634219,35.738784,0.0],[97.634069,35.738531,0.0],[97.633842,35.738309,0.0],[97.633496,35.738273,0.0],[97.633337,35.738523,0.0],[97.633332,35.738837,0.0],[97.633366,35.73912,0.0],[97.633399,35.739403,0.0],[97.633395,35.739685,0.0],[97.633661,35.739877,0.0],[97.634047,35.739818,0.0],[97.63432,35.739633,0.0],[97.634712,35.739229,0.0]]]}},{"type":"Feature","properties":{"rgi_id":"RGI2000-v7.0-G-13-53392","o1region":"13"},"geometry":{"type":"Polygon","coordinates":[[[97.639162,35.740348,0.0],[97.639123,35.740347,0.0],[97.638857,35.740156,0.0],[97.638552,35.739995,0.0],[97.638205,35.739991,0.0],[97.638085,35.740273,0.0],[97.63808,35.740555,0.0],[97.63819,35.740839,0.0],[97.638301,35.741123,0.0],[97.638412,35.741407,0.0],[97.638523,35.741691,0.0],[97.638633,35.741975,0.0],[97.638744,35.742259,0.0],[97.638894,35.742512,0.0],[97.63916,35.742703,0.0],[97.639506,35.742738,0.0],[97.639854,35.742711,0.0],[97.640239,35.742684,0.0],[97.64055,35.742562,0.0],[97.640898,35.74244,0.0],[97.641095,35.742191,0.0],[97.641254,35.741942,0.0],[97.641412,35.741692,0.0],[97.641609,35.741443,0.0],[97.641691,35.741161,0.0],[97.641425,35.740938,0.0],[97.64104,35.740934,0.0],[97.64069,35.741087,0.0],[97.640342,35.741178,0.0],[97.640032,35.7413,0.0],[97.639684,35.74139,0.0],[97.639338,35.741323,0.0],[97.639162,35.740348,0.0]]]}},{"type":"Feature","properties":{"rgi_id":"RGI2000-v7.0-G-13-53393","o1region":"13"},"geometry":{"type":"Polygon","coordinates":[[[97.646306,35.745646,0.0],[97.646312,35.745262,0.0],[97.645969,35.745258,0.0],[97.645625,35.745324,0.0],[97.645323,35.74546,0.0],[97.644982,35.745352,0.0],[97.644944,35.745072,0.0],[97.644777,35.744825,0.0],[97.644479,35.744682,0.0],[97.644134,35.744783,0.0],[97.644258,35.745064,0.0],[97.644339,35.745344,0.0],[97.644463,35.745625,0.0],[97.644544,35.745906,0.0],[97.644582,35.746186,0.0],[97.644749,35.746432,0.0],[97.645047,35.746575,0.0],[97.645307,35.746404,0.0],[97.645567,35.746232,0.0],[97.645827,35.74606,0.0],[97.646087,35.745888,0.0],[97.646263,35.745646,0.0],[97.646306,35.745646,0.0]]]}},{"type":"Feature","properties":{"rgi_id":"RGI2000-v7.0-G-13-53394","o1region":"13"},"geometry":{"type":"Polygon","coordinates":[[[97.671276,35.751061,0.0],[97.671277,35.751005,0.0],[97.671282,35.750726,0.0],[97.671355,35.750447,0.0],[97.671359,35.750168,0.0],[97.671364,35.749889,0.0],[97.671093,35.749719,0.0],[97.670822,35.749548,0.0],[97.670551,35.749378,0.0],[97.670211,35.749206,0.0],[97.669871,35.749035,0.0],[97.669526,35.749199,0.0],[97.669384,35.749476,0.0],[97.669175,35.749697,0.0],[97.669034,35.749975,0.0],[97.669029,35.750254,0.0],[97.668956,35.750533,0.0],[97.668951,35.750812,0.0],[97.669084,35.751092,0.0],[97.669424,35.751208,0.0],[97.669766,35.751267,0.0],[97.670176,35.751328,0.0],[97.671276,35.751061,0.0]]]}},{"type":"Feature","properties":{"rgi_id":"RGI2000-v7.0-G-13-53395","o1region":"13"},"geometry":{"type":"Polygon","coordinates":[[[97.662832,35.717307,0.0],[97.662783,35.717404,0.0],[97.662754,35.717403,0.0],[97.662402,35.717399,0.0],[97.66205,35.717395,0.0],[97.661698,35.717449,0.0],[97.661413,35.717618,0.0],[97.661129,35.717787,0.0],[97.661054,35.718073,0.0],[97.66119,35.718361,0.0],[97.661326,35.71865,0.0],[97.661532,35.718939,0.0],[97.661882,35.719057,0.0],[97.662232,35.719176,0.0],[97.66263,35.719235,0.0],[97.662875,35.71944,0.0],[97.663812,35.719358,0.0],[97.663864,35.719359,0.0],[97.665538,35.719591,0.0],[97.66559,35.719592,0.0],[97.666734,35.720118,0.0],[97.666734,35.72016,0.0],[97.667426,35.720452,0.0],[97.668155,35.719791,0.0],[97.668537,35.718898,0.0],[97.668709,35.718002,0.0],[97.668934,35.717107,0.0],[97.668936,35.716979,0.0],[97.668884,35.716953,0.0],[97.668979,35.716798,0.0],[97.66879,35.715898,0.0],[97.668677,35.715876,0.0],[97.66855,35.716043,0.0],[97.668233,35.716295,0.0],[97.667986,35.716037,0.0],[97.668049,35.715755,0.0],[97.667692,35.715686,0.0],[97.666957,35.715699,0.0],[97.666862,35.715922,0.0],[97.666547,35.716021,0.0],[97.666172,35.715966,0.0],[97.665861,35.71586,0.0],[97.665656,35.715723,0.0],[97.665408,35.715727,0.0],[97.664342,35.716048,0.0],[97.663975,35.716339,0.0],[97.663911,35.716498,0.0],[97.663401,35.71655,0.0],[97.663046,35.716775,0.0],[97.663041,35.717062,0.0],[97.663039,35.717198,0.0],[97.662832,35.717307,0.0]]]}},{"type":"Feature","properties":{"rgi_id":"RGI2000-v7.0-G-13-53396","o1region":"13"},"geometry":{"type":"Polygon","coordinates":[[[97.649127,35.711933,0.0],[97.648015,35.712029,0.0],[97.647012,35.71245,0.0],[97.646827,35.712572,0.0],[97.646827,35.712893,0.0],[97.646411,35.713309,0.0],[97.646221,35.713499,0.0],[97.646903,35.714004,0.0],[97.647891,35.714435,0.0],[97.649016,35.71461,0.0],[97.649985,35.714161,0.0],[97.651036,35.713821,0.0],[97.651001,35.712914,0.0],[97.650143,35.712403,0.0],[97.650145,35.712315,0.0],[97.649834,35.712159,0.0],[97.649616,35.712156,0.0],[97.649127,35.711933,0.0]]]}},{"type":"Feature","properties":{"rgi_id":"RGI2000-v7.0-G-13-53397","o1region":"13"},"geometry":{"type":"Polygon","coordinates":[[[97.649775,35.709938,0.0],[97.650694,35.710463,0.0],[97.651699,35.710853,0.0],[97.652809,35.710906,0.0],[97.653326,35.710736,0.0],[97.65392,35.710932,0.0],[97.655031,35.710971,0.0],[97.655548,35.710747,0.0],[97.65536,35.710109,0.0],[97.654592,35.709438,0.0],[97.653706,35.708887,0.0],[97.653055,35.708149,0.0],[97.652904,35.707948,0.0],[97.653099,35.707856,0.0],[97.653416,35.707655,0.0],[97.653732,35.707454,0.0],[97.654048,35.707254,0.0],[97.65424,35.707001,0.0],[97.654308,35.706695,0.0],[97.654313,35.706389,0.0],[97.654319,35.706082,0.0],[97.654324,35.705776,0.0],[97.654329,35.70547,0.0],[97.654208,35.705213,0.0],[97.653898,35.705057,0.0],[97.653586,35.704951,0.0],[97.653211,35.704947,0.0],[97.652835,35.704943,0.0],[97.652459,35.70499,0.0],[97.652144,35.705139,0.0],[97.651827,35.70534,0.0],[97.651573,35.705592,0.0],[97.651381,35.705845,0.0],[97.651127,35.706047,0.0],[97.650873,35.706248,0.0],[97.650744,35.706502,0.0],[97.650613,35.706807,0.0],[97.650608,35.707113,0.0],[97.650665,35.70742,0.0],[97.65071,35.707533,0.0],[97.65041,35.707724,0.0],[97.650156,35.707925,0.0],[97.649964,35.708178,0.0],[97.649896,35.708484,0.0],[97.64989,35.708841,0.0],[97.650011,35.709098,0.0],[97.649775,35.709938,0.0]]]}},{"type":"Feature","properties":{"rgi_id":"RGI2000-v7.0-G-13-53398","o1region":"13"},"geometry":{"type":"Polygon","coordinates":[[[97.678431,35.710275,0.0],[97.678506,35.710483,0.0],[97.679105,35.711255,0.0],[97.680358,35.711934,0.0],[97.680358,35.7119,0.0],[97.680699,35.711039,0.0],[97.680755,35.710109,0.0],[97.680321,35.709206,0.0],[97.679641,35.708433,0.0],[97.678713,35.708101,0.0],[97.678697,35.70814,0.0],[97.678567,35.708393,0.0],[97.678438,35.708647,0.0],[97.678433,35.708954,0.0],[97.678428,35.70926,0.0],[97.678423,35.709566,0.0],[97.678418,35.709872,0.0],[97.678413,35.710179,0.0],[97.678431,35.710275,0.0]]]}},{"type":"Feature","properties":{"rgi_id":"RGI2000-v7.0-G-13-53399","o1region":"13"},"geometry":{"type":"Polygon","coordinates":[[[97.705111,35.732327,0.0],[97.705112,35.732294,0.0],[97.705249,35.731397,0.0],[97.705019,35.730497,0.0],[97.703964,35.73012,0.0],[97.702951,35.729709,0.0],[97.701846,35.729897,0.0],[97.701384,35.730724,0.0],[97.701819,35.73156,0.0],[97.702749,35.732069,0.0],[97.703805,35.73238,0.0],[97.705111,35.732327,0.0]]]}},{"type":"Feature","properties":{"rgi_id":"RGI2000-v7.0-G-13-53400","o1region":"13"},"geometry":{"type":"Polygon","coordinates":[[[97.62696,35.450463,0.0],[97.626973,35.450789,0.0],[97.627086,35.450884,0.0],[97.627333,35.451091,0.0],[97.627662,35.451299,0.0],[97.627908,35.451506,0.0],[97.628154,35.451713,0.0],[97.628233,35.451986,0.0],[97.628477,35.452261,0.0],[97.628721,35.452604,0.0],[97.628908,35.452761,0.0],[97.629297,35.452612,0.0],[97.629874,35.452366,0.0],[97.630784,35.451998,0.0],[97.63101,35.451658,0.0],[97.630977,35.451008,0.0],[97.631002,35.45089,0.0],[97.630962,35.45049,0.0],[97.63087,35.449813,0.0],[97.630823,35.449672,0.0],[97.630169,35.449286,0.0],[97.629888,35.448922,0.0],[97.629341,35.448717,0.0],[97.628926,35.448496,0.0],[97.628332,35.448453,0.0],[97.627713,35.448554,0.0],[97.627233,35.448278,0.0],[97.626794,35.448129,0.0],[97.626544,35.448118,0.0],[97.626285,35.448268,0.0],[97.625749,35.448712,0.0],[97.625583,35.44936,0.0],[97.626189,35.450034,0.0],[97.626779,35.450311,0.0],[97.62696,35.450463,0.0]]]}},{"type":"Feature","properties":{"rgi_id":"RGI2000-v7.0-G-13-53401","o1region":"13"},"geometry":{"type":"Polygon","coordinates":[[[97.614005,35.448016,0.0],[97.613855,35.448383,0.0],[97.613812,35.448538,0.0],[97.613826,35.449101,0.0],[97.614254,35.44961,0.0],[97.614772,35.449905,0.0],[97.615363,35.450113,0.0],[97.615954,35.450371,0.0],[97.6164,35.450695,0.0],[97.61658,35.450932,0.0],[97.616962,35.451373,0.0],[97.617588,35.452001,0.0],[97.61782,35.452402,0.0],[97.618373,35.452705,0.0],[97.618603,35.452584,0.0],[97.619058,35.452404,0.0],[97.619385,35.452442,0.0],[97.619894,35.452666,0.0],[97.620759,35.452837,0.0],[97.621051,35.452807,0.0],[97.62117,35.452438,0.0],[97.621178,35.451975,0.0],[97.62133,35.45149,0.0],[97.621357,35.451104,0.0],[97.621381,35.450887,0.0],[97.62143,35.450773,0.0],[97.621969,35.45021,0.0],[97.622792,35.449599,0.0],[97.623348,35.448762,0.0],[97.623519,35.448321,0.0],[97.623473,35.447832,0.0],[97.62346,35.447787,0.0],[97.622666,35.447468,0.0],[97.621809,35.446882,0.0],[97.620842,35.446383,0.0],[97.619874,35.445884,0.0],[97.619128,35.445166,0.0],[97.61849,35.444404,0.0],[97.618098,35.444319,0.0],[97.617867,35.44421,0.0],[97.616814,35.443942,0.0],[97.61579,35.444283,0.0],[97.614803,35.44472,0.0],[97.614085,35.445417,0.0],[97.613835,35.446312,0.0],[97.613857,35.446646,0.0],[97.614203,35.447196,0.0],[97.61405,35.447748,0.0],[97.614005,35.448016,0.0]]]}},{"type":"Feature","properties":{"rgi_id":"RGI2000-v7.0-G-13-53402","o1region":"13"},"geometry":{"type":"Polygon","coordinates":[[[97.612668,35.448126,0.0],[97.612125,35.447799,0.0],[97.611292,35.448367,0.0],[97.611253,35.448398,0.0],[97.610925,35.449196,0.0],[97.610924,35.44926,0.0],[97.611414,35.450185,0.0],[97.611536,35.450133,0.0],[97.612638,35.449857,0.0],[97.612966,35.448995,0.0],[97.612668,35.448126,0.0]]]}},{"type":"Feature","properties":{"rgi_id":"RGI2000-v7.0-G-13-53403","o1region":"13"},"geometry":{"type":"Polygon","coordinates":[[[97.620975,35.438578,0.0],[97.620975,35.438534,0.0],[97.620556,35.437686,0.0],[97.619865,35.436924,0.0],[97.618729,35.436778,0.0],[97.617537,35.436765,0.0],[97.617305,35.437649,0.0],[97.617235,35.43858,0.0],[97.617982,35.439254,0.0],[97.619071,35.439,0.0],[97.62016,35.438702,0.0],[97.620975,35.438578,0.0]]]}},{"type":"Feature","properties":{"rgi_id":"RGI2000-v7.0-G-13-53404","o1region":"13"},"geometry":{"type":"Polygon","coordinates":[[[97.598803,35.434739,0.0],[97.598843,35.434739,0.0],[97.600636,35.435241,0.0],[97.600675,35.435242,0.0],[97.601822,35.434614,0.0],[97.601822,35.434582,0.0],[97.601909,35.434134,0.0],[97.603008,35.433954,0.0],[97.603048,35.433955,0.0],[97.603102,35.43309,0.0],[97.603025,35.433025,0.0],[97.602486,35.432441,0.0],[97.602292,35.432343,0.0],[97.601942,35.432179,0.0],[97.600757,35.432774,0.0],[97.600717,35.432806,0.0],[97.599608,35.433498,0.0],[97.599569,35.433498,0.0],[97.598851,35.434227,0.0],[97.598803,35.434739,0.0]]]}},{"type":"Feature","properties":{"rgi_id":"RGI2000-v7.0-G-13-53405","o1region":"13"},"geometry":{"type":"Polygon","coordinates":[[[97.593324,35.416433,0.0],[97.59382,35.417208,0.0],[97.593859,35.417209,0.0],[97.594996,35.417126,0.0],[97.596011,35.41733,0.0],[97.59609,35.417299,0.0],[97.596923,35.416699,0.0],[97.597794,35.416132,0.0],[97.598588,35.4155,0.0],[97.598479,35.41505,0.0],[97.597618,35.415008,0.0],[97.597579,35.415008,0.0],[97.596719,35.41487,0.0],[97.596486,35.414771,0.0],[97.595822,35.414699,0.0],[97.595434,35.41447,0.0],[97.594382,35.414137,0.0],[97.593433,35.414671,0.0],[97.593105,35.415533,0.0],[97.593324,35.416433,0.0]]]}},{"type":"Feature","properties":{"rgi_id":"RGI2000-v7.0-G-13-53406","o1region":"13"},"geometry":{"type":"Polygon","coordinates":[[[97.582964,35.416765,0.0],[97.582947,35.417689,0.0],[97.583188,35.418363,0.0],[97.583257,35.418557,0.0],[97.583321,35.418564,0.0],[97.584353,35.41867,0.0],[97.58549,35.418716,0.0],[97.586393,35.418195,0.0],[97.586503,35.418092,0.0],[97.586629,35.417866,0.0],[97.58645,35.417264,0.0],[97.586058,35.416395,0.0],[97.584967,35.416049,0.0],[97.584737,35.416011,0.0],[97.583944,35.41647,0.0],[97.582964,35.416765,0.0]]]}},{"type":"Feature","properties":{"rgi_id":"RGI2000-v7.0-G-13-53407","o1region":"13"},"geometry":{"type":"Polygon","coordinates":[[[97.629429,35.410777,0.0],[97.629331,35.410678,0.0],[97.629331,35.410352,0.0],[97.628605,35.410135,0.0],[97.627507,35.410251,0.0],[97.626508,35.410667,0.0],[97.625765,35.411342,0.0],[97.625437,35.412236,0.0],[97.62584,35.413096,0.0],[97.626718,35.413662,0.0],[97.627615,35.413116,0.0],[97.628512,35.412571,0.0],[97.628997,35.411678,0.0],[97.629377,35.410828,0.0],[97.629429,35.410777,0.0]]]}},{"type":"Feature","properties":{"rgi_id":"RGI2000-v7.0-G-13-53408","o1region":"13"},"geometry":{"type":"Polygon","coordinates":[[[97.625819,35.405743,0.0],[97.625819,35.40571,0.0],[97.626563,35.40502,0.0],[97.6267,35.40409,0.0],[97.626227,35.403253,0.0],[97.625284,35.403741,0.0],[97.624662,35.404499,0.0],[97.62416,35.405325,0.0],[97.625819,35.405743,0.0]]]}}]}
