{"type":"FeatureCollection","features":[{"type":"Feature","properties":{"rgi_id":"RGI2000-v7.0-G-19-00944","o1region":"19"},"geometry":{"type":"Polygon","coordinates":[[[-26.626023,-59.005582,0.0],[-26.626009,-59.005555,0.0],[-26.625969,-59.005483,0.0],[-26.625929,-59.005415,0.0],[-26.625887,-59.005349,0.0],[-26.625845,-59.005286,0.0],[-26.625802,-59.005226,0.0],[-26.625757,-59.005169,0.0],[-26.625712,-59.005115,0.0],[-26.625666,-59.005064,0.0],[-26.625619,-59.005016,0.0],[-26.625571,-59.00497,0.0],[-26.625499,-59.00491,0.0],[-26.625415,-59.004847,0.0],[-26.625323,-59.004784,0.0],[-26.625154,-59.004673,0.0],[-26.625073,-59.004622,0.0],[-26.624988,-59.004573,0.0],[-26.624899,-59.004527,0.0],[-26.624807,-59.004483,0.0],[-26.62471,-59.004441,0.0],[-26.624608,-59.004402,0.0],[-26.624501,-59.004364,0.0],[-26.624389,-59.004328,0.0],[-26.624294,-59.0043,0.0],[-26.624194,-59.004272,0.0],[-26.623972,-59.004218,0.0],[-26.623759,-59.00417,0.0],[-26.62325,-59.004062,0.0],[-26.622997,-59.004004,0.0],[-26.622875,-59.003973,0.0],[-26.622761,-59.003941,0.0],[-26.622654,-59.003909,0.0],[-26.622553,-59.003875,0.0],[-26.622456,-59.00384,0.0],[-26.622363,-59.003804,0.0],[-26.622274,-59.003765,0.0],[-26.622189,-59.003725,0.0],[-26.622108,-59.003683,0.0],[-26.62203,-59.003638,0.0],[-26.621955,-59.003592,0.0],[-26.621883,-59.003543,0.0],[-26.621831,-59.003505,0.0],[-26.621779,-59.003463,0.0],[-26.621725,-59.003417,0.0],[-26.621668,-59.003366,0.0],[-26.621565,-59.003267,0.0],[-26.62132,-59.003021,0.0],[-26.621253,-59.002957,0.0],[-26.621191,-59.002901,0.0],[-26.621123,-59.002844,0.0],[-26.621058,-59.002794,0.0],[-26.620994,-59.002749,0.0],[-26.620931,-59.00271,0.0],[-26.620887,-59.002686,0.0],[-26.62084,-59.002662,0.0],[-26.62079,-59.00264,0.0],[-26.620737,-59.002617,0.0],[-26.620615,-59.002572,0.0],[-26.620357,-59.002487,0.0],[-26.620248,-59.002447,0.0],[-26.620189,-59.002424,0.0],[-26.620135,-59.002401,0.0],[-26.620085,-59.002377,0.0],[-26.620038,-59.002353,0.0],[-26.619943,-59.002297,0.0],[-26.619847,-59.002236,0.0],[-26.619753,-59.002169,0.0],[-26.619659,-59.002096,0.0],[-26.619565,-59.002017,0.0],[-26.619472,-59.001932,0.0],[-26.619378,-59.00184,0.0],[-26.619283,-59.001742,0.0],[-26.619193,-59.001643,0.0],[-26.619102,-59.001537,0.0],[-26.619008,-59.001423,0.0],[-26.61891,-59.001299,0.0],[-26.618817,-59.001178,0.0],[-26.618716,-59.001041,0.0],[-26.618373,-59.000568,0.0],[-26.618219,-59.000352,0.0],[-26.618072,-59.000132,0.0],[-26.617929,-58.999908,0.0],[-26.617793,-58.99968,0.0],[-26.617662,-58.999447,0.0],[-26.617536,-58.99921,0.0],[-26.617416,-58.998969,0.0],[-26.617302,-58.998724,0.0],[-26.616112,-58.995869,0.0],[-26.61608,-58.99574,0.0],[-26.616045,-58.995615,0.0],[-26.616006,-58.995493,0.0],[-26.615963,-58.995376,0.0],[-26.615916,-58.995262,0.0],[-26.615866,-58.995152,0.0],[-26.615812,-58.995046,0.0],[-26.615754,-58.994943,0.0],[-26.615693,-58.994845,0.0],[-26.615628,-58.99475,0.0],[-26.615559,-58.994659,0.0],[-26.615487,-58.994572,0.0],[-26.615411,-58.994489,0.0],[-26.615331,-58.99441,0.0],[-26.615248,-58.994335,0.0],[-26.615161,-58.994263,0.0],[-26.615084,-58.994206,0.0],[-26.615002,-58.994151,0.0],[-26.614914,-58.994096,0.0],[-26.614819,-58.994043,0.0],[-26.614719,-58.993991,0.0],[-26.614613,-58.993941,0.0],[-26.614502,-58.993893,0.0],[-26.614387,-58.993846,0.0],[-26.614331,-58.993826,0.0],[-26.614274,-58.993807,0.0],[-26.614216,-58.993789,0.0],[-26.614157,-58.993774,0.0],[-26.614035,-58.993747,0.0],[-26.613908,-58.993726,0.0],[-26.613777,-58.993711,0.0],[-26.613639,-58.993702,0.0],[-26.613496,-58.9937,0.0],[-26.613346,-58.993703,0.0],[-26.613207,-58.993712,0.0],[-26.61306,-58.993725,0.0],[-26.612905,-58.993743,0.0],[-26.612738,-58.993766,0.0],[-26.612457,-58.993812,0.0],[-26.611851,-58.993922,0.0],[-26.611591,-58.993965,0.0],[-26.611332,-58.994008,0.0],[-26.611087,-58.994053,0.0],[-26.610852,-58.9941,0.0],[-26.610627,-58.99415,0.0],[-26.610411,-58.994203,0.0],[-26.610202,-58.994259,0.0],[-26.610001,-58.994319,0.0],[-26.609807,-58.994382,0.0],[-26.609725,-58.994411,0.0],[-26.609641,-58.994444,0.0],[-26.609553,-58.994481,0.0],[-26.609459,-58.994523,0.0],[-26.609288,-58.994605,0.0],[-26.608887,-58.994807,0.0],[-26.608782,-58.994857,0.0],[-26.608686,-58.9949,0.0],[-26.608588,-58.994942,0.0],[-26.608495,-58.994978,0.0],[-26.608406,-58.995009,0.0],[-26.60832,-58.995036,0.0],[-26.608173,-58.995075,0.0],[-26.608021,-58.99511,0.0],[-26.607865,-58.995139,0.0],[-26.607704,-58.995164,0.0],[-26.607538,-58.995184,0.0],[-26.607366,-58.995199,0.0],[-26.607188,-58.99521,0.0],[-26.607004,-58.995216,0.0],[-26.606819,-58.995217,0.0],[-26.606626,-58.995214,0.0],[-26.606424,-58.995206,0.0],[-26.606211,-58.995194,0.0],[-26.605991,-58.995178,0.0],[-26.605753,-58.995157,0.0],[-26.605492,-58.995131,0.0],[-26.605167,-58.995096,0.0],[-26.60496,-58.99507,0.0],[-26.604749,-58.995037,0.0],[-26.604534,-58.994998,0.0],[-26.604316,-58.994953,0.0],[-26.604092,-58.994901,0.0],[-26.603863,-58.994842,0.0],[-26.603628,-58.994776,0.0],[-26.603385,-58.994703,0.0],[-26.603154,-58.994629,0.0],[-26.602913,-58.994548,0.0],[-26.60266,-58.994459,0.0],[-26.602391,-58.994361,0.0],[-26.602145,-58.994268,0.0],[-26.60187,-58.994162,0.0],[-26.600765,-58.993727,0.0],[-26.60038,-58.993582,0.0],[-26.599523,-58.993265,0.0],[-26.599168,-58.99313,0.0],[-26.598947,-58.993043,0.0],[-26.598743,-58.992958,0.0],[-26.59855,-58.992876,0.0],[-26.598368,-58.992794,0.0],[-26.59817,-58.9927,0.0],[-26.597982,-58.992606,0.0],[-26.597803,-58.99251,0.0],[-26.597632,-58.992413,0.0],[-26.597468,-58.992314,0.0],[-26.597311,-58.992213,0.0],[-26.597161,-58.992109,0.0],[-26.597017,-58.992002,0.0],[-26.596844,-58.991865,0.0],[-26.596668,-58.991717,0.0],[-26.596491,-58.991559,0.0],[-26.59631,-58.99139,0.0],[-26.596126,-58.991209,0.0],[-26.595936,-58.991014,0.0],[-26.595739,-58.990805,0.0],[-26.59553,-58.990575,0.0],[-26.59547,-58.990507,0.0],[-26.595411,-58.990436,0.0],[-26.595352,-58.990362,0.0],[-26.595292,-58.990286,0.0],[-26.595173,-58.990123,0.0],[-26.59505,-58.989944,0.0],[-26.594947,-58.989786,0.0],[-26.594835,-58.989607,0.0],[-26.594481,-58.989018,0.0],[-26.594352,-58.988809,0.0],[-26.594224,-58.98861,0.0],[-26.594105,-58.988434,0.0],[-26.593985,-58.988266,0.0],[-26.593866,-58.988112,0.0],[-26.593806,-58.98804,0.0],[-26.593747,-58.98797,0.0],[-26.593687,-58.987903,0.0],[-26.593626,-58.987838,0.0],[-26.593467,-58.987664,0.0],[-26.593405,-58.987599,0.0],[-26.593335,-58.987534,0.0],[-26.593302,-58.987506,0.0],[-26.59327,-58.987481,0.0],[-26.593191,-58.987429,0.0],[-26.593107,-58.98738,0.0],[-26.593016,-58.987336,0.0],[-26.59292,-58.987296,0.0],[-26.592819,-58.98726,0.0],[-26.592714,-58.987229,0.0],[-26.592606,-58.987204,0.0],[-26.592496,-58.987184,0.0],[-26.592433,-58.987176,0.0],[-26.592368,-58.98717,0.0],[-26.592299,-58.987166,0.0],[-26.592227,-58.987165,0.0],[-26.592152,-58.987166,0.0],[-26.592073,-58.98717,0.0],[-26.59199,-58.987176,0.0],[-26.591901,-58.987184,0.0],[-26.591843,-58.987192,0.0],[-26.591784,-58.987203,0.0],[-26.591725,-58.987217,0.0],[-26.591666,-58.987235,0.0],[-26.591606,-58.987257,0.0],[-26.591545,-58.987281,0.0],[-26.591482,-58.98731,0.0],[-26.591419,-58.987342,0.0],[-26.591359,-58.987375,0.0],[-26.591297,-58.987412,0.0],[-26.591233,-58.987452,0.0],[-26.591165,-58.987498,0.0],[-26.591031,-58.987592,0.0],[-26.590772,-58.987782,0.0],[-26.590665,-58.987859,0.0],[-26.590552,-58.987936,0.0],[-26.590449,-58.988001,0.0],[-26.590389,-58.988036,0.0],[-26.59033,-58.988068,0.0],[-26.590272,-58.988096,0.0],[-26.590216,-58.988122,0.0],[-26.590161,-58.988145,0.0],[-26.590106,-58.988164,0.0],[-26.590052,-58.988181,0.0],[-26.589998,-58.988195,0.0],[-26.589911,-58.988213,0.0],[-26.58982,-58.988227,0.0],[-26.589724,-58.988236,0.0],[-26.589621,-58.988242,0.0],[-26.589514,-58.988244,0.0],[-26.589396,-58.988243,0.0],[-26.589272,-58.988239,0.0],[-26.588926,-58.988223,0.0],[-26.58882,-58.988221,0.0],[-26.588725,-58.988221,0.0],[-26.588616,-58.988223,0.0],[-26.588516,-58.98823,0.0],[-26.588422,-58.98824,0.0],[-26.588332,-58.988255,0.0],[-26.588225,-58.988277,0.0],[-26.588114,-58.988306,0.0],[-26.587998,-58.988341,0.0],[-26.587876,-58.988382,0.0],[-26.587764,-58.988424,0.0],[-26.58764,-58.988473,0.0],[-26.587199,-58.988658,0.0],[-26.587021,-58.988729,0.0],[-26.586925,-58.988765,0.0],[-26.586835,-58.988797,0.0],[-26.586749,-58.988825,0.0],[-26.586667,-58.98885,0.0],[-26.586504,-58.988894,0.0],[-26.586338,-58.988936,0.0],[-26.586171,-58.988975,0.0],[-26.586001,-58.989011,0.0],[-26.585829,-58.989045,0.0],[-26.585655,-58.989076,0.0],[-26.585478,-58.989104,0.0],[-26.585299,-58.98913,0.0],[-26.585118,-58.989153,0.0],[-26.584933,-58.989174,0.0],[-26.584747,-58.989191,0.0],[-26.584557,-58.989207,0.0],[-26.584365,-58.989219,0.0],[-26.58417,-58.98923,0.0],[-26.583972,-58.989237,0.0],[-26.583771,-58.989242,0.0],[-26.58357,-58.989244,0.0],[-26.583365,-58.989244,0.0],[-26.583157,-58.989241,0.0],[-26.582945,-58.989236,0.0],[-26.58273,-58.989228,0.0],[-26.58251,-58.989218,0.0],[-26.582287,-58.989205,0.0],[-26.582059,-58.98919,0.0],[-26.581827,-58.989172,0.0],[-26.58159,-58.989151,0.0],[-26.581347,-58.989128,0.0],[-26.581097,-58.989102,0.0],[-26.58084,-58.989074,0.0],[-26.580573,-58.989042,0.0],[-26.580004,-58.988969,0.0],[-26.579711,-58.988926,0.0],[-26.579405,-58.988874,0.0],[-26.579084,-58.988814,0.0],[-26.578741,-58.988743,0.0],[-26.578425,-58.988673,0.0],[-26.578072,-58.988592,0.0],[-26.576673,-58.988255,0.0],[-26.574774,-58.987808,0.0],[-26.574134,-58.987654,0.0],[-26.573557,-58.987511,0.0],[-26.572984,-58.987365,0.0],[-26.572445,-58.987223,0.0],[-26.571933,-58.987083,0.0],[-26.571442,-58.986943,0.0],[-26.570945,-58.986796,0.0],[-26.570465,-58.986647,0.0],[-26.570001,-58.986496,0.0],[-26.569551,-58.986342,0.0],[-26.569114,-58.986186,0.0],[-26.568688,-58.986027,0.0],[-26.568479,-58.985946,0.0],[-26.568273,-58.985864,0.0],[-26.56807,-58.985781,0.0],[-26.567869,-58.985697,0.0],[-26.566945,-58.985314,0.0],[-26.566702,-58.985209,0.0],[-26.566486,-58.985112,0.0],[-26.566259,-58.985005,0.0],[-26.566049,-58.984899,0.0],[-26.565852,-58.984793,0.0],[-26.565668,-58.984686,0.0],[-26.565565,-58.984622,0.0],[-26.565458,-58.984553,0.0],[-26.565347,-58.984479,0.0],[-26.565229,-58.984398,0.0],[-26.565017,-58.984246,0.0],[-26.564478,-58.983853,0.0],[-26.563832,-58.983387,0.0],[-26.563304,-58.983002,0.0],[-26.562827,-58.982647,0.0],[-26.562389,-58.982314,0.0],[-26.561971,-58.981988,0.0],[-26.561772,-58.981828,0.0],[-26.561578,-58.981671,0.0],[-26.561389,-58.981516,0.0],[-26.561204,-58.981362,0.0],[-26.561025,-58.981209,0.0],[-26.560849,-58.981057,0.0],[-26.56077,-58.980986,0.0],[-26.560688,-58.98091,0.0],[-26.560603,-58.980829,0.0],[-26.560514,-58.980741,0.0],[-26.56034,-58.980562,0.0],[-26.560009,-58.980214,0.0],[-26.559872,-58.980072,0.0],[-26.559729,-58.979928,0.0],[-26.559597,-58.979801,0.0],[-26.559519,-58.97973,0.0],[-26.559443,-58.979662,0.0],[-26.559368,-58.979599,0.0],[-26.559295,-58.979539,0.0],[-26.559222,-58.979482,0.0],[-26.559149,-58.979429,0.0],[-26.559077,-58.979379,0.0],[-26.559005,-58.979332,0.0],[-26.558944,-58.979294,0.0],[-26.55888,-58.979257,0.0],[-26.558813,-58.979221,0.0],[-26.558744,-58.979187,0.0],[-26.558673,-58.979154,0.0],[-26.558598,-58.979121,0.0],[-26.558521,-58.97909,0.0],[-26.55844,-58.979059,0.0],[-26.558266,-58.978998,0.0],[-26.558071,-58.978938,0.0],[-26.557861,-58.978879,0.0],[-26.557439,-58.978768,0.0],[-26.557262,-58.978719,0.0],[-26.557078,-58.978665,0.0],[-26.556916,-58.978613,0.0],[-26.556821,-58.97858,0.0],[-26.556732,-58.978546,0.0],[-26.556646,-58.978511,0.0],[-26.556565,-58.978476,0.0],[-26.556486,-58.978439,0.0],[-26.556411,-58.978401,0.0],[-26.556338,-58.978361,0.0],[-26.556269,-58.97832,0.0],[-26.556177,-58.978262,0.0],[-26.556084,-58.978198,0.0],[-26.555988,-58.978127,0.0],[-26.555888,-58.978048,0.0],[-26.55579,-58.977967,0.0],[-26.555682,-58.977875,0.0],[-26.555271,-58.977506,0.0],[-26.555093,-58.977352,0.0],[-26.554995,-58.977272,0.0],[-26.554901,-58.977199,0.0],[-26.554811,-58.977132,0.0],[-26.554722,-58.977071,0.0],[-26.554444,-58.976886,0.0],[-26.554286,-58.976783,0.0],[-26.554135,-58.976689,0.0],[-26.553998,-58.976607,0.0],[-26.553859,-58.976531,0.0],[-26.553727,-58.976465,0.0],[-26.553598,-58.976407,0.0],[-26.553473,-58.976357,0.0],[-26.553373,-58.976324,0.0],[-26.55326,-58.976295,0.0],[-26.553126,-58.976266,0.0],[-26.552834,-58.976214,0.0],[-26.552708,-58.976189,0.0],[-26.55264,-58.976173,0.0],[-26.552577,-58.976156,0.0],[-26.552518,-58.976138,0.0],[-26.552462,-58.976119,0.0],[-26.552358,-58.97608,0.0],[-26.552251,-58.976036,0.0],[-26.552142,-58.975986,0.0],[-26.552028,-58.975931,0.0],[-26.551912,-58.975871,0.0],[-26.551789,-58.975805,0.0],[-26.551657,-58.97573,0.0],[-26.55151,-58.975644,0.0],[-26.551391,-58.975571,0.0],[-26.551274,-58.975497,0.0],[-26.551158,-58.97542,0.0],[-26.551043,-58.975341,0.0],[-26.55093,-58.97526,0.0],[-26.550819,-58.975176,0.0],[-26.550709,-58.97509,0.0],[-26.5506,-58.975002,0.0],[-26.550493,-58.974912,0.0],[-26.550388,-58.974819,0.0],[-26.550284,-58.974724,0.0],[-26.550181,-58.974627,0.0],[-26.55008,-58.974528,0.0],[-26.54998,-58.974426,0.0],[-26.549882,-58.974322,0.0],[-26.549785,-58.974216,0.0],[-26.548595,-58.973145,0.0],[-26.548611,-58.973036,0.0],[-26.548624,-58.972928,0.0],[-26.548635,-58.97282,0.0],[-26.548643,-58.972713,0.0],[-26.548648,-58.972607,0.0],[-26.548651,-58.972501,0.0],[-26.548651,-58.972396,0.0],[-26.548649,-58.972292,0.0],[-26.548644,-58.972188,0.0],[-26.548636,-58.972085,0.0],[-26.548626,-58.971982,0.0],[-26.548613,-58.971881,0.0],[-26.548597,-58.971779,0.0],[-26.548579,-58.971679,0.0],[-26.548559,-58.971579,0.0],[-26.548536,-58.97148,0.0],[-26.548507,-58.971369,0.0],[-26.548475,-58.971259,0.0],[-26.548441,-58.97115,0.0],[-26.548404,-58.971043,0.0],[-26.548366,-58.970937,0.0],[-26.548324,-58.970835,0.0],[-26.548281,-58.970734,0.0],[-26.548236,-58.970637,0.0],[-26.54819,-58.970543,0.0],[-26.548141,-58.970453,0.0],[-26.548092,-58.970367,0.0],[-26.54804,-58.970284,0.0],[-26.547988,-58.970205,0.0],[-26.547934,-58.97013,0.0],[-26.547878,-58.970059,0.0],[-26.547822,-58.969992,0.0],[-26.547759,-58.969926,0.0],[-26.547692,-58.969862,0.0],[-26.547619,-58.969799,0.0],[-26.54754,-58.969739,0.0],[-26.547455,-58.969681,0.0],[-26.547365,-58.969624,0.0],[-26.547268,-58.969569,0.0],[-26.547163,-58.969515,0.0],[-26.54707,-58.969469,0.0],[-26.54697,-58.969424,0.0],[-26.546862,-58.969378,0.0],[-26.546745,-58.969332,0.0],[-26.546527,-58.969249,0.0],[-26.546026,-58.969069,0.0],[-26.545906,-58.969023,0.0],[-26.545799,-58.968981,0.0],[-26.545693,-58.968939,0.0],[-26.545584,-58.968899,0.0],[-26.545472,-58.968861,0.0],[-26.545356,-58.968824,0.0],[-26.545237,-58.968789,0.0],[-26.545115,-58.968755,0.0],[-26.544988,-58.968722,0.0],[-26.544857,-58.96869,0.0],[-26.544722,-58.96866,0.0],[-26.544581,-58.96863,0.0],[-26.544274,-58.968572,0.0],[-26.543949,-58.968516,0.0],[-26.543301,-58.968412,0.0],[-26.54303,-58.968367,0.0],[-26.542747,-58.968316,0.0],[-26.542495,-58.968266,0.0],[-26.542348,-58.968233,0.0],[-26.542207,-58.9682,0.0],[-26.542071,-58.968166,0.0],[-26.541941,-58.96813,0.0],[-26.541814,-58.968092,0.0],[-26.541692,-58.968053,0.0],[-26.541573,-58.968012,0.0],[-26.541457,-58.96797,0.0],[-26.541382,-58.96794,0.0],[-26.541305,-58.967906,0.0],[-26.541224,-58.967868,0.0],[-26.541139,-58.967825,0.0],[-26.540972,-58.967736,0.0],[-26.540655,-58.967557,0.0],[-26.540525,-58.967486,0.0],[-26.54039,-58.967416,0.0],[-26.540267,-58.967357,0.0],[-26.540194,-58.967326,0.0],[-26.540124,-58.967298,0.0],[-26.540056,-58.967274,0.0],[-26.539989,-58.967252,0.0],[-26.539924,-58.967234,0.0],[-26.539859,-58.967218,0.0],[-26.539795,-58.967206,0.0],[-26.539732,-58.967196,0.0],[-26.539495,-58.967163,0.0],[-26.539392,-58.96715,0.0],[-26.539287,-58.967141,0.0],[-26.539196,-58.967138,0.0],[-26.53915,-58.967139,0.0],[-26.539107,-58.967142,0.0],[-26.539067,-58.967146,0.0],[-26.539028,-58.967153,0.0],[-26.538993,-58.967161,0.0],[-26.538959,-58.967171,0.0],[-26.538928,-58.967183,0.0],[-26.538899,-58.967196,0.0],[-26.538879,-58.967208,0.0],[-26.53886,-58.967222,0.0],[-26.538842,-58.967239,0.0],[-26.538824,-58.967258,0.0],[-26.538808,-58.967279,0.0],[-26.538792,-58.967303,0.0],[-26.538761,-58.967359,0.0],[-26.538737,-58.967413,0.0],[-26.538713,-58.967477,0.0],[-26.538642,-58.967697,0.0],[-26.538615,-58.967772,0.0],[-26.538588,-58.96784,0.0],[-26.538559,-58.967896,0.0],[-26.538529,-58.967942,0.0],[-26.538513,-58.967962,0.0],[-26.538496,-58.96798,0.0],[-26.538479,-58.967995,0.0],[-26.538461,-58.968009,0.0],[-26.538442,-58.96802,0.0],[-26.538423,-58.968029,0.0],[-26.538396,-58.968039,0.0],[-26.538368,-58.968048,0.0],[-26.538305,-58.968061,0.0],[-26.538235,-58.968069,0.0],[-26.538159,-58.968072,0.0],[-26.538077,-58.968069,0.0],[-26.537993,-58.968061,0.0],[-26.537909,-58.968048,0.0],[-26.537828,-58.968029,0.0],[-26.537785,-58.968015,0.0],[-26.537742,-58.967996,0.0],[-26.537698,-58.967971,0.0],[-26.537654,-58.96794,0.0],[-26.537609,-58.967904,0.0],[-26.537561,-58.967861,0.0],[-26.537511,-58.967813,0.0],[-26.537375,-58.967675,0.0],[-26.537332,-58.967634,0.0],[-26.537292,-58.9676,0.0],[-26.537246,-58.967564,0.0],[-26.537202,-58.967535,0.0],[-26.537158,-58.967512,0.0],[-26.537114,-58.967494,0.0],[-26.537072,-58.967481,0.0],[-26.537028,-58.967469,0.0],[-26.536983,-58.967459,0.0],[-26.536935,-58.967452,0.0],[-26.536885,-58.967445,0.0],[-26.536833,-58.967441,0.0],[-26.536779,-58.967438,0.0],[-26.536723,-58.967437,0.0],[-26.536606,-58.967441,0.0],[-26.536478,-58.967451,0.0],[-26.536337,-58.967468,0.0],[-26.536162,-58.967494,0.0],[-26.5361,-58.967506,0.0],[-26.536038,-58.967521,0.0],[-26.535975,-58.96754,0.0],[-26.535912,-58.967563,0.0],[-26.535848,-58.96759,0.0],[-26.535784,-58.96762,0.0],[-26.535719,-58.967655,0.0],[-26.535652,-58.967694,0.0],[-26.53559,-58.967732,0.0],[-26.535527,-58.967775,0.0],[-26.53546,-58.967822,0.0],[-26.535391,-58.967874,0.0],[-26.535254,-58.967982,0.0],[-26.534991,-58.968197,0.0],[-26.534882,-58.968284,0.0],[-26.534767,-58.968372,0.0],[-26.534663,-58.968446,0.0],[-26.534601,-58.968487,0.0],[-26.534541,-58.968525,0.0],[-26.534482,-58.968559,0.0],[-26.534424,-58.968589,0.0],[-26.534367,-58.968617,0.0],[-26.534311,-58.968642,0.0],[-26.534255,-58.968664,0.0],[-26.534199,-58.968684,0.0],[-26.534071,-58.968722,0.0],[-26.533935,-58.968756,0.0],[-26.533789,-58.968787,0.0],[-26.533632,-58.968814,0.0],[-26.533479,-58.968837,0.0],[-26.533307,-58.968858,0.0],[-26.532712,-58.968922,0.0],[-26.532602,-58.968933,0.0],[-26.532489,-58.968942,0.0],[-26.532374,-58.968949,0.0],[-26.532256,-58.968953,0.0],[-26.532134,-58.968956,0.0],[-26.532079,-58.968956,0.0],[-26.528549,-58.976235,0.0],[-26.526544,-58.979955,0.0],[-26.523136,-58.983777,0.0],[-26.518926,-58.987185,0.0],[-26.514716,-58.990387,0.0],[-26.511509,-58.993795,0.0],[-26.508903,-58.997513,0.0],[-26.506146,-59.000817,0.0],[-26.504492,-59.003191,0.0],[-26.502287,-59.006288,0.0],[-26.500283,-59.008869,0.0],[-26.500746,-59.010516,0.0],[-26.502939,-59.012721,0.0],[-26.505681,-59.011608,0.0],[-26.508347,-59.011457,0.0],[-26.512266,-59.012322,0.0],[-26.515142,-59.013812,0.0],[-26.516345,-59.01473,0.0],[-26.516543,-59.014747,0.0],[-26.517794,-59.015391,0.0],[-26.517825,-59.015428,0.0],[-26.521757,-59.014883,0.0],[-26.524744,-59.014853,0.0],[-26.528957,-59.014974,0.0],[-26.532863,-59.014565,0.0],[-26.5361,-59.014331,0.0],[-26.537299,-59.013736,0.0],[-26.535671,-59.013497,0.0],[-26.538761,-59.012664,0.0],[-26.539644,-59.0113,0.0],[-26.541703,-59.01077,0.0],[-26.543322,-59.010542,0.0],[-26.545676,-59.010239,0.0],[-26.545873,-59.011203,0.0],[-26.54603,-59.011181,0.0],[-26.549265,-59.011006,0.0],[-26.552545,-59.010594,0.0],[-26.555094,-59.010869,0.0],[-26.556006,-59.010413,0.0],[-26.559117,-59.007599,0.0],[-26.559874,-59.00604,0.0],[-26.559958,-59.004308,0.0],[-26.562902,-59.004957,0.0],[-26.566602,-59.006083,0.0],[-26.570554,-59.007296,0.0],[-26.574254,-59.007988,0.0],[-26.578123,-59.008638,0.0],[-26.581571,-59.008118,0.0],[-26.583841,-59.007555,0.0],[-26.590064,-59.007642,0.0],[-26.595867,-59.008378,0.0],[-26.601165,-59.008075,0.0],[-26.608565,-59.007469,0.0],[-26.615713,-59.006603,0.0],[-26.626023,-59.005582,0.0]]]}},{"type":"Feature","properties":{"rgi_id":"RGI2000-v7.0-G-19-00945","o1region":"19"},"geometry":{"type":"Polygon","coordinates":[[[-26.532079,-58.968956,0.0],[-26.532009,-58.968957,0.0],[-26.531879,-58.968955,0.0],[-26.531743,-58.968952,0.0],[-26.531513,-58.968942,0.0],[-26.531256,-58.968926,0.0],[-26.531011,-58.968908,0.0],[-26.530427,-58.968861,0.0],[-26.530133,-58.968841,0.0],[-26.529854,-58.968826,0.0],[-26.529602,-58.968819,0.0],[-26.529366,-58.968819,0.0],[-26.529253,-58.968822,0.0],[-26.529143,-58.968826,0.0],[-26.529036,-58.968832,0.0],[-26.528931,-58.96884,0.0],[-26.528828,-58.96885,0.0],[-26.528727,-58.968862,0.0],[-26.528319,-58.968914,0.0],[-26.528191,-58.968932,0.0],[-26.528077,-58.96895,0.0],[-26.527962,-58.96897,0.0],[-26.527854,-58.968992,0.0],[-26.527752,-58.969015,0.0],[-26.527656,-58.969041,0.0],[-26.527586,-58.969062,0.0],[-26.527515,-58.969087,0.0],[-26.52744,-58.969117,0.0],[-26.527361,-58.969152,0.0],[-26.527216,-58.969223,0.0],[-26.52688,-58.969398,0.0],[-26.526792,-58.96944,0.0],[-26.526712,-58.969476,0.0],[-26.526631,-58.969509,0.0],[-26.526554,-58.969536,0.0],[-26.526479,-58.969558,0.0],[-26.526407,-58.969576,0.0],[-26.526333,-58.969589,0.0],[-26.526256,-58.969598,0.0],[-26.526175,-58.969604,0.0],[-26.526088,-58.969606,0.0],[-26.525997,-58.969604,0.0],[-26.525896,-58.969599,0.0],[-26.525492,-58.969565,0.0],[-26.525401,-58.969559,0.0],[-26.525319,-58.969556,0.0],[-26.525225,-58.969555,0.0],[-26.525138,-58.969558,0.0],[-26.525056,-58.969565,0.0],[-26.524979,-58.969576,0.0],[-26.52477,-58.969614,0.0],[-26.524584,-58.969654,0.0],[-26.524497,-58.969676,0.0],[-26.524413,-58.969698,0.0],[-26.524333,-58.969722,0.0],[-26.524255,-58.969747,0.0],[-26.52418,-58.969773,0.0],[-26.524108,-58.9698,0.0],[-26.524038,-58.969829,0.0],[-26.523971,-58.969859,0.0],[-26.523907,-58.96989,0.0],[-26.523846,-58.969923,0.0],[-26.523786,-58.969957,0.0],[-26.52373,-58.969992,0.0],[-26.523625,-58.970063,0.0],[-26.523529,-58.970132,0.0],[-26.523443,-58.970199,0.0],[-26.523365,-58.970266,0.0],[-26.523296,-58.970332,0.0],[-26.523234,-58.970398,0.0],[-26.52318,-58.970463,0.0],[-26.523135,-58.970528,0.0],[-26.523118,-58.970556,0.0],[-26.523103,-58.970587,0.0],[-26.52309,-58.970618,0.0],[-26.523078,-58.970652,0.0],[-26.523069,-58.970687,0.0],[-26.523061,-58.970724,0.0],[-26.523055,-58.970763,0.0],[-26.52305,-58.970804,0.0],[-26.523047,-58.970848,0.0],[-26.523047,-58.970895,0.0],[-26.52305,-58.970999,0.0],[-26.523059,-58.971112,0.0],[-26.523084,-58.971343,0.0],[-26.523093,-58.97144,0.0],[-26.523099,-58.971539,0.0],[-26.523099,-58.971626,0.0],[-26.523097,-58.971676,0.0],[-26.523092,-58.971723,0.0],[-26.523085,-58.971768,0.0],[-26.523076,-58.97181,0.0],[-26.523064,-58.971849,0.0],[-26.523051,-58.971887,0.0],[-26.523034,-58.971922,0.0],[-26.523016,-58.971955,0.0],[-26.522974,-58.972019,0.0],[-26.522925,-58.972083,0.0],[-26.522869,-58.972148,0.0],[-26.522806,-58.972214,0.0],[-26.522737,-58.972281,0.0],[-26.52266,-58.972349,0.0],[-26.522575,-58.972419,0.0],[-26.522481,-58.972491,0.0],[-26.522379,-58.972564,0.0],[-26.522275,-58.972631,0.0],[-26.522169,-58.972693,0.0],[-26.522063,-58.972749,0.0],[-26.521958,-58.972799,0.0],[-26.521853,-58.972842,0.0],[-26.52175,-58.972878,0.0],[-26.521648,-58.972907,0.0],[-26.521608,-58.972916,0.0],[-26.521566,-58.972924,0.0],[-26.521473,-58.972935,0.0],[-26.521374,-58.97294,0.0],[-26.521177,-58.972945,0.0],[-26.521094,-58.972948,0.0],[-26.521009,-58.972956,0.0],[-26.520934,-58.972967,0.0],[-26.520769,-58.973,0.0],[-26.520605,-58.97304,0.0],[-26.520445,-58.973084,0.0],[-26.52029,-58.973134,0.0],[-26.52014,-58.973188,0.0],[-26.519996,-58.973247,0.0],[-26.519858,-58.97331,0.0],[-26.519728,-58.973378,0.0],[-26.519606,-58.973448,0.0],[-26.519491,-58.973523,0.0],[-26.519436,-58.973561,0.0],[-26.519384,-58.9736,0.0],[-26.519333,-58.97364,0.0],[-26.519285,-58.973681,0.0],[-26.519238,-58.973723,0.0],[-26.519194,-58.973766,0.0],[-26.519152,-58.973809,0.0],[-26.519111,-58.973853,0.0],[-26.519073,-58.973898,0.0],[-26.519037,-58.973944,0.0],[-26.519003,-58.97399,0.0],[-26.518971,-58.974037,0.0],[-26.518931,-58.9741,0.0],[-26.518894,-58.974162,0.0],[-26.51886,-58.974223,0.0],[-26.518829,-58.974284,0.0],[-26.5188,-58.974343,0.0],[-26.518775,-58.974401,0.0],[-26.518752,-58.974458,0.0],[-26.518733,-58.974513,0.0],[-26.518721,-58.974557,0.0],[-26.518713,-58.974605,0.0],[-26.518708,-58.974657,0.0],[-26.518706,-58.974714,0.0],[-26.518707,-58.974766,0.0],[-26.518711,-58.974824,0.0],[-26.518728,-58.975017,0.0],[-26.518733,-58.975086,0.0],[-26.518735,-58.975152,0.0],[-26.518734,-58.97521,0.0],[-26.518727,-58.975268,0.0],[-26.518715,-58.97532,0.0],[-26.518707,-58.975344,0.0],[-26.518697,-58.975366,0.0],[-26.518686,-58.975386,0.0],[-26.518673,-58.975406,0.0],[-26.518649,-58.975434,0.0],[-26.518617,-58.97546,0.0],[-26.518577,-58.975484,0.0],[-26.51853,-58.975506,0.0],[-26.518485,-58.975523,0.0],[-26.518431,-58.97554,0.0],[-26.51825,-58.975589,0.0],[-26.518186,-58.975607,0.0],[-26.518128,-58.975628,0.0],[-26.51808,-58.975649,0.0],[-26.518038,-58.975673,0.0],[-26.518004,-58.9757,0.0],[-26.51799,-58.975715,0.0],[-26.517978,-58.97573,0.0],[-26.517968,-58.975746,0.0],[-26.51796,-58.975763,0.0],[-26.517946,-58.975801,0.0],[-26.517937,-58.975845,0.0],[-26.517931,-58.975895,0.0],[-26.517929,-58.975951,0.0],[-26.517931,-58.976011,0.0],[-26.517937,-58.976078,0.0],[-26.517946,-58.976152,0.0],[-26.51796,-58.976238,0.0],[-26.517967,-58.976276,0.0],[-26.517978,-58.976312,0.0],[-26.517992,-58.976348,0.0],[-26.51801,-58.976384,0.0],[-26.51803,-58.97642,0.0],[-26.518054,-58.976456,0.0],[-26.518081,-58.976491,0.0],[-26.518111,-58.976527,0.0],[-26.518144,-58.976562,0.0],[-26.51818,-58.976597,0.0],[-26.51822,-58.976634,0.0],[-26.518265,-58.976672,0.0],[-26.51836,-58.976746,0.0],[-26.518556,-58.976891,0.0],[-26.518635,-58.976952,0.0],[-26.518715,-58.977017,0.0],[-26.518781,-58.977078,0.0],[-26.518817,-58.977115,0.0],[-26.518849,-58.977151,0.0],[-26.518878,-58.977187,0.0],[-26.518903,-58.977223,0.0],[-26.518925,-58.977259,0.0],[-26.518943,-58.977295,0.0],[-26.518959,-58.977332,0.0],[-26.518971,-58.977369,0.0],[-26.518984,-58.977418,0.0],[-26.518995,-58.977469,0.0],[-26.519004,-58.977522,0.0],[-26.519012,-58.977577,0.0],[-26.519018,-58.977634,0.0],[-26.519023,-58.977693,0.0],[-26.519026,-58.977815,0.0],[-26.519023,-58.977942,0.0],[-26.519012,-58.978071,0.0],[-26.518995,-58.978198,0.0],[-26.518971,-58.97832,0.0],[-26.518958,-58.978374,0.0],[-26.518942,-58.978428,0.0],[-26.518924,-58.978482,0.0],[-26.518904,-58.978536,0.0],[-26.518881,-58.97859,0.0],[-26.518855,-58.978644,0.0],[-26.518828,-58.978698,0.0],[-26.518798,-58.978753,0.0],[-26.518765,-58.978807,0.0],[-26.518731,-58.978862,0.0],[-26.518693,-58.978916,0.0],[-26.518654,-58.97897,0.0],[-26.518613,-58.979024,0.0],[-26.518569,-58.979078,0.0],[-26.518523,-58.979131,0.0],[-26.518475,-58.979184,0.0],[-26.518372,-58.979291,0.0],[-26.518261,-58.979394,0.0],[-26.518143,-58.979495,0.0],[-26.518019,-58.979592,0.0],[-26.517889,-58.979685,0.0],[-26.517756,-58.979772,0.0],[-26.51762,-58.979853,0.0],[-26.517484,-58.979927,0.0],[-26.517374,-58.97998,0.0],[-26.517261,-58.980029,0.0],[-26.517148,-58.980075,0.0],[-26.517033,-58.980115,0.0],[-26.51692,-58.980151,0.0],[-26.516808,-58.980181,0.0],[-26.516698,-58.980205,0.0],[-26.516591,-58.980224,0.0],[-26.516548,-58.980229,0.0],[-26.516504,-58.980233,0.0],[-26.516458,-58.980234,0.0],[-26.51641,-58.980233,0.0],[-26.516361,-58.980229,0.0],[-26.51631,-58.980224,0.0],[-26.516257,-58.980216,0.0],[-26.516202,-58.980206,0.0],[-26.516107,-58.980185,0.0],[-26.516,-58.980158,0.0],[-26.515897,-58.980128,0.0],[-26.515656,-58.980055,0.0],[-26.515537,-58.980022,0.0],[-26.515425,-58.979996,0.0],[-26.515326,-58.979978,0.0],[-26.515277,-58.979971,0.0],[-26.515231,-58.979967,0.0],[-26.515186,-58.979965,0.0],[-26.515143,-58.979965,0.0],[-26.515102,-58.979967,0.0],[-26.515062,-58.979971,0.0],[-26.515023,-58.979978,0.0],[-26.514985,-58.979986,0.0],[-26.514924,-58.980004,0.0],[-26.514864,-58.980028,0.0],[-26.514803,-58.980057,0.0],[-26.514743,-58.980091,0.0],[-26.514683,-58.98013,0.0],[-26.514623,-58.980175,0.0],[-26.514562,-58.980226,0.0],[-26.5145,-58.980283,0.0],[-26.514449,-58.980333,0.0],[-26.514397,-58.980388,0.0],[-26.514343,-58.980448,0.0],[-26.514286,-58.980515,0.0],[-26.514181,-58.980644,0.0],[-26.513921,-58.980972,0.0],[-26.513848,-58.981062,0.0],[-26.51378,-58.98114,0.0],[-26.513706,-58.98122,0.0],[-26.513636,-58.981292,0.0],[-26.513566,-58.981356,0.0],[-26.513498,-58.981414,0.0],[-26.513343,-58.981536,0.0],[-26.513193,-58.981651,0.0],[-26.513046,-58.981761,0.0],[-26.512902,-58.981866,0.0],[-26.51276,-58.981966,0.0],[-26.51262,-58.982061,0.0],[-26.512482,-58.982152,0.0],[-26.512346,-58.982238,0.0],[-26.512211,-58.98232,0.0],[-26.512077,-58.982398,0.0],[-26.511944,-58.982472,0.0],[-26.511813,-58.982542,0.0],[-26.511682,-58.982608,0.0],[-26.511553,-58.98267,0.0],[-26.511425,-58.982728,0.0],[-26.511297,-58.982782,0.0],[-26.511181,-58.982827,0.0],[-26.511058,-58.982868,0.0],[-26.510927,-58.982908,0.0],[-26.510786,-58.982945,0.0],[-26.510647,-58.982978,0.0],[-26.510491,-58.983012,0.0],[-26.509894,-58.983127,0.0],[-26.509761,-58.983154,0.0],[-26.509643,-58.98318,0.0],[-26.509508,-58.983213,0.0],[-26.509383,-58.983246,0.0],[-26.509266,-58.983281,0.0],[-26.509156,-58.983317,0.0],[-26.509018,-58.983369,0.0],[-26.508876,-58.983429,0.0],[-26.508728,-58.983498,0.0],[-26.508572,-58.983578,0.0],[-26.508436,-58.983651,0.0],[-26.508286,-58.983736,0.0],[-26.507793,-58.984027,0.0],[-26.507609,-58.984132,0.0],[-26.507427,-58.984232,0.0],[-26.507261,-58.984317,0.0],[-26.507172,-58.984359,0.0],[-26.507085,-58.984398,0.0],[-26.507001,-58.984434,0.0],[-26.506918,-58.984466,0.0],[-26.506836,-58.984496,0.0],[-26.506756,-58.984522,0.0],[-26.506676,-58.984546,0.0],[-26.506598,-58.984567,0.0],[-26.506527,-58.984583,0.0],[-26.506454,-58.984597,0.0],[-26.506378,-58.984609,0.0],[-26.506301,-58.984619,0.0],[-26.506221,-58.984627,0.0],[-26.506137,-58.984634,0.0],[-26.506051,-58.984638,0.0],[-26.50596,-58.98464,0.0],[-26.505805,-58.98464,0.0],[-26.505631,-58.984635,0.0],[-26.505464,-58.984627,0.0],[-26.505065,-58.984605,0.0],[-26.504864,-58.984597,0.0],[-26.504674,-58.984595,0.0],[-26.504503,-58.984599,0.0],[-26.504422,-58.984603,0.0],[-26.504344,-58.98461,0.0],[-26.504268,-58.984618,0.0],[-26.504194,-58.984628,0.0],[-26.504123,-58.984639,0.0],[-26.504054,-58.984653,0.0],[-26.503986,-58.984668,0.0],[-26.503921,-58.984686,0.0],[-26.503791,-58.984724,0.0],[-26.503663,-58.984764,0.0],[-26.503535,-58.984808,0.0],[-26.503409,-58.984854,0.0],[-26.503284,-58.984903,0.0],[-26.503161,-58.984954,0.0],[-26.503041,-58.985007,0.0],[-26.502922,-58.985063,0.0],[-26.502807,-58.98512,0.0],[-26.502693,-58.98518,0.0],[-26.502583,-58.985242,0.0],[-26.502475,-58.985306,0.0],[-26.502371,-58.985371,0.0],[-26.50227,-58.985438,0.0],[-26.502171,-58.985507,0.0],[-26.502077,-58.985578,0.0],[-26.502008,-58.985633,0.0],[-26.501934,-58.985698,0.0],[-26.501854,-58.985771,0.0],[-26.501625,-58.98599,0.0],[-26.50155,-58.986056,0.0],[-26.501482,-58.986113,0.0],[-26.501399,-58.986177,0.0],[-26.501314,-58.986241,0.0],[-26.501225,-58.986304,0.0],[-26.501133,-58.986366,0.0],[-26.501038,-58.986428,0.0],[-26.500938,-58.98649,0.0],[-26.500835,-58.986551,0.0],[-26.500727,-58.986613,0.0],[-26.500506,-58.986733,0.0],[-26.500259,-58.986859,0.0],[-26.499986,-58.986992,0.0],[-26.499578,-58.987184,0.0],[-26.499154,-58.987383,0.0],[-26.498885,-58.987505,0.0],[-26.498635,-58.987613,0.0],[-26.498407,-58.987704,0.0],[-26.498292,-58.987747,0.0],[-26.49818,-58.987786,0.0],[-26.498072,-58.987822,0.0],[-26.497965,-58.987855,0.0],[-26.49786,-58.987885,0.0],[-26.497757,-58.987912,0.0],[-26.497656,-58.987936,0.0],[-26.497556,-58.987957,0.0],[-26.497448,-58.987976,0.0],[-26.49733,-58.987992,0.0],[-26.497194,-58.988006,0.0],[-26.49691,-58.98803,0.0],[-26.496787,-58.988042,0.0],[-26.496659,-58.988058,0.0],[-26.496544,-58.988076,0.0],[-26.496369,-58.988112,0.0],[-26.496188,-58.988155,0.0],[-26.496,-58.988205,0.0],[-26.495803,-58.988264,0.0],[-26.4956,-58.988329,0.0],[-26.495381,-58.988405,0.0],[-26.495139,-58.988492,0.0],[-26.494819,-58.988612,0.0],[-26.494682,-58.988666,0.0],[-26.49454,-58.988725,0.0],[-26.494394,-58.988791,0.0],[-26.49424,-58.988865,0.0],[-26.494079,-58.988945,0.0],[-26.493902,-58.989037,0.0],[-26.493198,-58.989416,0.0],[-26.493036,-58.989502,0.0],[-26.492891,-58.989576,0.0],[-26.492721,-58.989659,0.0],[-26.492562,-58.989734,0.0],[-26.492409,-58.989801,0.0],[-26.492261,-58.989861,0.0],[-26.491831,-58.990029,0.0],[-26.491687,-58.990083,0.0],[-26.491557,-58.99013,0.0],[-26.491427,-58.990174,0.0],[-26.491304,-58.990213,0.0],[-26.491185,-58.990247,0.0],[-26.491072,-58.990277,0.0],[-26.490999,-58.990294,0.0],[-26.490924,-58.99031,0.0],[-26.490769,-58.990337,0.0],[-26.490605,-58.990359,0.0],[-26.490427,-58.990376,0.0],[-26.490269,-58.990387,0.0],[-26.490092,-58.990395,0.0],[-26.489487,-58.99041,0.0],[-26.489254,-58.990419,0.0],[-26.489133,-58.990426,0.0],[-26.48902,-58.990434,0.0],[-26.488913,-58.990444,0.0],[-26.488811,-58.990456,0.0],[-26.488482,-58.990499,0.0],[-26.488153,-58.990548,0.0],[-26.487825,-58.9906,0.0],[-26.487498,-58.990658,0.0],[-26.487171,-58.990719,0.0],[-26.486845,-58.990786,0.0],[-26.486519,-58.990856,0.0],[-26.486194,-58.990932,0.0],[-26.48429,-58.991289,0.0],[-26.484308,-58.991351,0.0],[-26.484323,-58.991413,0.0],[-26.484336,-58.991474,0.0],[-26.484347,-58.991533,0.0],[-26.484355,-58.991592,0.0],[-26.484361,-58.99165,0.0],[-26.484364,-58.991708,0.0],[-26.484366,-58.991764,0.0],[-26.484364,-58.991819,0.0],[-26.484361,-58.991874,0.0],[-26.484355,-58.991927,0.0],[-26.484347,-58.99198,0.0],[-26.484336,-58.992031,0.0],[-26.484323,-58.992082,0.0],[-26.484308,-58.992132,0.0],[-26.48429,-58.992181,0.0],[-26.484275,-58.992217,0.0],[-26.484257,-58.992254,0.0],[-26.484236,-58.992291,0.0],[-26.484213,-58.992328,0.0],[-26.484187,-58.992366,0.0],[-26.484159,-58.992403,0.0],[-26.484127,-58.992442,0.0],[-26.484094,-58.99248,0.0],[-26.484019,-58.992557,0.0],[-26.483932,-58.992638,0.0],[-26.483832,-58.992724,0.0],[-26.483695,-58.992835,0.0],[-26.48364,-58.992877,0.0],[-26.483581,-58.992919,0.0],[-26.483517,-58.99296,0.0],[-26.483446,-58.993003,0.0],[-26.483312,-58.993078,0.0],[-26.482981,-58.993252,0.0],[-26.482884,-58.993304,0.0],[-26.482784,-58.993355,0.0],[-26.482681,-58.993404,0.0],[-26.482574,-58.993453,0.0],[-26.482465,-58.993501,0.0],[-26.482352,-58.993548,0.0],[-26.482235,-58.993595,0.0],[-26.482114,-58.993641,0.0],[-26.481985,-58.993688,0.0],[-26.48185,-58.993735,0.0],[-26.481556,-58.993831,0.0],[-26.481242,-58.993927,0.0],[-26.48061,-58.994114,0.0],[-26.480345,-58.994194,0.0],[-26.480068,-58.994281,0.0],[-26.479822,-58.994365,0.0],[-26.479678,-58.994416,0.0],[-26.479541,-58.994468,0.0],[-26.479409,-58.994521,0.0],[-26.479283,-58.994574,0.0],[-26.479161,-58.994628,0.0],[-26.479043,-58.994683,0.0],[-26.478928,-58.99474,0.0],[-26.478817,-58.994798,0.0],[-26.478733,-58.994847,0.0],[-26.478642,-58.994905,0.0],[-26.478547,-58.994969,0.0],[-26.478286,-58.995152,0.0],[-26.478205,-58.995205,0.0],[-26.478131,-58.99525,0.0],[-26.478045,-58.995298,0.0],[-26.477963,-58.995337,0.0],[-26.477884,-58.995369,0.0],[-26.477806,-58.995393,0.0],[-26.477668,-58.995429,0.0],[-26.477553,-58.995457,0.0],[-26.477446,-58.995481,0.0],[-26.477347,-58.9955,0.0],[-26.477254,-58.995515,0.0],[-26.477168,-58.995526,0.0],[-26.477115,-58.99553,0.0],[-26.473285,-58.998268,0.0],[-26.46946,-59.001072,0.0],[-26.462692,-59.004481,0.0],[-26.456953,-59.007285,0.0],[-26.452098,-59.009103,0.0],[-26.448567,-59.010845,0.0],[-26.450185,-59.01327,0.0],[-26.450259,-59.014798,0.0],[-26.456873,-59.017297,0.0],[-26.456806,-59.017208,0.0],[-26.456365,-59.015845,0.0],[-26.4571,-59.015012,0.0],[-26.458572,-59.015163,0.0],[-26.46225,-59.016527,0.0],[-26.465046,-59.016981,0.0],[-26.466959,-59.017436,0.0],[-26.466811,-59.018648,0.0],[-26.465716,-59.019672,0.0],[-26.470734,-59.02115,0.0],[-26.479312,-59.022708,0.0],[-26.483584,-59.021908,0.0],[-26.48873,-59.019894,0.0],[-26.492647,-59.017946,0.0],[-26.49764,-59.015316,0.0],[-26.502826,-59.012767,0.0],[-26.502939,-59.012721,0.0],[-26.500746,-59.010516,0.0],[-26.500283,-59.008869,0.0],[-26.502287,-59.006288,0.0],[-26.504492,-59.003191,0.0],[-26.506146,-59.000817,0.0],[-26.508903,-58.997513,0.0],[-26.511509,-58.993795,0.0],[-26.514716,-58.990387,0.0],[-26.518926,-58.987185,0.0],[-26.523136,-58.983777,0.0],[-26.526544,-58.979955,0.0],[-26.528549,-58.976235,0.0],[-26.532079,-58.968956,0.0]]]}},{"type":"Feature","properties":{"rgi_id":"RGI2000-v7.0-G-19-00946","o1region":"19"},"geometry":{"type":"Polygon","coordinates":[[[-26.450259,-59.014798,0.0],[-26.450332,-59.0163,0.0],[-26.449302,-59.018875,0.0],[-26.447831,-59.023267,0.0],[-26.451362,-59.024176,0.0],[-26.455776,-59.027129,0.0],[-26.458425,-59.029174,0.0],[-26.460337,-59.030839,0.0],[-26.464751,-59.030688,0.0],[-26.464751,-59.031597,0.0],[-26.462103,-59.032732,0.0],[-26.461514,-59.034095,0.0],[-26.463427,-59.035609,0.0],[-26.467106,-59.038788,0.0],[-26.469166,-59.040983,0.0],[-26.47358,-59.043784,0.0],[-26.490059,-59.049384,0.0],[-26.497416,-59.051805,0.0],[-26.499475,-59.050595,0.0],[-26.501683,-59.049838,0.0],[-26.505214,-59.051276,0.0],[-26.509039,-59.052865,0.0],[-26.512718,-59.055967,0.0],[-26.513895,-59.057707,0.0],[-26.517867,-59.059749,0.0],[-26.523164,-59.060128,0.0],[-26.532655,-59.058637,0.0],[-26.528198,-59.051989,0.0],[-26.526995,-59.048587,0.0],[-26.525792,-59.04704,0.0],[-26.525191,-59.044668,0.0],[-26.530557,-59.042189,0.0],[-26.534462,-59.040286,0.0],[-26.535515,-59.039074,0.0],[-26.535898,-59.03739,0.0],[-26.535816,-59.035799,0.0],[-26.532508,-59.033994,0.0],[-26.528749,-59.031596,0.0],[-26.528749,-59.02943,0.0],[-26.53018,-59.028283,0.0],[-26.531907,-59.027042,0.0],[-26.53341,-59.025381,0.0],[-26.535765,-59.023523,0.0],[-26.535415,-59.02115,0.0],[-26.532383,-59.017977,0.0],[-26.530783,-59.016188,0.0],[-26.528957,-59.014974,0.0],[-26.524744,-59.014853,0.0],[-26.521757,-59.014883,0.0],[-26.517825,-59.015428,0.0],[-26.518309,-59.015997,0.0],[-26.517941,-59.01683,0.0],[-26.516764,-59.016943,0.0],[-26.51544,-59.016186,0.0],[-26.515219,-59.01558,0.0],[-26.515219,-59.01505,0.0],[-26.51566,-59.014671,0.0],[-26.516345,-59.01473,0.0],[-26.515142,-59.013812,0.0],[-26.512266,-59.012322,0.0],[-26.508347,-59.011457,0.0],[-26.505681,-59.011608,0.0],[-26.502939,-59.012721,0.0],[-26.502826,-59.012767,0.0],[-26.49764,-59.015316,0.0],[-26.492647,-59.017946,0.0],[-26.48873,-59.019894,0.0],[-26.483584,-59.021908,0.0],[-26.479312,-59.022708,0.0],[-26.470734,-59.02115,0.0],[-26.465716,-59.019672,0.0],[-26.465193,-59.020162,0.0],[-26.462103,-59.020768,0.0],[-26.46019,-59.020541,0.0],[-26.45813,-59.01895,0.0],[-26.456873,-59.017297,0.0],[-26.450259,-59.014798,0.0]]]}},{"type":"Feature","properties":{"rgi_id":"RGI2000-v7.0-G-19-00947","o1region":"19"},"geometry":{"type":"Polygon","coordinates":[[[-26.553993,-59.05715,0.0],[-26.554208,-59.057018,0.0],[-26.554331,-59.056939,0.0],[-26.554445,-59.05686,0.0],[-26.554544,-59.056783,0.0],[-26.554601,-59.056735,0.0],[-26.554658,-59.056683,0.0],[-26.554715,-59.056629,0.0],[-26.554771,-59.056571,0.0],[-26.554827,-59.056511,0.0],[-26.554883,-59.056447,0.0],[-26.55494,-59.05638,0.0],[-26.554997,-59.056308,0.0],[-26.555096,-59.056177,0.0],[-26.555202,-59.056027,0.0],[-26.555304,-59.055877,0.0],[-26.555565,-59.055484,0.0],[-26.555643,-59.055371,0.0],[-26.555714,-59.055271,0.0],[-26.555796,-59.05516,0.0],[-26.555876,-59.055059,0.0],[-26.555954,-59.054966,0.0],[-26.556031,-59.05488,0.0],[-26.556124,-59.054782,0.0],[-26.556221,-59.054684,0.0],[-26.556321,-59.054586,0.0],[-26.556427,-59.054488,0.0],[-26.556536,-59.054389,0.0],[-26.556651,-59.054289,0.0],[-26.556772,-59.054187,0.0],[-26.556899,-59.054083,0.0],[-26.557121,-59.053907,0.0],[-26.557372,-59.053716,0.0],[-26.557618,-59.053534,0.0],[-26.558226,-59.053089,0.0],[-26.558543,-59.05285,0.0],[-26.558703,-59.052726,0.0],[-26.558852,-59.052608,0.0],[-26.558992,-59.052493,0.0],[-26.559124,-59.052381,0.0],[-26.559307,-59.052226,0.0],[-26.559513,-59.052055,0.0],[-26.560243,-59.051463,0.0],[-26.56053,-59.051227,0.0],[-26.56068,-59.0511,0.0],[-26.560819,-59.050981,0.0],[-26.560949,-59.050866,0.0],[-26.561072,-59.050754,0.0],[-26.561218,-59.050618,0.0],[-26.561355,-59.050485,0.0],[-26.561485,-59.050353,0.0],[-26.561608,-59.050223,0.0],[-26.561725,-59.050093,0.0],[-26.561835,-59.049963,0.0],[-26.56194,-59.049834,0.0],[-26.562039,-59.049704,0.0],[-26.562111,-59.049605,0.0],[-26.562187,-59.049491,0.0],[-26.562419,-59.049126,0.0],[-26.562497,-59.049006,0.0],[-26.562567,-59.048903,0.0],[-26.562634,-59.048812,0.0],[-26.562747,-59.048665,0.0],[-26.562863,-59.048521,0.0],[-26.562982,-59.04838,0.0],[-26.563104,-59.048241,0.0],[-26.563228,-59.048105,0.0],[-26.563356,-59.047972,0.0],[-26.563485,-59.047842,0.0],[-26.563618,-59.047714,0.0],[-26.563754,-59.047589,0.0],[-26.563892,-59.047467,0.0],[-26.564033,-59.047348,0.0],[-26.564177,-59.047232,0.0],[-26.564323,-59.047118,0.0],[-26.564472,-59.047007,0.0],[-26.564624,-59.046899,0.0],[-26.564779,-59.046793,0.0],[-26.564937,-59.04669,0.0],[-26.565097,-59.04659,0.0],[-26.56526,-59.046493,0.0],[-26.565426,-59.046399,0.0],[-26.565594,-59.046307,0.0],[-26.565766,-59.046218,0.0],[-26.56594,-59.046132,0.0],[-26.566117,-59.046049,0.0],[-26.566296,-59.045968,0.0],[-26.566479,-59.04589,0.0],[-26.566664,-59.045815,0.0],[-26.566852,-59.045743,0.0],[-26.567042,-59.045673,0.0],[-26.567236,-59.045606,0.0],[-26.567432,-59.045542,0.0],[-26.567631,-59.045481,0.0],[-26.571914,-59.042982,0.0],[-26.572015,-59.042837,0.0],[-26.572119,-59.042695,0.0],[-26.572226,-59.042556,0.0],[-26.572336,-59.04242,0.0],[-26.572449,-59.042288,0.0],[-26.572565,-59.042159,0.0],[-26.572684,-59.042034,0.0],[-26.572806,-59.041912,0.0],[-26.572861,-59.04186,0.0],[-26.572918,-59.041809,0.0],[-26.572977,-59.041758,0.0],[-26.57304,-59.041709,0.0],[-26.573105,-59.041659,0.0],[-26.573173,-59.04161,0.0],[-26.573245,-59.041561,0.0],[-26.57332,-59.041512,0.0],[-26.573471,-59.041419,0.0],[-26.573642,-59.04132,0.0],[-26.573821,-59.041222,0.0],[-26.57432,-59.040957,0.0],[-26.57447,-59.040874,0.0],[-26.574603,-59.040796,0.0],[-26.574752,-59.040702,0.0],[-26.574887,-59.040611,0.0],[-26.575012,-59.040518,0.0],[-26.57507,-59.040472,0.0],[-26.575126,-59.040424,0.0],[-26.575182,-59.040375,0.0],[-26.575238,-59.040322,0.0],[-26.575359,-59.040202,0.0],[-26.57547,-59.040083,0.0],[-26.575734,-59.039793,0.0],[-26.575806,-59.039718,0.0],[-26.575871,-59.039651,0.0],[-26.575941,-59.039583,0.0],[-26.576008,-59.039521,0.0],[-26.576073,-59.039465,0.0],[-26.576137,-59.039413,0.0],[-26.576201,-59.039365,0.0],[-26.576267,-59.039319,0.0],[-26.576336,-59.039273,0.0],[-26.576409,-59.039228,0.0],[-26.576484,-59.039184,0.0],[-26.576563,-59.03914,0.0],[-26.576646,-59.039097,0.0],[-26.576733,-59.039053,0.0],[-26.576885,-59.038983,0.0],[-26.577056,-59.038908,0.0],[-26.577223,-59.038838,0.0],[-26.577631,-59.038673,0.0],[-26.57784,-59.038584,0.0],[-26.577945,-59.038537,0.0],[-26.578042,-59.038491,0.0],[-26.578133,-59.038447,0.0],[-26.578219,-59.038402,0.0],[-26.578464,-59.038267,0.0],[-26.578717,-59.03812,0.0],[-26.57898,-59.037959,0.0],[-26.579259,-59.037781,0.0],[-26.579497,-59.037624,0.0],[-26.579762,-59.037445,0.0],[-26.580605,-59.036862,0.0],[-26.580902,-59.036659,0.0],[-26.581182,-59.036472,0.0],[-26.581438,-59.036306,0.0],[-26.581672,-59.03616,0.0],[-26.581896,-59.036025,0.0],[-26.582113,-59.0359,0.0],[-26.582324,-59.035784,0.0],[-26.58247,-59.035709,0.0],[-26.582634,-59.035627,0.0],[-26.583181,-59.035365,0.0],[-26.583382,-59.035267,0.0],[-26.583578,-59.035166,0.0],[-26.583752,-59.035071,0.0],[-26.583851,-59.035013,0.0],[-26.583952,-59.034952,0.0],[-26.584053,-59.034888,0.0],[-26.584155,-59.03482,0.0],[-26.584258,-59.034749,0.0],[-26.584363,-59.034675,0.0],[-26.58447,-59.034597,0.0],[-26.584579,-59.034514,0.0],[-26.584792,-59.034346,0.0],[-26.585023,-59.034156,0.0],[-26.58526,-59.033955,0.0],[-26.585907,-59.033398,0.0],[-26.586106,-59.03323,0.0],[-26.586288,-59.033083,0.0],[-26.586499,-59.032918,0.0],[-26.586699,-59.03277,0.0],[-26.586797,-59.032701,0.0],[-26.586893,-59.032635,0.0],[-26.586989,-59.032573,0.0],[-26.587083,-59.032513,0.0],[-26.587282,-59.032393,0.0],[-26.587492,-59.032273,0.0],[-26.587716,-59.032152,0.0],[-26.587957,-59.032029,0.0],[-26.588192,-59.031914,0.0],[-26.588453,-59.03179,0.0],[-26.58872,-59.031667,0.0],[-26.589443,-59.031337,0.0],[-26.58966,-59.031236,0.0],[-26.589854,-59.031144,0.0],[-26.590075,-59.031035,0.0],[-26.590279,-59.030931,0.0],[-26.590471,-59.030829,0.0],[-26.590652,-59.030728,0.0],[-26.590843,-59.030616,0.0],[-26.59104,-59.030496,0.0],[-26.591246,-59.030364,0.0],[-26.591464,-59.03022,0.0],[-26.591653,-59.030092,0.0],[-26.591863,-59.029946,0.0],[-26.592555,-59.029458,0.0],[-26.592812,-59.029278,0.0],[-26.593067,-59.029104,0.0],[-26.593299,-59.02895,0.0],[-26.593544,-59.028795,0.0],[-26.593777,-59.028654,0.0],[-26.594002,-59.028525,0.0],[-26.594221,-59.028408,0.0],[-26.594443,-59.028296,0.0],[-26.594677,-59.028183,0.0],[-26.594924,-59.028069,0.0],[-26.595189,-59.027951,0.0],[-26.595454,-59.027836,0.0],[-26.59575,-59.027711,0.0],[-26.59666,-59.027337,0.0],[-26.596973,-59.027211,0.0],[-26.597294,-59.027087,0.0],[-26.597624,-59.026965,0.0],[-26.597963,-59.026844,0.0],[-26.598312,-59.026724,0.0],[-26.598672,-59.026604,0.0],[-26.599046,-59.026485,0.0],[-26.599436,-59.026365,0.0],[-26.599773,-59.026264,0.0],[-26.600126,-59.026161,0.0],[-26.600498,-59.026055,0.0],[-26.600896,-59.025943,0.0],[-26.601653,-59.025737,0.0],[-26.603583,-59.02522,0.0],[-26.604137,-59.025068,0.0],[-26.604635,-59.024928,0.0],[-26.605187,-59.024767,0.0],[-26.605702,-59.024611,0.0],[-26.606189,-59.024457,0.0],[-26.606654,-59.024304,0.0],[-26.606869,-59.02423,0.0],[-26.607092,-59.024151,0.0],[-26.607327,-59.024066,0.0],[-26.607576,-59.023973,0.0],[-26.608064,-59.023788,0.0],[-26.608996,-59.023427,0.0],[-26.609378,-59.023281,0.0],[-26.609775,-59.023132,0.0],[-26.610132,-59.023002,0.0],[-26.610543,-59.022859,0.0],[-26.610738,-59.022793,0.0],[-26.610928,-59.022732,0.0],[-26.611114,-59.022674,0.0],[-26.611296,-59.022619,0.0],[-26.611475,-59.022568,0.0],[-26.611651,-59.022519,0.0],[-26.61189,-59.022457,0.0],[-26.612139,-59.022397,0.0],[-26.612402,-59.022339,0.0],[-26.612681,-59.022282,0.0],[-26.612969,-59.022227,0.0],[-26.613289,-59.02217,0.0],[-26.613623,-59.022113,0.0],[-26.614554,-59.021957,0.0],[-26.614841,-59.021907,0.0],[-26.615097,-59.02186,0.0],[-26.615392,-59.021803,0.0],[-26.615666,-59.021746,0.0],[-26.615925,-59.021687,0.0],[-26.616172,-59.021627,0.0],[-26.616906,-59.021437,0.0],[-26.61749,-59.021281,0.0],[-26.617761,-59.021206,0.0],[-26.618018,-59.021132,0.0],[-26.618265,-59.02106,0.0],[-26.618502,-59.020987,0.0],[-26.618738,-59.020913,0.0],[-26.618966,-59.020839,0.0],[-26.619188,-59.020764,0.0],[-26.619404,-59.020689,0.0],[-26.619615,-59.020613,0.0],[-26.61982,-59.020535,0.0],[-26.620021,-59.020457,0.0],[-26.620217,-59.020377,0.0],[-26.62063,-59.020204,0.0],[-26.620998,-59.020044,0.0],[-26.621338,-59.019889,0.0],[-26.621656,-59.019738,0.0],[-26.621809,-59.019662,0.0],[-26.621958,-59.019587,0.0],[-26.622103,-59.019511,0.0],[-26.622244,-59.019435,0.0],[-26.622382,-59.019359,0.0],[-26.622516,-59.019283,0.0],[-26.622647,-59.019206,0.0],[-26.622775,-59.019128,0.0],[-26.623082,-59.018935,0.0],[-26.62323,-59.01884,0.0],[-26.623374,-59.018744,0.0],[-26.623515,-59.018648,0.0],[-26.623652,-59.018552,0.0],[-26.623786,-59.018456,0.0],[-26.623917,-59.01836,0.0],[-26.624045,-59.018264,0.0],[-26.62417,-59.018168,0.0],[-26.624291,-59.018071,0.0],[-26.62441,-59.017974,0.0],[-26.624526,-59.017876,0.0],[-26.624639,-59.017778,0.0],[-26.62475,-59.01768,0.0],[-26.624857,-59.017582,0.0],[-26.625136,-59.01732,0.0],[-26.625324,-59.017139,0.0],[-26.625492,-59.016971,0.0],[-26.625639,-59.016814,0.0],[-26.62571,-59.016736,0.0],[-26.625777,-59.016658,0.0],[-26.62584,-59.016582,0.0],[-26.6259,-59.016507,0.0],[-26.625956,-59.016433,0.0],[-26.626009,-59.016359,0.0],[-26.626059,-59.016286,0.0],[-26.626106,-59.016213,0.0],[-26.626178,-59.016092,0.0],[-26.626246,-59.015964,0.0],[-26.62631,-59.01583,0.0],[-26.626369,-59.015689,0.0],[-26.626425,-59.015542,0.0],[-26.626477,-59.015387,0.0],[-26.626525,-59.015225,0.0],[-26.626569,-59.015054,0.0],[-26.626607,-59.01489,0.0],[-26.626643,-59.014718,0.0],[-26.626676,-59.014534,0.0],[-26.626709,-59.014337,0.0],[-26.626735,-59.014164,0.0],[-26.626761,-59.013971,0.0],[-26.626846,-59.013311,0.0],[-26.626879,-59.013061,0.0],[-26.62694,-59.012622,0.0],[-26.626984,-59.012288,0.0],[-26.62702,-59.011985,0.0],[-26.62705,-59.011707,0.0],[-26.627074,-59.011437,0.0],[-26.627092,-59.011181,0.0],[-26.627104,-59.010936,0.0],[-26.62711,-59.0107,0.0],[-26.627111,-59.010466,0.0],[-26.627105,-59.010239,0.0],[-26.627093,-59.01002,0.0],[-26.627075,-59.009808,0.0],[-26.62705,-59.009601,0.0],[-26.62702,-59.0094,0.0],[-26.627002,-59.009302,0.0],[-26.626982,-59.009205,0.0],[-26.626961,-59.00911,0.0],[-26.626939,-59.009016,0.0],[-26.626916,-59.008931,0.0],[-26.62689,-59.008843,0.0],[-26.626859,-59.008751,0.0],[-26.626823,-59.008653,0.0],[-26.626753,-59.008475,0.0],[-26.626581,-59.008063,0.0],[-26.62654,-59.00796,0.0],[-26.626505,-59.007866,0.0],[-26.626474,-59.007776,0.0],[-26.626447,-59.00769,0.0],[-26.626424,-59.007608,0.0],[-26.626404,-59.007528,0.0],[-26.626388,-59.007455,0.0],[-26.626375,-59.007378,0.0],[-26.626364,-59.007295,0.0],[-26.626356,-59.007206,0.0],[-26.626345,-59.007039,0.0],[-26.626329,-59.006629,0.0],[-26.626321,-59.006518,0.0],[-26.626311,-59.006419,0.0],[-26.626296,-59.006314,0.0],[-26.626277,-59.006217,0.0],[-26.626253,-59.006126,0.0],[-26.626225,-59.006041,0.0],[-26.626192,-59.005953,0.0],[-26.626157,-59.005868,0.0],[-26.626122,-59.005786,0.0],[-26.626085,-59.005706,0.0],[-26.626048,-59.005629,0.0],[-26.626023,-59.005582,0.0],[-26.615713,-59.006603,0.0],[-26.608565,-59.007469,0.0],[-26.601165,-59.008075,0.0],[-26.595867,-59.008378,0.0],[-26.590064,-59.007642,0.0],[-26.583841,-59.007555,0.0],[-26.581571,-59.008118,0.0],[-26.578123,-59.008638,0.0],[-26.574254,-59.007988,0.0],[-26.570554,-59.007296,0.0],[-26.566602,-59.006083,0.0],[-26.562902,-59.004957,0.0],[-26.559958,-59.004308,0.0],[-26.559874,-59.00604,0.0],[-26.559117,-59.007599,0.0],[-26.556006,-59.010413,0.0],[-26.555094,-59.010869,0.0],[-26.552545,-59.010594,0.0],[-26.549265,-59.011006,0.0],[-26.54603,-59.011181,0.0],[-26.545873,-59.011203,0.0],[-26.54597,-59.011679,0.0],[-26.546853,-59.012664,0.0],[-26.545088,-59.014027,0.0],[-26.540379,-59.013573,0.0],[-26.537731,-59.0138,0.0],[-26.537299,-59.013736,0.0],[-26.5361,-59.014331,0.0],[-26.532863,-59.014565,0.0],[-26.528957,-59.014974,0.0],[-26.530783,-59.016188,0.0],[-26.532383,-59.017977,0.0],[-26.535415,-59.02115,0.0],[-26.535765,-59.023523,0.0],[-26.53341,-59.025381,0.0],[-26.531907,-59.027042,0.0],[-26.53018,-59.028283,0.0],[-26.528749,-59.02943,0.0],[-26.528749,-59.031596,0.0],[-26.532508,-59.033994,0.0],[-26.535816,-59.035799,0.0],[-26.535898,-59.03739,0.0],[-26.535515,-59.039074,0.0],[-26.534462,-59.040286,0.0],[-26.530557,-59.042189,0.0],[-26.525191,-59.044668,0.0],[-26.525792,-59.04704,0.0],[-26.526995,-59.048587,0.0],[-26.528198,-59.051989,0.0],[-26.532655,-59.058637,0.0],[-26.533758,-59.058463,0.0],[-26.541998,-59.058161,0.0],[-26.548472,-59.057556,0.0],[-26.553993,-59.05715,0.0]]]}}]}
