{"type":"FeatureCollection","features":[{"type":"Feature","properties":{"rgi_id":"RGI2000-v7.0-G-11-04035","o1region":"11"},"geometry":{"type":"Polygon","coordinates":[[[-0.291708,42.835087,0.0],[-0.29159,42.835092,0.0],[-0.291489,42.835092,0.0],[-0.291399,42.835059,0.0],[-0.291293,42.835031,0.0],[-0.291209,42.834997,0.0],[-0.29113,42.834896,0.0],[-0.291091,42.83479,0.0],[-0.291108,42.834565,0.0],[-0.291091,42.834476,0.0],[-0.291091,42.834397,0.0],[-0.291136,42.834229,0.0],[-0.291192,42.834123,0.0],[-0.291315,42.834005,0.0],[-0.291528,42.833787,0.0],[-0.291803,42.833697,0.0],[-0.291881,42.833675,0.0],[-0.292038,42.833635,0.0],[-0.29224,42.833607,0.0],[-0.292481,42.833652,0.0],[-0.292649,42.833899,0.0],[-0.292683,42.834156,0.0],[-0.292671,42.834437,0.0],[-0.292627,42.834672,0.0],[-0.292526,42.834739,0.0],[-0.292324,42.834818,0.0],[-0.292133,42.834907,0.0],[-0.291898,42.835031,0.0],[-0.291708,42.835087,0.0]]]}},{"type":"Feature","properties":{"rgi_id":"RGI2000-v7.0-G-11-04036","o1region":"11"},"geometry":{"type":"Polygon","coordinates":[[[-0.288417,42.838714,0.0],[-0.288454,42.838753,0.0],[-0.288476,42.838787,0.0],[-0.288503,42.83884,0.0],[-0.288555,42.838908,0.0],[-0.288604,42.838947,0.0],[-0.288648,42.838967,0.0],[-0.288731,42.839021,0.0],[-0.28878,42.83905,0.0],[-0.288897,42.839084,0.0],[-0.288926,42.839186,0.0],[-0.28891,42.839258,0.0],[-0.288892,42.839362,0.0],[-0.288741,42.839484,0.0],[-0.288475,42.839586,0.0],[-0.288309,42.839596,0.0],[-0.288065,42.839577,0.0],[-0.287724,42.839504,0.0],[-0.287655,42.839465,0.0],[-0.287599,42.839347,0.0],[-0.287516,42.839323,0.0],[-0.287399,42.839367,0.0],[-0.28736,42.839401,0.0],[-0.287194,42.839557,0.0],[-0.28696,42.839635,0.0],[-0.286667,42.839674,0.0],[-0.28618,42.839586,0.0],[-0.286048,42.839518,0.0],[-0.285911,42.839426,0.0],[-0.285853,42.839372,0.0],[-0.285799,42.839352,0.0],[-0.285745,42.839323,0.0],[-0.285682,42.839265,0.0],[-0.285633,42.839235,0.0],[-0.28558,42.839221,0.0],[-0.285516,42.839177,0.0],[-0.28535,42.839177,0.0],[-0.285155,42.838991,0.0],[-0.285048,42.838884,0.0],[-0.284893,42.838835,0.0],[-0.284632,42.838848,0.0],[-0.284446,42.83891,0.0],[-0.284098,42.839295,0.0],[-0.283794,42.839519,0.0],[-0.283483,42.83963,0.0],[-0.283322,42.839792,0.0],[-0.283228,42.839866,0.0],[-0.283098,42.839935,0.0],[-0.282943,42.839978,0.0],[-0.282669,42.840009,0.0],[-0.282311,42.839947,0.0],[-0.282133,42.839796,0.0],[-0.282074,42.839757,0.0],[-0.281879,42.839611,0.0],[-0.281801,42.839523,0.0],[-0.281648,42.839401,0.0],[-0.281577,42.83924,0.0],[-0.281518,42.839123,0.0],[-0.281518,42.839055,0.0],[-0.281518,42.838918,0.0],[-0.281489,42.838811,0.0],[-0.281567,42.838694,0.0],[-0.281843,42.838425,0.0],[-0.282292,42.838172,0.0],[-0.282838,42.838211,0.0],[-0.283365,42.838289,0.0],[-0.283657,42.838328,0.0],[-0.284243,42.838308,0.0],[-0.284575,42.83825,0.0],[-0.284706,42.838225,0.0],[-0.284801,42.838164,0.0],[-0.284945,42.838162,0.0],[-0.285053,42.838109,0.0],[-0.28517,42.838142,0.0],[-0.28535,42.838118,0.0],[-0.285466,42.838064,0.0],[-0.285538,42.838078,0.0],[-0.28559,42.838068,0.0],[-0.285672,42.838074,0.0],[-0.285721,42.838113,0.0],[-0.28577,42.838118,0.0],[-0.285791,42.838136,0.0],[-0.285838,42.838142,0.0],[-0.285886,42.838141,0.0],[-0.285945,42.838171,0.0],[-0.286034,42.83819,0.0],[-0.286141,42.838213,0.0],[-0.286213,42.838228,0.0],[-0.286249,42.838231,0.0],[-0.286281,42.83822,0.0],[-0.286323,42.838225,0.0],[-0.286394,42.838234,0.0],[-0.28647,42.83822,0.0],[-0.286527,42.838206,0.0],[-0.286574,42.838198,0.0],[-0.286639,42.83819,0.0],[-0.286701,42.83819,0.0],[-0.286748,42.838171,0.0],[-0.286809,42.838165,0.0],[-0.286852,42.838156,0.0],[-0.286924,42.838148,0.0],[-0.286996,42.838143,0.0],[-0.287071,42.838153,0.0],[-0.287159,42.838177,0.0],[-0.287272,42.83825,0.0],[-0.287375,42.838303,0.0],[-0.287537,42.838293,0.0],[-0.287668,42.838338,0.0],[-0.287806,42.838406,0.0],[-0.287946,42.83844,0.0],[-0.288093,42.838481,0.0],[-0.288167,42.838553,0.0],[-0.288266,42.838618,0.0],[-0.288341,42.838646,0.0],[-0.288417,42.838714,0.0]]]}},{"type":"Feature","properties":{"rgi_id":"RGI2000-v7.0-G-11-04037","o1region":"11"},"geometry":{"type":"Polygon","coordinates":[[[-0.284991,42.842953,0.0],[-0.284976,42.842857,0.0],[-0.284874,42.842791,0.0],[-0.284621,42.84272,0.0],[-0.284312,42.842679,0.0],[-0.284018,42.842593,0.0],[-0.283916,42.842558,0.0],[-0.28378,42.842512,0.0],[-0.283739,42.842456,0.0],[-0.283719,42.84237,0.0],[-0.283693,42.842324,0.0],[-0.283668,42.842264,0.0],[-0.283688,42.842213,0.0],[-0.283764,42.842167,0.0],[-0.283967,42.842157,0.0],[-0.284347,42.842147,0.0],[-0.284626,42.842177,0.0],[-0.284763,42.842223,0.0],[-0.284859,42.842274,0.0],[-0.285001,42.842345,0.0],[-0.285092,42.842406,0.0],[-0.285179,42.842411,0.0],[-0.285305,42.842441,0.0],[-0.285457,42.842547,0.0],[-0.285468,42.842578,0.0],[-0.285539,42.842659,0.0],[-0.285625,42.84277,0.0],[-0.285696,42.842862,0.0],[-0.285756,42.842938,0.0],[-0.285898,42.843065,0.0],[-0.28604,42.843212,0.0],[-0.286127,42.843262,0.0],[-0.286243,42.843348,0.0],[-0.28635,42.84344,0.0],[-0.286405,42.84348,0.0],[-0.286456,42.843546,0.0],[-0.286476,42.843597,0.0],[-0.286431,42.843663,0.0],[-0.286395,42.843693,0.0],[-0.286314,42.843698,0.0],[-0.286228,42.843653,0.0],[-0.286096,42.843622,0.0],[-0.285878,42.843536,0.0],[-0.285782,42.84346,0.0],[-0.285579,42.843298,0.0],[-0.285498,42.843277,0.0],[-0.285295,42.843237,0.0],[-0.285174,42.843242,0.0],[-0.285072,42.843176,0.0],[-0.284991,42.842953,0.0]]]}},{"type":"Feature","properties":{"rgi_id":"RGI2000-v7.0-G-11-04038","o1region":"11"},"geometry":{"type":"Polygon","coordinates":[[[-0.263975,42.785543,0.0],[-0.263829,42.785641,0.0],[-0.26381,42.785641,0.0],[-0.263751,42.785651,0.0],[-0.263663,42.78566,0.0],[-0.263585,42.785651,0.0],[-0.263429,42.78566,0.0],[-0.263322,42.78566,0.0],[-0.263214,42.785631,0.0],[-0.263058,42.785631,0.0],[-0.26298,42.785592,0.0],[-0.262961,42.785553,0.0],[-0.262883,42.785494,0.0],[-0.262746,42.785475,0.0],[-0.262629,42.785475,0.0],[-0.262561,42.785504,0.0],[-0.262492,42.785533,0.0],[-0.262414,42.785543,0.0],[-0.262346,42.785573,0.0],[-0.262287,42.785573,0.0],[-0.262151,42.785592,0.0],[-0.262034,42.785651,0.0],[-0.262005,42.78568,0.0],[-0.26179,42.785719,0.0],[-0.261692,42.78566,0.0],[-0.261673,42.785553,0.0],[-0.261702,42.785494,0.0],[-0.26178,42.785436,0.0],[-0.261839,42.785407,0.0],[-0.261975,42.785329,0.0],[-0.262063,42.78527,0.0],[-0.262278,42.785241,0.0],[-0.262395,42.785143,0.0],[-0.262502,42.785036,0.0],[-0.262639,42.784909,0.0],[-0.262756,42.784811,0.0],[-0.262834,42.784724,0.0],[-0.262902,42.784577,0.0],[-0.263,42.784489,0.0],[-0.263185,42.784441,0.0],[-0.263312,42.78445,0.0],[-0.26341,42.784402,0.0],[-0.263468,42.784372,0.0],[-0.263585,42.784324,0.0],[-0.263692,42.784314,0.0],[-0.263819,42.784333,0.0],[-0.263858,42.784343,0.0],[-0.263956,42.784382,0.0],[-0.264044,42.784529,0.0],[-0.264122,42.784587,0.0],[-0.264219,42.784733,0.0],[-0.264219,42.784841,0.0],[-0.264161,42.784909,0.0],[-0.264102,42.785026,0.0],[-0.264083,42.785153,0.0],[-0.264102,42.785241,0.0],[-0.264063,42.785329,0.0],[-0.264024,42.785465,0.0],[-0.263975,42.785543,0.0]]]}},{"type":"Feature","properties":{"rgi_id":"RGI2000-v7.0-G-11-04039","o1region":"11"},"geometry":{"type":"Polygon","coordinates":[[[-0.257963,42.785056,0.0],[-0.25779,42.784826,0.0],[-0.257719,42.784335,0.0],[-0.257704,42.784157,0.0],[-0.257697,42.78397,0.0],[-0.25775,42.783784,0.0],[-0.25789,42.78352,0.0],[-0.257935,42.78342,0.0],[-0.258066,42.783216,0.0],[-0.258247,42.783002,0.0],[-0.258386,42.782847,0.0],[-0.258498,42.78276,0.0],[-0.25865,42.782727,0.0],[-0.25877,42.782761,0.0],[-0.258817,42.782794,0.0],[-0.258857,42.782805,0.0],[-0.258969,42.782774,0.0],[-0.259037,42.782724,0.0],[-0.259035,42.782703,0.0],[-0.259007,42.782661,0.0],[-0.258981,42.782613,0.0],[-0.258999,42.782573,0.0],[-0.25903,42.782528,0.0],[-0.25904,42.782493,0.0],[-0.259084,42.78246,0.0],[-0.259175,42.782451,0.0],[-0.259251,42.782423,0.0],[-0.259296,42.782421,0.0],[-0.259339,42.782393,0.0],[-0.259374,42.782358,0.0],[-0.259452,42.782324,0.0],[-0.259503,42.782302,0.0],[-0.259523,42.782259,0.0],[-0.259547,42.782206,0.0],[-0.259553,42.782162,0.0],[-0.259574,42.782106,0.0],[-0.259567,42.781991,0.0],[-0.259635,42.781912,0.0],[-0.259699,42.781916,0.0],[-0.259733,42.781959,0.0],[-0.259825,42.781997,0.0],[-0.259878,42.782044,0.0],[-0.259894,42.782127,0.0],[-0.259936,42.782319,0.0],[-0.260034,42.782602,0.0],[-0.260206,42.782754,0.0],[-0.260253,42.782777,0.0],[-0.260292,42.78278,0.0],[-0.260482,42.782806,0.0],[-0.260619,42.782953,0.0],[-0.260795,42.783011,0.0],[-0.260834,42.783041,0.0],[-0.260864,42.783261,0.0],[-0.260883,42.783411,0.0],[-0.260814,42.78346,0.0],[-0.260746,42.783519,0.0],[-0.260646,42.783508,0.0],[-0.260584,42.783594,0.0],[-0.260557,42.783625,0.0],[-0.260536,42.78366,0.0],[-0.260502,42.783694,0.0],[-0.260437,42.783703,0.0],[-0.260381,42.783706,0.0],[-0.26032,42.783697,0.0],[-0.260121,42.783782,0.0],[-0.259988,42.783821,0.0],[-0.259936,42.783853,0.0],[-0.259928,42.783887,0.0],[-0.259935,42.783953,0.0],[-0.259916,42.784017,0.0],[-0.259886,42.784075,0.0],[-0.2598,42.784163,0.0],[-0.25974,42.784277,0.0],[-0.259497,42.784377,0.0],[-0.259418,42.784611,0.0],[-0.259224,42.784758,0.0],[-0.25925,42.78502,0.0],[-0.259198,42.785148,0.0],[-0.259161,42.78534,0.0],[-0.259116,42.785456,0.0],[-0.259093,42.78556,0.0],[-0.259075,42.785589,0.0],[-0.259047,42.78561,0.0],[-0.259026,42.785615,0.0],[-0.258979,42.785592,0.0],[-0.258928,42.785556,0.0],[-0.258765,42.785502,0.0],[-0.258642,42.785442,0.0],[-0.258499,42.785367,0.0],[-0.258386,42.785307,0.0],[-0.258281,42.785254,0.0],[-0.258186,42.785209,0.0],[-0.258101,42.785164,0.0],[-0.258027,42.785141,0.0],[-0.257963,42.785056,0.0]]]}},{"type":"Feature","properties":{"rgi_id":"RGI2000-v7.0-G-11-04040","o1region":"11"},"geometry":{"type":"Polygon","coordinates":[[[-0.150535,42.775656,0.0],[-0.150417,42.775816,0.0],[-0.150223,42.775808,0.0],[-0.149877,42.775825,0.0],[-0.149606,42.775723,0.0],[-0.149353,42.77552,0.0],[-0.149201,42.775309,0.0],[-0.149175,42.775073,0.0],[-0.149184,42.774912,0.0],[-0.149471,42.774752,0.0],[-0.149615,42.774667,0.0],[-0.150012,42.774617,0.0],[-0.150257,42.774583,0.0],[-0.150375,42.774659,0.0],[-0.150603,42.774743,0.0],[-0.150721,42.774786,0.0],[-0.150823,42.774963,0.0],[-0.150823,42.775107,0.0],[-0.150755,42.775411,0.0],[-0.150662,42.775529,0.0],[-0.150535,42.775656,0.0]]]}},{"type":"Feature","properties":{"rgi_id":"RGI2000-v7.0-G-11-04041","o1region":"11"},"geometry":{"type":"Polygon","coordinates":[[[-0.142026,42.776091,0.0],[-0.142038,42.776058,0.0],[-0.142169,42.776111,0.0],[-0.142325,42.776142,0.0],[-0.142412,42.776161,0.0],[-0.142561,42.776211,0.0],[-0.142735,42.776198,0.0],[-0.142797,42.776167,0.0],[-0.142884,42.776105,0.0],[-0.142971,42.775975,0.0],[-0.14307,42.775937,0.0],[-0.143169,42.77595,0.0],[-0.143201,42.775993,0.0],[-0.143232,42.776105,0.0],[-0.143225,42.776186,0.0],[-0.143219,42.776285,0.0],[-0.143166,42.776383,0.0],[-0.143151,42.776409,0.0],[-0.143126,42.776534,0.0],[-0.143188,42.776633,0.0],[-0.143281,42.776695,0.0],[-0.143381,42.77677,0.0],[-0.143542,42.776881,0.0],[-0.143862,42.777134,0.0],[-0.143941,42.777211,0.0],[-0.144151,42.777366,0.0],[-0.144357,42.777441,0.0],[-0.144528,42.777464,0.0],[-0.144679,42.777478,0.0],[-0.144854,42.777574,0.0],[-0.145028,42.777692,0.0],[-0.145196,42.777779,0.0],[-0.145296,42.777866,0.0],[-0.14542,42.778003,0.0],[-0.145488,42.778146,0.0],[-0.145519,42.778226,0.0],[-0.145569,42.778344,0.0],[-0.145575,42.778419,0.0],[-0.145567,42.778616,0.0],[-0.145501,42.778685,0.0],[-0.145445,42.778753,0.0],[-0.1454,42.778842,0.0],[-0.145387,42.778924,0.0],[-0.145377,42.779013,0.0],[-0.145425,42.779106,0.0],[-0.145437,42.779175,0.0],[-0.145412,42.779213,0.0],[-0.145389,42.779265,0.0],[-0.145407,42.779329,0.0],[-0.145494,42.779401,0.0],[-0.145659,42.779465,0.0],[-0.145744,42.779543,0.0],[-0.145741,42.7796,0.0],[-0.145718,42.779742,0.0],[-0.145706,42.779848,0.0],[-0.145681,42.779935,0.0],[-0.145589,42.780134,0.0],[-0.145619,42.780289,0.0],[-0.145594,42.780388,0.0],[-0.145467,42.780499,0.0],[-0.145082,42.780718,0.0],[-0.145046,42.780814,0.0],[-0.145052,42.780808,0.0],[-0.145048,42.780885,0.0],[-0.14502,42.780989,0.0],[-0.144946,42.781038,0.0],[-0.144744,42.781114,0.0],[-0.144555,42.781473,0.0],[-0.144544,42.781749,0.0],[-0.144457,42.781848,0.0],[-0.144351,42.781941,0.0],[-0.144221,42.782066,0.0],[-0.144097,42.782184,0.0],[-0.143966,42.782159,0.0],[-0.143892,42.782053,0.0],[-0.143861,42.781979,0.0],[-0.143845,42.781777,0.0],[-0.143804,42.781655,0.0],[-0.143744,42.781452,0.0],[-0.143694,42.780983,0.0],[-0.143657,42.780832,0.0],[-0.14362,42.780659,0.0],[-0.143535,42.780583,0.0],[-0.143415,42.780541,0.0],[-0.143278,42.780532,0.0],[-0.143158,42.780603,0.0],[-0.143027,42.780728,0.0],[-0.142926,42.780809,0.0],[-0.142696,42.780979,0.0],[-0.142573,42.781011,0.0],[-0.142301,42.7811,0.0],[-0.142109,42.7811,0.0],[-0.141997,42.78107,0.0],[-0.141845,42.780968,0.0],[-0.141774,42.780897,0.0],[-0.141632,42.780796,0.0],[-0.141561,42.780725,0.0],[-0.141521,42.780613,0.0],[-0.141511,42.780461,0.0],[-0.141521,42.78033,0.0],[-0.1415,42.780299,0.0],[-0.141419,42.780228,0.0],[-0.141318,42.780117,0.0],[-0.141277,42.780005,0.0],[-0.141247,42.779833,0.0],[-0.141308,42.77965,0.0],[-0.14144,42.779518,0.0],[-0.141655,42.779466,0.0],[-0.141879,42.779443,0.0],[-0.142081,42.779387,0.0],[-0.142185,42.779337,0.0],[-0.142281,42.779213,0.0],[-0.14234,42.779129,0.0],[-0.14236,42.778948,0.0],[-0.142646,42.778834,0.0],[-0.142925,42.778807,0.0],[-0.143148,42.778771,0.0],[-0.143216,42.778768,0.0],[-0.143281,42.778795,0.0],[-0.143401,42.778822,0.0],[-0.143499,42.778849,0.0],[-0.143591,42.778825,0.0],[-0.143609,42.778768,0.0],[-0.143538,42.778688,0.0],[-0.143442,42.778614,0.0],[-0.143329,42.778526,0.0],[-0.143167,42.778475,0.0],[-0.143035,42.778437,0.0],[-0.142899,42.778411,0.0],[-0.142641,42.778386,0.0],[-0.142236,42.778471,0.0],[-0.1419,42.778605,0.0],[-0.141701,42.778613,0.0],[-0.141608,42.778563,0.0],[-0.141558,42.778516,0.0],[-0.141536,42.778453,0.0],[-0.141505,42.778372,0.0],[-0.141442,42.778323,0.0],[-0.141393,42.778267,0.0],[-0.141343,42.778211,0.0],[-0.141244,42.778118,0.0],[-0.141213,42.778049,0.0],[-0.141219,42.777894,0.0],[-0.1412,42.777664,0.0],[-0.141169,42.777503,0.0],[-0.141169,42.777347,0.0],[-0.1412,42.777223,0.0],[-0.141225,42.777068,0.0],[-0.141256,42.776962,0.0],[-0.141237,42.776826,0.0],[-0.141318,42.776627,0.0],[-0.141337,42.77659,0.0],[-0.141374,42.77649,0.0],[-0.141387,42.776409,0.0],[-0.141343,42.776329,0.0],[-0.141306,42.776254,0.0],[-0.1412,42.776186,0.0],[-0.141107,42.776124,0.0],[-0.141057,42.776074,0.0],[-0.141026,42.775975,0.0],[-0.141008,42.775912,0.0],[-0.141032,42.775875,0.0],[-0.141095,42.775838,0.0],[-0.141194,42.775881,0.0],[-0.141324,42.775925,0.0],[-0.141467,42.775956,0.0],[-0.141685,42.776012,0.0],[-0.141896,42.776068,0.0],[-0.142026,42.776091,0.0]]]}},{"type":"Feature","properties":{"rgi_id":"RGI2000-v7.0-G-11-04042","o1region":"11"},"geometry":{"type":"Polygon","coordinates":[[[-0.138069,42.77656,0.0],[-0.138069,42.776766,0.0],[-0.138059,42.776918,0.0],[-0.138089,42.776989,0.0],[-0.138109,42.77708,0.0],[-0.138089,42.777161,0.0],[-0.138008,42.777263,0.0],[-0.137866,42.777202,0.0],[-0.137775,42.777202,0.0],[-0.137724,42.777202,0.0],[-0.137602,42.77706,0.0],[-0.137531,42.776979,0.0],[-0.137491,42.776908,0.0],[-0.137471,42.776675,0.0],[-0.137426,42.776549,0.0],[-0.137292,42.776436,0.0],[-0.13722,42.77632,0.0],[-0.137157,42.776225,0.0],[-0.13705,42.776158,0.0],[-0.137009,42.776055,0.0],[-0.137,42.775981,0.0],[-0.136995,42.775871,0.0],[-0.136993,42.775771,0.0],[-0.13695,42.775685,0.0],[-0.136957,42.775612,0.0],[-0.136967,42.775541,0.0],[-0.137025,42.775478,0.0],[-0.137075,42.775444,0.0],[-0.137108,42.775423,0.0],[-0.137136,42.775407,0.0],[-0.137167,42.775389,0.0],[-0.137171,42.775359,0.0],[-0.137177,42.775309,0.0],[-0.137214,42.775266,0.0],[-0.137263,42.775149,0.0],[-0.137273,42.775129,0.0],[-0.137273,42.775053,0.0],[-0.137263,42.774982,0.0],[-0.137253,42.774926,0.0],[-0.137244,42.774824,0.0],[-0.137216,42.774766,0.0],[-0.137151,42.774741,0.0],[-0.137068,42.774713,0.0],[-0.137038,42.774705,0.0],[-0.136989,42.774676,0.0],[-0.136925,42.774669,0.0],[-0.136899,42.774654,0.0],[-0.136881,42.77463,0.0],[-0.136854,42.774589,0.0],[-0.136837,42.774546,0.0],[-0.136864,42.77443,0.0],[-0.136858,42.774389,0.0],[-0.136843,42.774353,0.0],[-0.136843,42.774337,0.0],[-0.136859,42.774297,0.0],[-0.136891,42.774277,0.0],[-0.136955,42.77427,0.0],[-0.137007,42.774269,0.0],[-0.137091,42.774256,0.0],[-0.137175,42.77422,0.0],[-0.137214,42.774182,0.0],[-0.137228,42.77415,0.0],[-0.137245,42.774113,0.0],[-0.137263,42.7741,0.0],[-0.13728,42.774089,0.0],[-0.137326,42.7741,0.0],[-0.137397,42.77411,0.0],[-0.137426,42.774104,0.0],[-0.137472,42.774098,0.0],[-0.137543,42.774094,0.0],[-0.137672,42.774094,0.0],[-0.137811,42.774109,0.0],[-0.137936,42.774152,0.0],[-0.137973,42.774188,0.0],[-0.138011,42.774257,0.0],[-0.138064,42.774299,0.0],[-0.138175,42.774402,0.0],[-0.138271,42.774438,0.0],[-0.1383,42.774508,0.0],[-0.138318,42.774534,0.0],[-0.138433,42.774561,0.0],[-0.138442,42.774637,0.0],[-0.138458,42.774719,0.0],[-0.138433,42.774778,0.0],[-0.13841,42.774861,0.0],[-0.138369,42.775036,0.0],[-0.138348,42.775071,0.0],[-0.138292,42.775098,0.0],[-0.138223,42.775118,0.0],[-0.13818,42.77515,0.0],[-0.138168,42.7752,0.0],[-0.138191,42.775248,0.0],[-0.138292,42.775326,0.0],[-0.138299,42.775437,0.0],[-0.138322,42.775559,0.0],[-0.138392,42.775601,0.0],[-0.138479,42.775615,0.0],[-0.1385,42.775651,0.0],[-0.138513,42.775714,0.0],[-0.13852,42.775818,0.0],[-0.138499,42.775928,0.0],[-0.138478,42.775977,0.0],[-0.138418,42.776073,0.0],[-0.138357,42.776139,0.0],[-0.13817,42.776259,0.0],[-0.138079,42.776421,0.0],[-0.138069,42.77656,0.0]]]}},{"type":"Feature","properties":{"rgi_id":"RGI2000-v7.0-G-11-04043","o1region":"11"},"geometry":{"type":"Polygon","coordinates":[[[-0.134854,42.773734,0.0],[-0.134412,42.773792,0.0],[-0.134026,42.773932,0.0],[-0.133869,42.774045,0.0],[-0.133662,42.774151,0.0],[-0.133538,42.774201,0.0],[-0.13346,42.774241,0.0],[-0.133163,42.774257,0.0],[-0.132771,42.774179,0.0],[-0.132659,42.774134,0.0],[-0.132438,42.773986,0.0],[-0.132458,42.773713,0.0],[-0.132419,42.773576,0.0],[-0.132165,42.773381,0.0],[-0.131775,42.77342,0.0],[-0.131658,42.773303,0.0],[-0.13158,42.773108,0.0],[-0.131638,42.772913,0.0],[-0.131853,42.772718,0.0],[-0.132068,42.772601,0.0],[-0.132321,42.772406,0.0],[-0.132594,42.77225,0.0],[-0.132907,42.77221,0.0],[-0.133258,42.772152,0.0],[-0.133668,42.772152,0.0],[-0.13398,42.772152,0.0],[-0.134234,42.772132,0.0],[-0.13439,42.772074,0.0],[-0.134663,42.771918,0.0],[-0.13476,42.771723,0.0],[-0.134877,42.771469,0.0],[-0.134858,42.771332,0.0],[-0.134702,42.771235,0.0],[-0.134487,42.771196,0.0],[-0.134175,42.77102,0.0],[-0.133902,42.770864,0.0],[-0.133668,42.770766,0.0],[-0.133492,42.770571,0.0],[-0.133336,42.770415,0.0],[-0.133336,42.770259,0.0],[-0.133492,42.770044,0.0],[-0.133765,42.769947,0.0],[-0.133921,42.769888,0.0],[-0.13398,42.769791,0.0],[-0.134038,42.769674,0.0],[-0.134273,42.769596,0.0],[-0.134409,42.769498,0.0],[-0.134429,42.769361,0.0],[-0.134604,42.769186,0.0],[-0.134682,42.768952,0.0],[-0.135112,42.768796,0.0],[-0.135326,42.76862,0.0],[-0.135678,42.768503,0.0],[-0.135736,42.768444,0.0],[-0.135931,42.768347,0.0],[-0.136126,42.76821,0.0],[-0.136731,42.767761,0.0],[-0.137004,42.767625,0.0],[-0.137239,42.767664,0.0],[-0.137434,42.767742,0.0],[-0.137702,42.76792,0.0],[-0.137814,42.76838,0.0],[-0.137814,42.768828,0.0],[-0.137982,42.768985,0.0],[-0.138183,42.769041,0.0],[-0.138385,42.769142,0.0],[-0.138699,42.769388,0.0],[-0.138912,42.769444,0.0],[-0.139226,42.769299,0.0],[-0.139764,42.76894,0.0],[-0.140324,42.768794,0.0],[-0.14094,42.768918,0.0],[-0.141433,42.768985,0.0],[-0.141814,42.769052,0.0],[-0.142352,42.769119,0.0],[-0.143002,42.769052,0.0],[-0.143518,42.769097,0.0],[-0.143899,42.76885,0.0],[-0.144369,42.768716,0.0],[-0.144481,42.768761,0.0],[-0.144885,42.769097,0.0],[-0.145378,42.769186,0.0],[-0.145871,42.769164,0.0],[-0.146555,42.769186,0.0],[-0.146902,42.769108,0.0],[-0.147104,42.769086,0.0],[-0.147317,42.768962,0.0],[-0.147518,42.768873,0.0],[-0.147771,42.7689,0.0],[-0.147821,42.768906,0.0],[-0.14789,42.768924,0.0],[-0.14794,42.768936,0.0],[-0.147999,42.768957,0.0],[-0.14846,42.768985,0.0],[-0.148639,42.769175,0.0],[-0.148695,42.769366,0.0],[-0.148723,42.769694,0.0],[-0.148755,42.769771,0.0],[-0.148747,42.769803,0.0],[-0.14875,42.769807,0.0],[-0.148775,42.769879,0.0],[-0.148775,42.769911,0.0],[-0.148775,42.769928,0.0],[-0.148779,42.769941,0.0],[-0.148806,42.769972,0.0],[-0.148838,42.770027,0.0],[-0.148851,42.770078,0.0],[-0.148836,42.770114,0.0],[-0.148843,42.770139,0.0],[-0.148856,42.770191,0.0],[-0.148869,42.770235,0.0],[-0.14891,42.770252,0.0],[-0.148943,42.770301,0.0],[-0.148969,42.77036,0.0],[-0.149015,42.770396,0.0],[-0.149048,42.770425,0.0],[-0.149101,42.770453,0.0],[-0.149189,42.770463,0.0],[-0.149247,42.770488,0.0],[-0.149435,42.770565,0.0],[-0.149491,42.770677,0.0],[-0.149524,42.7708,0.0],[-0.149536,42.771036,0.0],[-0.149558,42.771103,0.0],[-0.149569,42.771255,0.0],[-0.149596,42.77127,0.0],[-0.149618,42.771277,0.0],[-0.149654,42.771282,0.0],[-0.149673,42.771311,0.0],[-0.149667,42.77136,0.0],[-0.149662,42.771388,0.0],[-0.149658,42.771422,0.0],[-0.149674,42.771452,0.0],[-0.149637,42.771484,0.0],[-0.149558,42.771753,0.0],[-0.149558,42.77219,0.0],[-0.14958,42.772453,0.0],[-0.149468,42.772576,0.0],[-0.149233,42.772666,0.0],[-0.149143,42.772722,0.0],[-0.149031,42.772778,0.0],[-0.148908,42.772729,0.0],[-0.148876,42.772739,0.0],[-0.148855,42.772738,0.0],[-0.148812,42.772744,0.0],[-0.148783,42.772743,0.0],[-0.148755,42.772736,0.0],[-0.148732,42.772729,0.0],[-0.148708,42.772713,0.0],[-0.148677,42.772709,0.0],[-0.148646,42.772697,0.0],[-0.148608,42.772689,0.0],[-0.148569,42.772674,0.0],[-0.148545,42.772666,0.0],[-0.148512,42.772659,0.0],[-0.148485,42.772652,0.0],[-0.148464,42.772655,0.0],[-0.148449,42.772661,0.0],[-0.148428,42.772667,0.0],[-0.148408,42.772673,0.0],[-0.148384,42.772681,0.0],[-0.14833,42.772693,0.0],[-0.148291,42.772708,0.0],[-0.148274,42.772725,0.0],[-0.148257,42.772734,0.0],[-0.148238,42.772741,0.0],[-0.148206,42.772743,0.0],[-0.148185,42.772743,0.0],[-0.148158,42.77274,0.0],[-0.148114,42.772749,0.0],[-0.148082,42.77276,0.0],[-0.148066,42.772761,0.0],[-0.148046,42.77276,0.0],[-0.148018,42.772745,0.0],[-0.147998,42.772737,0.0],[-0.147937,42.772733,0.0],[-0.147884,42.772725,0.0],[-0.147875,42.772712,0.0],[-0.147854,42.7727,0.0],[-0.147819,42.772701,0.0],[-0.147795,42.772694,0.0],[-0.14775,42.772701,0.0],[-0.147716,42.772683,0.0],[-0.147632,42.772674,0.0],[-0.147602,42.77268,0.0],[-0.147558,42.77267,0.0],[-0.14753,42.772669,0.0],[-0.147479,42.772655,0.0],[-0.147439,42.772647,0.0],[-0.147346,42.772632,0.0],[-0.147247,42.772629,0.0],[-0.147224,42.772619,0.0],[-0.147191,42.772613,0.0],[-0.147161,42.772603,0.0],[-0.147149,42.77258,0.0],[-0.147115,42.772575,0.0],[-0.147058,42.772592,0.0],[-0.147042,42.772604,0.0],[-0.147005,42.772604,0.0],[-0.14696,42.772599,0.0],[-0.14694,42.772586,0.0],[-0.146926,42.772586,0.0],[-0.146919,42.772595,0.0],[-0.146905,42.772605,0.0],[-0.14689,42.772612,0.0],[-0.146863,42.772607,0.0],[-0.146829,42.772595,0.0],[-0.146792,42.772604,0.0],[-0.146767,42.772627,0.0],[-0.146733,42.772641,0.0],[-0.146709,42.772652,0.0],[-0.146682,42.772669,0.0],[-0.146642,42.772669,0.0],[-0.146603,42.772662,0.0],[-0.146527,42.772673,0.0],[-0.146498,42.772677,0.0],[-0.146481,42.772687,0.0],[-0.14647,42.772686,0.0],[-0.146451,42.77268,0.0],[-0.146429,42.772676,0.0],[-0.146371,42.772675,0.0],[-0.146318,42.772697,0.0],[-0.146261,42.772699,0.0],[-0.146212,42.772705,0.0],[-0.146201,42.772716,0.0],[-0.146108,42.772735,0.0],[-0.146044,42.772748,0.0],[-0.145987,42.772759,0.0],[-0.145938,42.772773,0.0],[-0.14589,42.772786,0.0],[-0.145835,42.77279,0.0],[-0.145777,42.772796,0.0],[-0.145742,42.772804,0.0],[-0.145716,42.77281,0.0],[-0.145687,42.772815,0.0],[-0.145656,42.772807,0.0],[-0.145619,42.772799,0.0],[-0.145583,42.77279,0.0],[-0.145521,42.772794,0.0],[-0.145496,42.772801,0.0],[-0.145477,42.772804,0.0],[-0.145466,42.772799,0.0],[-0.145461,42.772788,0.0],[-0.145438,42.772759,0.0],[-0.145413,42.772746,0.0],[-0.145393,42.772736,0.0],[-0.145369,42.772721,0.0],[-0.145351,42.772709,0.0],[-0.145329,42.772701,0.0],[-0.145294,42.772695,0.0],[-0.145253,42.772694,0.0],[-0.145204,42.772694,0.0],[-0.145179,42.7727,0.0],[-0.145152,42.772707,0.0],[-0.145144,42.772724,0.0],[-0.145134,42.772747,0.0],[-0.145109,42.772775,0.0],[-0.145093,42.772799,0.0],[-0.145067,42.77281,0.0],[-0.145038,42.772819,0.0],[-0.145,42.772812,0.0],[-0.144947,42.772802,0.0],[-0.144909,42.772798,0.0],[-0.14486,42.772794,0.0],[-0.144816,42.772801,0.0],[-0.144772,42.772808,0.0],[-0.144713,42.772799,0.0],[-0.144658,42.772809,0.0],[-0.144607,42.77281,0.0],[-0.144551,42.772825,0.0],[-0.144511,42.772825,0.0],[-0.144471,42.772826,0.0],[-0.144429,42.772826,0.0],[-0.144371,42.772821,0.0],[-0.144322,42.772817,0.0],[-0.144253,42.772826,0.0],[-0.144172,42.772823,0.0],[-0.144134,42.772811,0.0],[-0.144098,42.772812,0.0],[-0.144075,42.772813,0.0],[-0.144055,42.772814,0.0],[-0.144012,42.772821,0.0],[-0.143969,42.772826,0.0],[-0.143929,42.772824,0.0],[-0.14387,42.772818,0.0],[-0.143799,42.772812,0.0],[-0.14373,42.7728,0.0],[-0.143679,42.772801,0.0],[-0.143627,42.772801,0.0],[-0.14357,42.77278,0.0],[-0.143531,42.772758,0.0],[-0.143473,42.772746,0.0],[-0.143408,42.772755,0.0],[-0.143367,42.77276,0.0],[-0.143319,42.77275,0.0],[-0.143283,42.772753,0.0],[-0.143259,42.772769,0.0],[-0.143233,42.772796,0.0],[-0.143212,42.772809,0.0],[-0.143191,42.772818,0.0],[-0.143168,42.772821,0.0],[-0.143111,42.772825,0.0],[-0.143052,42.772837,0.0],[-0.142817,42.772857,0.0],[-0.142464,42.772862,0.0],[-0.142229,42.772879,0.0],[-0.141994,42.772885,0.0],[-0.141845,42.772884,0.0],[-0.141806,42.772905,0.0],[-0.141777,42.772908,0.0],[-0.141739,42.772919,0.0],[-0.141684,42.772905,0.0],[-0.141656,42.772888,0.0],[-0.141604,42.77289,0.0],[-0.141562,42.772908,0.0],[-0.141534,42.772942,0.0],[-0.141515,42.772964,0.0],[-0.141486,42.77297,0.0],[-0.141456,42.772977,0.0],[-0.141431,42.77298,0.0],[-0.141378,42.772987,0.0],[-0.141331,42.772988,0.0],[-0.141293,42.772988,0.0],[-0.141248,42.772993,0.0],[-0.141158,42.772996,0.0],[-0.141103,42.772991,0.0],[-0.141025,42.772966,0.0],[-0.140951,42.772941,0.0],[-0.140891,42.772939,0.0],[-0.140849,42.772927,0.0],[-0.140778,42.772909,0.0],[-0.14073,42.772896,0.0],[-0.140692,42.772886,0.0],[-0.140661,42.772867,0.0],[-0.140632,42.77285,0.0],[-0.140612,42.772816,0.0],[-0.140611,42.772795,0.0],[-0.140579,42.772769,0.0],[-0.140539,42.772755,0.0],[-0.140487,42.772732,0.0],[-0.140419,42.772703,0.0],[-0.140378,42.772672,0.0],[-0.140354,42.772649,0.0],[-0.140322,42.772634,0.0],[-0.140307,42.77262,0.0],[-0.140275,42.772589,0.0],[-0.140259,42.772573,0.0],[-0.140221,42.772552,0.0],[-0.140171,42.772529,0.0],[-0.1401,42.772518,0.0],[-0.140054,42.772504,0.0],[-0.140028,42.772486,0.0],[-0.140005,42.772475,0.0],[-0.139987,42.772466,0.0],[-0.139965,42.772459,0.0],[-0.139943,42.772451,0.0],[-0.139917,42.772436,0.0],[-0.139894,42.772413,0.0],[-0.139868,42.772391,0.0],[-0.139838,42.772377,0.0],[-0.139818,42.772367,0.0],[-0.139787,42.772351,0.0],[-0.139763,42.772342,0.0],[-0.139738,42.772338,0.0],[-0.139723,42.77233,0.0],[-0.139712,42.772319,0.0],[-0.139694,42.772308,0.0],[-0.139658,42.772302,0.0],[-0.139634,42.772308,0.0],[-0.139583,42.772316,0.0],[-0.139547,42.772318,0.0],[-0.139494,42.772315,0.0],[-0.139464,42.772307,0.0],[-0.139422,42.772303,0.0],[-0.139377,42.772308,0.0],[-0.139246,42.772306,0.0],[-0.139197,42.772312,0.0],[-0.139173,42.772313,0.0],[-0.13912,42.772311,0.0],[-0.139072,42.772307,0.0],[-0.139018,42.772302,0.0],[-0.138972,42.772298,0.0],[-0.13892,42.772303,0.0],[-0.138845,42.772302,0.0],[-0.138801,42.772272,0.0],[-0.13866,42.772201,0.0],[-0.138503,42.772145,0.0],[-0.138245,42.772156,0.0],[-0.138094,42.772207,0.0],[-0.137926,42.772274,0.0],[-0.137758,42.772324,0.0],[-0.137631,42.77243,0.0],[-0.137592,42.772446,0.0],[-0.137553,42.77247,0.0],[-0.137499,42.772502,0.0],[-0.137455,42.772524,0.0],[-0.137417,42.772542,0.0],[-0.137342,42.772574,0.0],[-0.137286,42.772598,0.0],[-0.137237,42.772641,0.0],[-0.137172,42.772677,0.0],[-0.13712,42.77272,0.0],[-0.137042,42.772755,0.0],[-0.136977,42.772801,0.0],[-0.136916,42.77288,0.0],[-0.136885,42.772934,0.0],[-0.136872,42.772962,0.0],[-0.136823,42.773045,0.0],[-0.13679,42.773089,0.0],[-0.136765,42.773108,0.0],[-0.136727,42.773134,0.0],[-0.136653,42.773206,0.0],[-0.136614,42.773225,0.0],[-0.1366,42.773239,0.0],[-0.136533,42.773272,0.0],[-0.136488,42.773301,0.0],[-0.136353,42.77337,0.0],[-0.136319,42.773396,0.0],[-0.136285,42.773415,0.0],[-0.136244,42.773443,0.0],[-0.136215,42.773457,0.0],[-0.136187,42.773474,0.0],[-0.13616,42.773494,0.0],[-0.136102,42.773523,0.0],[-0.136038,42.773553,0.0],[-0.135959,42.773579,0.0],[-0.135882,42.773598,0.0],[-0.135829,42.773606,0.0],[-0.135762,42.773605,0.0],[-0.135724,42.773608,0.0],[-0.135678,42.773616,0.0],[-0.135616,42.773628,0.0],[-0.135554,42.773636,0.0],[-0.135448,42.773637,0.0],[-0.135362,42.77364,0.0],[-0.135296,42.773655,0.0],[-0.13525,42.773669,0.0],[-0.135134,42.773688,0.0],[-0.13503,42.77371,0.0],[-0.134962,42.773727,0.0],[-0.134887,42.773739,0.0],[-0.134854,42.773734,0.0]]]}},{"type":"Feature","properties":{"rgi_id":"RGI2000-v7.0-G-11-04044","o1region":"11"},"geometry":{"type":"Polygon","coordinates":[[[-0.13358,42.765758,0.0],[-0.133646,42.76585,0.0],[-0.133636,42.765961,0.0],[-0.13358,42.766123,0.0],[-0.133768,42.766275,0.0],[-0.133828,42.766275,0.0],[-0.13394,42.766245,0.0],[-0.13398,42.766225,0.0],[-0.134133,42.766083,0.0],[-0.134371,42.765921,0.0],[-0.134492,42.765819,0.0],[-0.134685,42.765758,0.0],[-0.134776,42.765748,0.0],[-0.134857,42.765758,0.0],[-0.134979,42.76588,0.0],[-0.134979,42.765961,0.0],[-0.134939,42.766103,0.0],[-0.134675,42.766225,0.0],[-0.134634,42.766265,0.0],[-0.134411,42.766326,0.0],[-0.134269,42.766509,0.0],[-0.134092,42.76663,0.0],[-0.13394,42.766722,0.0],[-0.133778,42.766874,0.0],[-0.133641,42.766975,0.0],[-0.133686,42.767147,0.0],[-0.133626,42.767259,0.0],[-0.133575,42.767299,0.0],[-0.133438,42.76732,0.0],[-0.132951,42.767421,0.0],[-0.13283,42.767421,0.0],[-0.132627,42.767421,0.0],[-0.132465,42.767462,0.0],[-0.132242,42.76734,0.0],[-0.13214,42.767218,0.0],[-0.13208,42.766955,0.0],[-0.1321,42.766772,0.0],[-0.132059,42.766468,0.0],[-0.131998,42.766286,0.0],[-0.131917,42.766144,0.0],[-0.131796,42.766103,0.0],[-0.131654,42.765921,0.0],[-0.131593,42.765738,0.0],[-0.131471,42.765677,0.0],[-0.131329,42.765454,0.0],[-0.131289,42.765353,0.0],[-0.131289,42.765191,0.0],[-0.131329,42.765008,0.0],[-0.131512,42.764826,0.0],[-0.131674,42.764765,0.0],[-0.131775,42.764663,0.0],[-0.131917,42.764522,0.0],[-0.132039,42.764359,0.0],[-0.132181,42.764217,0.0],[-0.132262,42.764157,0.0],[-0.132424,42.764096,0.0],[-0.132505,42.764055,0.0],[-0.132647,42.764035,0.0],[-0.132845,42.764106,0.0],[-0.132886,42.764238,0.0],[-0.13283,42.76438,0.0],[-0.132972,42.764501,0.0],[-0.133053,42.764684,0.0],[-0.133093,42.764927,0.0],[-0.133093,42.765069,0.0],[-0.133053,42.765231,0.0],[-0.132891,42.765353,0.0],[-0.132749,42.765373,0.0],[-0.132465,42.765495,0.0],[-0.132404,42.765677,0.0],[-0.132445,42.7659,0.0],[-0.132546,42.765961,0.0],[-0.132911,42.765981,0.0],[-0.133114,42.765941,0.0],[-0.133174,42.765738,0.0],[-0.133215,42.765677,0.0],[-0.133316,42.765616,0.0],[-0.13358,42.765758,0.0]]]}},{"type":"Feature","properties":{"rgi_id":"RGI2000-v7.0-G-11-04045","o1region":"11"},"geometry":{"type":"Polygon","coordinates":[[[-0.056416,42.696158,0.0],[-0.056229,42.695881,0.0],[-0.056012,42.695732,0.0],[-0.055844,42.69567,0.0],[-0.055645,42.695614,0.0],[-0.055401,42.695549,0.0],[-0.05518,42.69545,0.0],[-0.055084,42.695316,0.0],[-0.055091,42.69527,0.0],[-0.055063,42.695242,0.0],[-0.055008,42.695163,0.0],[-0.054963,42.695125,0.0],[-0.054894,42.695071,0.0],[-0.054814,42.695053,0.0],[-0.054765,42.695038,0.0],[-0.054721,42.695014,0.0],[-0.054726,42.694981,0.0],[-0.05471,42.694966,0.0],[-0.05468,42.694953,0.0],[-0.054676,42.694929,0.0],[-0.054693,42.6949,0.0],[-0.05481,42.694876,0.0],[-0.054887,42.694876,0.0],[-0.054933,42.694908,0.0],[-0.054977,42.6949,0.0],[-0.055008,42.694875,0.0],[-0.055021,42.694846,0.0],[-0.055006,42.694767,0.0],[-0.055,42.694688,0.0],[-0.055033,42.694594,0.0],[-0.055113,42.694539,0.0],[-0.055225,42.694501,0.0],[-0.055369,42.694459,0.0],[-0.055411,42.694396,0.0],[-0.055399,42.694365,0.0],[-0.055394,42.694338,0.0],[-0.055454,42.694309,0.0],[-0.055559,42.694255,0.0],[-0.055725,42.694245,0.0],[-0.055766,42.694188,0.0],[-0.055746,42.694138,0.0],[-0.055732,42.694085,0.0],[-0.055719,42.694025,0.0],[-0.055806,42.693965,0.0],[-0.055893,42.693887,0.0],[-0.055889,42.693834,0.0],[-0.055847,42.693784,0.0],[-0.055812,42.693774,0.0],[-0.055813,42.693755,0.0],[-0.055823,42.693732,0.0],[-0.055923,42.693716,0.0],[-0.055996,42.693692,0.0],[-0.056074,42.693701,0.0],[-0.05612,42.693693,0.0],[-0.05615,42.693662,0.0],[-0.056292,42.693649,0.0],[-0.056354,42.693642,0.0],[-0.056462,42.693649,0.0],[-0.056506,42.693636,0.0],[-0.056548,42.693632,0.0],[-0.056662,42.693642,0.0],[-0.0567,42.693622,0.0],[-0.056823,42.693592,0.0],[-0.056909,42.693579,0.0],[-0.056966,42.693571,0.0],[-0.057161,42.693524,0.0],[-0.057546,42.69353,0.0],[-0.057863,42.693542,0.0],[-0.058012,42.693598,0.0],[-0.058093,42.693642,0.0],[-0.058274,42.693727,0.0],[-0.058366,42.693747,0.0],[-0.058447,42.693803,0.0],[-0.058522,42.693919,0.0],[-0.058658,42.693995,0.0],[-0.058703,42.694026,0.0],[-0.058765,42.694029,0.0],[-0.058874,42.69404,0.0],[-0.058881,42.69407,0.0],[-0.05886,42.694104,0.0],[-0.058865,42.694162,0.0],[-0.058852,42.694335,0.0],[-0.058879,42.694532,0.0],[-0.059095,42.694619,0.0],[-0.059156,42.694751,0.0],[-0.059206,42.694801,0.0],[-0.059237,42.694882,0.0],[-0.059257,42.695035,0.0],[-0.059293,42.695288,0.0],[-0.059386,42.695328,0.0],[-0.059417,42.695353,0.0],[-0.059467,42.695378,0.0],[-0.059529,42.695428,0.0],[-0.059566,42.695459,0.0],[-0.059597,42.695496,0.0],[-0.059622,42.695533,0.0],[-0.059647,42.695583,0.0],[-0.059573,42.695664,0.0],[-0.05943,42.695683,0.0],[-0.059287,42.69572,0.0],[-0.059144,42.695751,0.0],[-0.05897,42.695751,0.0],[-0.058846,42.695776,0.0],[-0.058709,42.695869,0.0],[-0.058604,42.695943,0.0],[-0.058504,42.696006,0.0],[-0.05843,42.696068,0.0],[-0.05838,42.696173,0.0],[-0.058337,42.696274,0.0],[-0.058321,42.696443,0.0],[-0.058331,42.696566,0.0],[-0.058282,42.696681,0.0],[-0.058221,42.69676,0.0],[-0.058138,42.696903,0.0],[-0.057975,42.696937,0.0],[-0.057767,42.696884,0.0],[-0.057663,42.696864,0.0],[-0.05746,42.696829,0.0],[-0.057264,42.696776,0.0],[-0.05719,42.696729,0.0],[-0.057118,42.696638,0.0],[-0.057011,42.696597,0.0],[-0.056824,42.696526,0.0],[-0.056614,42.696449,0.0],[-0.056422,42.696273,0.0],[-0.056416,42.696158,0.0]]]}},{"type":"Feature","properties":{"rgi_id":"RGI2000-v7.0-G-11-04046","o1region":"11"},"geometry":{"type":"Polygon","coordinates":[[[-0.040176,42.69396,0.0],[-0.04015,42.693859,0.0],[-0.040161,42.693818,0.0],[-0.040171,42.693717,0.0],[-0.04015,42.693625,0.0],[-0.04012,42.693443,0.0],[-0.040171,42.693341,0.0],[-0.040272,42.69321,0.0],[-0.040455,42.693098,0.0],[-0.040566,42.692976,0.0],[-0.040678,42.692906,0.0],[-0.040911,42.692865,0.0],[-0.041002,42.692865,0.0],[-0.041185,42.692845,0.0],[-0.041337,42.692845,0.0],[-0.041539,42.692804,0.0],[-0.041661,42.692814,0.0],[-0.041894,42.692804,0.0],[-0.042077,42.692824,0.0],[-0.04232,42.692855,0.0],[-0.042655,42.692855,0.0],[-0.042847,42.692895,0.0],[-0.04302,42.692976,0.0],[-0.043151,42.693007,0.0],[-0.043334,42.693058,0.0],[-0.043425,42.693189,0.0],[-0.043415,42.693352,0.0],[-0.043385,42.693453,0.0],[-0.043283,42.693544,0.0],[-0.043141,42.693595,0.0],[-0.042999,42.693646,0.0],[-0.042878,42.693706,0.0],[-0.042736,42.693798,0.0],[-0.042624,42.693869,0.0],[-0.042462,42.693859,0.0],[-0.04231,42.693798,0.0],[-0.042127,42.693717,0.0],[-0.041996,42.693686,0.0],[-0.041874,42.693666,0.0],[-0.041712,42.693646,0.0],[-0.04157,42.693646,0.0],[-0.041397,42.693656,0.0],[-0.040992,42.693656,0.0],[-0.040891,42.693727,0.0],[-0.04085,42.693767,0.0],[-0.040891,42.693899,0.0],[-0.041088,42.69396,0.0],[-0.04124,42.69399,0.0],[-0.041463,42.694061,0.0],[-0.041727,42.694183,0.0],[-0.041869,42.694264,0.0],[-0.042061,42.694396,0.0],[-0.042224,42.694477,0.0],[-0.042366,42.694558,0.0],[-0.042548,42.69468,0.0],[-0.04269,42.694761,0.0],[-0.042751,42.694893,0.0],[-0.042903,42.695004,0.0],[-0.043014,42.695146,0.0],[-0.043025,42.695308,0.0],[-0.042974,42.695379,0.0],[-0.042903,42.695501,0.0],[-0.042883,42.695602,0.0],[-0.042812,42.695714,0.0],[-0.042761,42.695754,0.0],[-0.042599,42.695825,0.0],[-0.042296,42.695806,0.0],[-0.042172,42.695785,0.0],[-0.042027,42.69579,0.0],[-0.04184,42.69582,0.0],[-0.041582,42.695882,0.0],[-0.040582,42.696439,0.0],[-0.039626,42.697005,0.0],[-0.038865,42.697375,0.0],[-0.038416,42.697453,0.0],[-0.038241,42.697395,0.0],[-0.037987,42.697317,0.0],[-0.03787,42.697161,0.0],[-0.037811,42.696946,0.0],[-0.037909,42.696712,0.0],[-0.037967,42.696478,0.0],[-0.037922,42.69608,0.0],[-0.037861,42.696048,0.0],[-0.037777,42.696023,0.0],[-0.037661,42.696024,0.0],[-0.037601,42.696065,0.0],[-0.037506,42.696172,0.0],[-0.03746,42.696208,0.0],[-0.037444,42.696238,0.0],[-0.037401,42.69626,0.0],[-0.037359,42.696258,0.0],[-0.037324,42.69623,0.0],[-0.03724,42.696176,0.0],[-0.037163,42.69616,0.0],[-0.037123,42.696123,0.0],[-0.037109,42.696068,0.0],[-0.037072,42.695969,0.0],[-0.037066,42.695826,0.0],[-0.037061,42.695723,0.0],[-0.037129,42.695636,0.0],[-0.037172,42.695549,0.0],[-0.037206,42.695521,0.0],[-0.037321,42.695474,0.0],[-0.037394,42.695433,0.0],[-0.037444,42.695404,0.0],[-0.037588,42.695294,0.0],[-0.037651,42.695253,0.0],[-0.037737,42.695219,0.0],[-0.03781,42.69519,0.0],[-0.037932,42.695136,0.0],[-0.038037,42.695103,0.0],[-0.03809,42.695071,0.0],[-0.038245,42.694989,0.0],[-0.038323,42.694922,0.0],[-0.038341,42.694878,0.0],[-0.038347,42.694832,0.0],[-0.038328,42.694783,0.0],[-0.038348,42.694739,0.0],[-0.038391,42.694719,0.0],[-0.038515,42.694674,0.0],[-0.038575,42.694635,0.0],[-0.038628,42.694584,0.0],[-0.038653,42.69451,0.0],[-0.038688,42.694495,0.0],[-0.038765,42.694439,0.0],[-0.038831,42.694405,0.0],[-0.039027,42.694356,0.0],[-0.039177,42.694341,0.0],[-0.039342,42.694328,0.0],[-0.039448,42.694333,0.0],[-0.03949,42.694337,0.0],[-0.039585,42.694306,0.0],[-0.039661,42.694279,0.0],[-0.039753,42.694246,0.0],[-0.039791,42.694211,0.0],[-0.039927,42.694112,0.0],[-0.040039,42.694071,0.0],[-0.040176,42.69396,0.0]]]}},{"type":"Feature","properties":{"rgi_id":"RGI2000-v7.0-G-11-04047","o1region":"11"},"geometry":{"type":"Polygon","coordinates":[[[-0.024436,42.690969,0.0],[-0.024234,42.690969,0.0],[-0.024173,42.690949,0.0],[-0.024122,42.690929,0.0],[-0.02401,42.690888,0.0],[-0.02395,42.690645,0.0],[-0.023889,42.690442,0.0],[-0.023828,42.690219,0.0],[-0.023686,42.690158,0.0],[-0.023463,42.690118,0.0],[-0.023179,42.690057,0.0],[-0.022794,42.690057,0.0],[-0.022551,42.689955,0.0],[-0.022429,42.689793,0.0],[-0.022307,42.689783,0.0],[-0.022145,42.689773,0.0],[-0.022034,42.689763,0.0],[-0.021912,42.689742,0.0],[-0.0218,42.689712,0.0],[-0.021547,42.689661,0.0],[-0.021364,42.68955,0.0],[-0.021192,42.689489,0.0],[-0.021121,42.689388,0.0],[-0.02106,42.689286,0.0],[-0.02104,42.689185,0.0],[-0.02104,42.689165,0.0],[-0.020999,42.688962,0.0],[-0.02102,42.688911,0.0],[-0.021111,42.68882,0.0],[-0.021141,42.68881,0.0],[-0.021476,42.68882,0.0],[-0.021598,42.6888,0.0],[-0.021841,42.688881,0.0],[-0.022125,42.688982,0.0],[-0.022368,42.689063,0.0],[-0.022834,42.689104,0.0],[-0.023179,42.689144,0.0],[-0.023483,42.689205,0.0],[-0.023727,42.689246,0.0],[-0.024173,42.689367,0.0],[-0.024375,42.689489,0.0],[-0.024436,42.689631,0.0],[-0.024497,42.689773,0.0],[-0.024598,42.689915,0.0],[-0.024923,42.689996,0.0],[-0.025369,42.690178,0.0],[-0.025673,42.69032,0.0],[-0.025815,42.690483,0.0],[-0.025795,42.690787,0.0],[-0.025653,42.690868,0.0],[-0.02543,42.690847,0.0],[-0.025126,42.690827,0.0],[-0.024862,42.690847,0.0],[-0.0247,42.690949,0.0],[-0.024436,42.690969,0.0]]]}},{"type":"Feature","properties":{"rgi_id":"RGI2000-v7.0-G-11-04056","o1region":"11"},"geometry":{"type":"Polygon","coordinates":[[[0.013157,42.705248,0.0],[0.013135,42.705299,0.0],[0.013144,42.705334,0.0],[0.013144,42.705384,0.0],[0.013146,42.705422,0.0],[0.013148,42.705478,0.0],[0.013142,42.705513,0.0],[0.013151,42.705547,0.0],[0.01319,42.705582,0.0],[0.013209,42.705606,0.0],[0.013243,42.705645,0.0],[0.013266,42.705683,0.0],[0.013316,42.705711,0.0],[0.013378,42.705717,0.0],[0.013454,42.705712,0.0],[0.013553,42.705733,0.0],[0.013685,42.705784,0.0],[0.013689,42.705788,0.0],[0.013822,42.705831,0.0],[0.013883,42.705877,0.0],[0.013912,42.705892,0.0],[0.013979,42.705915,0.0],[0.014047,42.705906,0.0],[0.01424,42.705925,0.0],[0.014358,42.705946,0.0],[0.014506,42.705985,0.0],[0.014544,42.706001,0.0],[0.014606,42.705998,0.0],[0.01464,42.705982,0.0],[0.014704,42.70597,0.0],[0.0148,42.705953,0.0],[0.014847,42.705969,0.0],[0.014871,42.70598,0.0],[0.014965,42.705993,0.0],[0.015076,42.706012,0.0],[0.015145,42.706044,0.0],[0.015157,42.706062,0.0],[0.015154,42.706128,0.0],[0.015101,42.706235,0.0],[0.015024,42.706326,0.0],[0.014931,42.706403,0.0],[0.014861,42.706458,0.0],[0.014815,42.706519,0.0],[0.01482,42.706584,0.0],[0.014866,42.706727,0.0],[0.014916,42.706841,0.0],[0.014973,42.707076,0.0],[0.015065,42.707157,0.0],[0.015207,42.707289,0.0],[0.015277,42.707401,0.0],[0.015389,42.707522,0.0],[0.015521,42.707563,0.0],[0.015642,42.707593,0.0],[0.015815,42.707583,0.0],[0.015896,42.707502,0.0],[0.015936,42.70734,0.0],[0.015926,42.707188,0.0],[0.015967,42.707036,0.0],[0.016007,42.706843,0.0],[0.015994,42.70676,0.0],[0.0162,42.706529,0.0],[0.016261,42.706468,0.0],[0.016251,42.706366,0.0],[0.01622,42.706296,0.0],[0.016149,42.706194,0.0],[0.016119,42.706143,0.0],[0.016078,42.706103,0.0],[0.016018,42.706052,0.0],[0.015947,42.70592,0.0],[0.016032,42.705754,0.0],[0.016077,42.70572,0.0],[0.016119,42.705711,0.0],[0.016154,42.705715,0.0],[0.016204,42.705702,0.0],[0.01625,42.705689,0.0],[0.016286,42.705681,0.0],[0.016358,42.705679,0.0],[0.016498,42.70571,0.0],[0.01665,42.705759,0.0],[0.016864,42.705764,0.0],[0.017033,42.705759,0.0],[0.017318,42.705727,0.0],[0.017563,42.705688,0.0],[0.017746,42.705662,0.0],[0.017946,42.705603,0.0],[0.018019,42.705556,0.0],[0.018034,42.705499,0.0],[0.018024,42.705448,0.0],[0.017968,42.705382,0.0],[0.017931,42.705285,0.0],[0.017916,42.705206,0.0],[0.017831,42.705158,0.0],[0.017729,42.705161,0.0],[0.017658,42.705181,0.0],[0.017601,42.705204,0.0],[0.017528,42.705198,0.0],[0.017483,42.705185,0.0],[0.017424,42.705155,0.0],[0.01737,42.705135,0.0],[0.017283,42.705144,0.0],[0.017158,42.705172,0.0],[0.017044,42.705225,0.0],[0.016953,42.705228,0.0],[0.016813,42.705226,0.0],[0.016621,42.705206,0.0],[0.016489,42.70513,0.0],[0.016393,42.705059,0.0],[0.016256,42.704998,0.0],[0.016195,42.704978,0.0],[0.016075,42.704964,0.0],[0.015895,42.704972,0.0],[0.015763,42.704927,0.0],[0.015621,42.704896,0.0],[0.015404,42.704916,0.0],[0.015317,42.704891,0.0],[0.015196,42.704867,0.0],[0.014955,42.704894,0.0],[0.0148,42.704899,0.0],[0.014771,42.704899,0.0],[0.014718,42.704908,0.0],[0.01461,42.704917,0.0],[0.014516,42.704925,0.0],[0.014473,42.704959,0.0],[0.014423,42.704965,0.0],[0.014333,42.704964,0.0],[0.014222,42.704967,0.0],[0.014166,42.704967,0.0],[0.014049,42.704933,0.0],[0.01396,42.704945,0.0],[0.013901,42.704968,0.0],[0.01389,42.704982,0.0],[0.013842,42.704991,0.0],[0.013759,42.705024,0.0],[0.013694,42.705057,0.0],[0.013543,42.705069,0.0],[0.013365,42.705101,0.0],[0.013267,42.705119,0.0],[0.013193,42.705165,0.0],[0.013157,42.705248,0.0]]]}}]}
