{"type":"FeatureCollection","features":[{"type":"Feature","properties":{"rgi_id":"RGI2000-v7.0-G-05-17680","o1region":"05"},"geometry":{"type":"Polygon","coordinates":[[[-25.835003,81.021029,0.0],[-25.817793,81.020974,0.0],[-25.817828,81.020706,0.0],[-25.816107,81.0207,0.0],[-25.816072,81.020969,0.0],[-25.802304,81.020925,0.0],[-25.802339,81.020656,0.0],[-25.800619,81.02065,0.0],[-25.800654,81.020382,0.0],[-25.798933,81.020376,0.0],[-25.798969,81.020107,0.0],[-25.797248,81.020102,0.0],[-25.797284,81.019833,0.0],[-25.795563,81.019828,0.0],[-25.795599,81.019559,0.0],[-25.793878,81.019553,0.0],[-25.79395,81.019016,0.0],[-25.792229,81.01901,0.0],[-25.792301,81.018473,0.0],[-25.79058,81.018467,0.0],[-25.790652,81.01793,0.0],[-25.788931,81.017924,0.0],[-25.789003,81.017387,0.0],[-25.787283,81.017381,0.0],[-25.787355,81.016844,0.0],[-25.785635,81.016838,0.0],[-25.785671,81.01657,0.0],[-25.77879,81.016547,0.0],[-25.778826,81.016278,0.0],[-25.773666,81.016261,0.0],[-25.77363,81.01653,0.0],[-25.771909,81.016524,0.0],[-25.771873,81.016793,0.0],[-25.770153,81.016787,0.0],[-25.770116,81.017056,0.0],[-25.768396,81.01705,0.0],[-25.768323,81.017588,0.0],[-25.764882,81.017576,0.0],[-25.764846,81.017845,0.0],[-25.761405,81.017834,0.0],[-25.761442,81.017565,0.0],[-25.758001,81.017553,0.0],[-25.758038,81.017285,0.0],[-25.754597,81.017273,0.0],[-25.754634,81.017004,0.0],[-25.751194,81.016993,0.0],[-25.751231,81.016724,0.0],[-25.749511,81.016718,0.0],[-25.749548,81.01645,0.0],[-25.744387,81.016432,0.0],[-25.744313,81.01697,0.0],[-25.746033,81.016976,0.0],[-25.745996,81.017244,0.0],[-25.747716,81.01725,0.0],[-25.747679,81.017519,0.0],[-25.75112,81.01753,0.0],[-25.751083,81.017799,0.0],[-25.752803,81.017805,0.0],[-25.752766,81.018074,0.0],[-25.751046,81.018068,0.0],[-25.750971,81.018605,0.0],[-25.749251,81.018599,0.0],[-25.749177,81.019137,0.0],[-25.747456,81.019131,0.0],[-25.747382,81.019668,0.0],[-25.745661,81.019663,0.0],[-25.745624,81.019931,0.0],[-25.740462,81.019914,0.0],[-25.740499,81.019645,0.0],[-25.738778,81.019639,0.0],[-25.738816,81.019371,0.0],[-25.737095,81.019365,0.0],[-25.73717,81.018827,0.0],[-25.73889,81.018833,0.0],[-25.738928,81.018564,0.0],[-25.737207,81.018559,0.0],[-25.737245,81.01829,0.0],[-25.735524,81.018284,0.0],[-25.735562,81.018015,0.0],[-25.733842,81.01801,0.0],[-25.733879,81.017741,0.0],[-25.732159,81.017735,0.0],[-25.732196,81.017466,0.0],[-25.730476,81.01746,0.0],[-25.730514,81.017192,0.0],[-25.728794,81.017186,0.0],[-25.728831,81.016917,0.0],[-25.721951,81.016893,0.0],[-25.721988,81.016625,0.0],[-25.706507,81.016571,0.0],[-25.706546,81.016303,0.0],[-25.703106,81.016291,0.0],[-25.70326,81.015216,0.0],[-25.704979,81.015222,0.0],[-25.705018,81.014953,0.0],[-25.703298,81.014947,0.0],[-25.703337,81.014678,0.0],[-25.701617,81.014672,0.0],[-25.701732,81.013866,0.0],[-25.703452,81.013872,0.0],[-25.703606,81.012797,0.0],[-25.705325,81.012803,0.0],[-25.70544,81.011997,0.0],[-25.707159,81.012003,0.0],[-25.707198,81.011735,0.0],[-25.708917,81.011741,0.0],[-25.708955,81.011472,0.0],[-25.712394,81.011484,0.0],[-25.712355,81.011753,0.0],[-25.714075,81.011759,0.0],[-25.714036,81.012027,0.0],[-25.715756,81.012033,0.0],[-25.715718,81.012302,0.0],[-25.717437,81.012308,0.0],[-25.717399,81.012577,0.0],[-25.719118,81.012582,0.0],[-25.719042,81.01312,0.0],[-25.722481,81.013132,0.0],[-25.722443,81.0134,0.0],[-25.727602,81.013418,0.0],[-25.72764,81.013149,0.0],[-25.734517,81.013173,0.0],[-25.734555,81.012904,0.0],[-25.736274,81.01291,0.0],[-25.736312,81.012641,0.0],[-25.739751,81.012653,0.0],[-25.739825,81.012116,0.0],[-25.741545,81.012122,0.0],[-25.741582,81.011853,0.0],[-25.74674,81.01187,0.0],[-25.746703,81.012139,0.0],[-25.75186,81.012156,0.0],[-25.751897,81.011888,0.0],[-25.753617,81.011893,0.0],[-25.753691,81.011356,0.0],[-25.75541,81.011362,0.0],[-25.755447,81.011093,0.0],[-25.757166,81.011099,0.0],[-25.757129,81.011368,0.0],[-25.764006,81.01139,0.0],[-25.764042,81.011122,0.0],[-25.765761,81.011128,0.0],[-25.765871,81.010321,0.0],[-25.764152,81.010316,0.0],[-25.764189,81.010047,0.0],[-25.76247,81.010041,0.0],[-25.762617,81.008966,0.0],[-25.760898,81.008961,0.0],[-25.760935,81.008692,0.0],[-25.759216,81.008686,0.0],[-25.759253,81.008418,0.0],[-25.757534,81.008412,0.0],[-25.757608,81.007874,0.0],[-25.755889,81.007869,0.0],[-25.755926,81.0076,0.0],[-25.754208,81.007594,0.0],[-25.754355,81.006519,0.0],[-25.752637,81.006514,0.0],[-25.752674,81.006245,0.0],[-25.750956,81.006239,0.0],[-25.750993,81.00597,0.0],[-25.745839,81.005953,0.0],[-25.745801,81.006222,0.0],[-25.744083,81.006216,0.0],[-25.744046,81.006485,0.0],[-25.742328,81.006479,0.0],[-25.742291,81.006748,0.0],[-25.740572,81.006742,0.0],[-25.740647,81.006204,0.0],[-25.742365,81.00621,0.0],[-25.742402,81.005941,0.0],[-25.74412,81.005947,0.0],[-25.744195,81.00541,0.0],[-25.745913,81.005416,0.0],[-25.74595,81.005147,0.0],[-25.747668,81.005153,0.0],[-25.747705,81.004884,0.0],[-25.749423,81.00489,0.0],[-25.749497,81.004352,0.0],[-25.751215,81.004358,0.0],[-25.751289,81.003821,0.0],[-25.753007,81.003827,0.0],[-25.753118,81.00302,0.0],[-25.754835,81.003026,0.0],[-25.754909,81.002489,0.0],[-25.756626,81.002495,0.0],[-25.756663,81.002226,0.0],[-25.760098,81.002237,0.0],[-25.760135,81.001969,0.0],[-25.763569,81.00198,0.0],[-25.763606,81.001711,0.0],[-25.767041,81.001723,0.0],[-25.767077,81.001454,0.0],[-25.768795,81.00146,0.0],[-25.768831,81.001191,0.0],[-25.770548,81.001197,0.0],[-25.770585,81.000928,0.0],[-25.772302,81.000934,0.0],[-25.772375,81.000396,0.0],[-25.774092,81.000402,0.0],[-25.774164,80.999865,0.0],[-25.772447,80.999859,0.0],[-25.772484,80.99959,0.0],[-25.770767,80.999585,0.0],[-25.770803,80.999316,0.0],[-25.769086,80.99931,0.0],[-25.769123,80.999042,0.0],[-25.767406,80.999036,0.0],[-25.767442,80.998767,0.0],[-25.765726,80.998761,0.0],[-25.765762,80.998493,0.0],[-25.762329,80.998481,0.0],[-25.762365,80.998213,0.0],[-25.757215,80.998195,0.0],[-25.757142,80.998733,0.0],[-25.755425,80.998727,0.0],[-25.755388,80.998996,0.0],[-25.753671,80.99899,0.0],[-25.753634,80.999259,0.0],[-25.751918,80.999253,0.0],[-25.751955,80.998984,0.0],[-25.748521,80.998973,0.0],[-25.748743,80.99736,0.0],[-25.747027,80.997355,0.0],[-25.747064,80.997086,0.0],[-25.745347,80.99708,0.0],[-25.745385,80.996811,0.0],[-25.743668,80.996806,0.0],[-25.743705,80.996537,0.0],[-25.741989,80.996531,0.0],[-25.742026,80.996262,0.0],[-25.74031,80.996257,0.0],[-25.740347,80.995988,0.0],[-25.74378,80.996,0.0],[-25.743928,80.994925,0.0],[-25.742212,80.994919,0.0],[-25.742287,80.994381,0.0],[-25.744003,80.994387,0.0],[-25.74404,80.994119,0.0],[-25.745756,80.994124,0.0],[-25.745793,80.993856,0.0],[-25.756088,80.99389,0.0],[-25.756125,80.993622,0.0],[-25.757841,80.993627,0.0],[-25.757877,80.993359,0.0],[-25.761309,80.99337,0.0],[-25.761345,80.993102,0.0],[-25.766493,80.993119,0.0],[-25.766529,80.99285,0.0],[-25.768245,80.992856,0.0],[-25.768281,80.992587,0.0],[-25.773428,80.992604,0.0],[-25.773392,80.992873,0.0],[-25.775107,80.992878,0.0],[-25.775071,80.993147,0.0],[-25.776787,80.993153,0.0],[-25.776751,80.993422,0.0],[-25.778466,80.993427,0.0],[-25.77843,80.993696,0.0],[-25.785294,80.993718,0.0],[-25.78533,80.99345,0.0],[-25.787045,80.993455,0.0],[-25.787081,80.993187,0.0],[-25.790513,80.993198,0.0],[-25.790548,80.992929,0.0],[-25.814568,80.993007,0.0],[-25.814533,80.993276,0.0],[-25.816249,80.993281,0.0],[-25.816214,80.99355,0.0],[-25.81793,80.993555,0.0],[-25.81786,80.994093,0.0],[-25.819576,80.994098,0.0],[-25.819506,80.994635,0.0],[-25.822938,80.994646,0.0],[-25.823043,80.99384,0.0],[-25.824758,80.993846,0.0],[-25.824793,80.993577,0.0],[-25.826509,80.993582,0.0],[-25.826544,80.993314,0.0],[-25.82826,80.993319,0.0],[-25.828225,80.993588,0.0],[-25.831657,80.993599,0.0],[-25.831622,80.993867,0.0],[-25.835054,80.993878,0.0],[-25.835019,80.994147,0.0],[-25.843599,80.994174,0.0],[-25.843565,80.994443,0.0],[-25.845281,80.994448,0.0],[-25.845178,80.995254,0.0],[-25.852043,80.995275,0.0],[-25.852009,80.995544,0.0],[-25.853725,80.995549,0.0],[-25.853691,80.995818,0.0],[-25.857124,80.995829,0.0],[-25.857158,80.99556,0.0],[-25.862307,80.995576,0.0],[-25.86234,80.995307,0.0],[-25.865773,80.995318,0.0],[-25.865672,80.996124,0.0],[-25.863956,80.996118,0.0],[-25.863922,80.996387,0.0],[-25.862206,80.996382,0.0],[-25.862172,80.996651,0.0],[-25.860455,80.996645,0.0],[-25.860388,80.997183,0.0],[-25.858671,80.997178,0.0],[-25.858638,80.997446,0.0],[-25.856921,80.997441,0.0],[-25.856887,80.99771,0.0],[-25.855171,80.997704,0.0],[-25.855137,80.997973,0.0],[-25.84827,80.997952,0.0],[-25.848236,80.998221,0.0],[-25.844802,80.99821,0.0],[-25.8447,80.999016,0.0],[-25.848133,80.999027,0.0],[-25.848168,80.998758,0.0],[-25.851601,80.998769,0.0],[-25.851635,80.9985,0.0],[-25.853352,80.998505,0.0],[-25.853386,80.998236,0.0],[-25.856819,80.998247,0.0],[-25.856684,80.999322,0.0],[-25.861835,80.999338,0.0],[-25.861869,80.999069,0.0],[-25.863586,80.999074,0.0],[-25.863552,80.999343,0.0],[-25.866986,80.999354,0.0],[-25.867019,80.999085,0.0],[-25.868736,80.99909,0.0],[-25.868837,80.998284,0.0],[-25.870554,80.998289,0.0],[-25.87062,80.997752,0.0],[-25.872337,80.997757,0.0],[-25.87237,80.997488,0.0],[-25.874087,80.997493,0.0],[-25.87412,80.997225,0.0],[-25.877554,80.997235,0.0],[-25.877587,80.996966,0.0],[-25.879303,80.996972,0.0],[-25.879336,80.996703,0.0],[-25.881053,80.996708,0.0],[-25.881086,80.996439,0.0],[-25.886235,80.996455,0.0],[-25.886202,80.996724,0.0],[-25.884486,80.996718,0.0],[-25.884453,80.996987,0.0],[-25.882736,80.996982,0.0],[-25.882637,80.997788,0.0],[-25.88092,80.997783,0.0],[-25.880887,80.998052,0.0],[-25.879171,80.998046,0.0],[-25.879137,80.998315,0.0],[-25.877421,80.99831,0.0],[-25.877387,80.998579,0.0],[-25.875671,80.998574,0.0],[-25.875604,80.999111,0.0],[-25.873887,80.999106,0.0],[-25.873854,80.999374,0.0],[-25.875571,80.99938,0.0],[-25.875537,80.999648,0.0],[-25.877254,80.999654,0.0],[-25.877188,81.000191,0.0],[-25.878905,81.000196,0.0],[-25.878772,81.001271,0.0],[-25.88049,81.001276,0.0],[-25.880456,81.001545,0.0],[-25.882174,81.00155,0.0],[-25.882141,81.001819,0.0],[-25.883858,81.001824,0.0],[-25.883825,81.002093,0.0],[-25.885543,81.002098,0.0],[-25.88551,81.002367,0.0],[-25.887227,81.002372,0.0],[-25.887194,81.00264,0.0],[-25.888912,81.002646,0.0],[-25.888846,81.003183,0.0],[-25.890564,81.003188,0.0],[-25.890498,81.003726,0.0],[-25.892216,81.003731,0.0],[-25.892183,81.003999,0.0],[-25.893901,81.004005,0.0],[-25.893835,81.004542,0.0],[-25.895553,81.004547,0.0],[-25.895488,81.005085,0.0],[-25.897206,81.00509,0.0],[-25.89714,81.005627,0.0],[-25.898859,81.005632,0.0],[-25.898434,81.009126,0.0],[-25.90531,81.009146,0.0],[-25.905342,81.008877,0.0],[-25.907061,81.008882,0.0],[-25.906996,81.00942,0.0],[-25.905277,81.009415,0.0],[-25.90518,81.010221,0.0],[-25.906899,81.010226,0.0],[-25.906672,81.012107,0.0],[-25.904952,81.012102,0.0],[-25.904888,81.012639,0.0],[-25.901449,81.012629,0.0],[-25.901416,81.012898,0.0],[-25.899696,81.012893,0.0],[-25.899631,81.01343,0.0],[-25.897911,81.013425,0.0],[-25.897846,81.013962,0.0],[-25.896126,81.013957,0.0],[-25.896094,81.014226,0.0],[-25.894374,81.014221,0.0],[-25.894308,81.014758,0.0],[-25.892588,81.014753,0.0],[-25.892555,81.015022,0.0],[-25.890835,81.015017,0.0],[-25.890803,81.015285,0.0],[-25.889083,81.01528,0.0],[-25.889017,81.015818,0.0],[-25.887297,81.015813,0.0],[-25.887264,81.016081,0.0],[-25.885543,81.016076,0.0],[-25.88551,81.016345,0.0],[-25.88207,81.016335,0.0],[-25.882037,81.016603,0.0],[-25.878596,81.016593,0.0],[-25.878563,81.016862,0.0],[-25.876843,81.016856,0.0],[-25.876809,81.017125,0.0],[-25.875089,81.01712,0.0],[-25.875056,81.017389,0.0],[-25.873335,81.017383,0.0],[-25.873302,81.017652,0.0],[-25.871581,81.017647,0.0],[-25.871548,81.017916,0.0],[-25.869827,81.01791,0.0],[-25.869794,81.018179,0.0],[-25.868073,81.018174,0.0],[-25.86804,81.018443,0.0],[-25.866319,81.018437,0.0],[-25.866286,81.018706,0.0],[-25.862844,81.018696,0.0],[-25.862811,81.018964,0.0],[-25.859369,81.018954,0.0],[-25.859437,81.018416,0.0],[-25.855996,81.018406,0.0],[-25.855962,81.018674,0.0],[-25.852521,81.018664,0.0],[-25.852452,81.019201,0.0],[-25.855894,81.019212,0.0],[-25.85586,81.019481,0.0],[-25.854139,81.019475,0.0],[-25.854105,81.019744,0.0],[-25.852384,81.019739,0.0],[-25.85235,81.020007,0.0],[-25.847188,81.019991,0.0],[-25.847153,81.02026,0.0],[-25.841991,81.020244,0.0],[-25.841956,81.020513,0.0],[-25.840235,81.020507,0.0],[-25.840201,81.020776,0.0],[-25.835038,81.02076,0.0],[-25.835003,81.021029,0.0]],[[-25.887429,81.014738,0.0],[-25.887462,81.014469,0.0],[-25.889181,81.014474,0.0],[-25.889214,81.014205,0.0],[-25.885775,81.014195,0.0],[-25.885709,81.014733,0.0],[-25.887429,81.014738,0.0]],[[-25.767846,81.008446,0.0],[-25.767882,81.008177,0.0],[-25.769601,81.008183,0.0],[-25.769747,81.007108,0.0],[-25.768028,81.007103,0.0],[-25.768065,81.006834,0.0],[-25.766347,81.006828,0.0],[-25.76631,81.007097,0.0],[-25.762873,81.007086,0.0],[-25.762837,81.007354,0.0],[-25.761118,81.007348,0.0],[-25.761081,81.007617,0.0],[-25.7628,81.007623,0.0],[-25.762763,81.007892,0.0],[-25.764482,81.007897,0.0],[-25.764409,81.008435,0.0],[-25.767846,81.008446,0.0]]]}},{"type":"Feature","properties":{"rgi_id":"RGI2000-v7.0-G-05-17681","o1region":"05"},"geometry":{"type":"Polygon","coordinates":[[[-25.981715,80.998876,0.0],[-25.962825,80.998824,0.0],[-25.962856,80.998555,0.0],[-25.961139,80.99855,0.0],[-25.961169,80.998281,0.0],[-25.959452,80.998277,0.0],[-25.959483,80.998008,0.0],[-25.957766,80.998003,0.0],[-25.957797,80.997734,0.0],[-25.952646,80.99772,0.0],[-25.952677,80.997451,0.0],[-25.95096,80.997446,0.0],[-25.950991,80.997178,0.0],[-25.949274,80.997173,0.0],[-25.949305,80.996904,0.0],[-25.947588,80.996899,0.0],[-25.947619,80.99663,0.0],[-25.945902,80.996626,0.0],[-25.945933,80.996357,0.0],[-25.944217,80.996352,0.0],[-25.944248,80.996083,0.0],[-25.942531,80.996078,0.0],[-25.942562,80.99581,0.0],[-25.940846,80.995805,0.0],[-25.940908,80.995267,0.0],[-25.939192,80.995262,0.0],[-25.939223,80.994994,0.0],[-25.937507,80.994989,0.0],[-25.937569,80.994451,0.0],[-25.935853,80.994446,0.0],[-25.935884,80.994178,0.0],[-25.934168,80.994173,0.0],[-25.934231,80.993635,0.0],[-25.932515,80.99363,0.0],[-25.932546,80.993362,0.0],[-25.93083,80.993357,0.0],[-25.930862,80.993088,0.0],[-25.929146,80.993083,0.0],[-25.929209,80.992546,0.0],[-25.925777,80.992536,0.0],[-25.925809,80.992267,0.0],[-25.924093,80.992262,0.0],[-25.924125,80.991993,0.0],[-25.920693,80.991983,0.0],[-25.920725,80.991714,0.0],[-25.915577,80.991699,0.0],[-25.915609,80.991431,0.0],[-25.895019,80.99137,0.0],[-25.894986,80.991639,0.0],[-25.888123,80.991618,0.0],[-25.888155,80.991349,0.0],[-25.874429,80.991308,0.0],[-25.874362,80.991845,0.0],[-25.872646,80.99184,0.0],[-25.87268,80.991571,0.0],[-25.870964,80.991566,0.0],[-25.870997,80.991297,0.0],[-25.872713,80.991303,0.0],[-25.872746,80.991034,0.0],[-25.871031,80.991029,0.0],[-25.871097,80.990491,0.0],[-25.864235,80.99047,0.0],[-25.864201,80.990739,0.0],[-25.857338,80.990718,0.0],[-25.857305,80.990987,0.0],[-25.855589,80.990981,0.0],[-25.855555,80.99125,0.0],[-25.853839,80.991245,0.0],[-25.853805,80.991513,0.0],[-25.85209,80.991508,0.0],[-25.852157,80.990971,0.0],[-25.853873,80.990976,0.0],[-25.853907,80.990707,0.0],[-25.855623,80.990713,0.0],[-25.855657,80.990444,0.0],[-25.857372,80.990449,0.0],[-25.857406,80.99018,0.0],[-25.859122,80.990186,0.0],[-25.859189,80.989648,0.0],[-25.860905,80.989654,0.0],[-25.861006,80.988847,0.0],[-25.862721,80.988853,0.0],[-25.862788,80.988315,0.0],[-25.864504,80.988321,0.0],[-25.864604,80.987514,0.0],[-25.866319,80.98752,0.0],[-25.866386,80.986982,0.0],[-25.868101,80.986988,0.0],[-25.868168,80.98645,0.0],[-25.869883,80.986455,0.0],[-25.869917,80.986187,0.0],[-25.871631,80.986192,0.0],[-25.871698,80.985654,0.0],[-25.873413,80.98566,0.0],[-25.873446,80.985391,0.0],[-25.875161,80.985396,0.0],[-25.875194,80.985127,0.0],[-25.876909,80.985133,0.0],[-25.876942,80.984864,0.0],[-25.880371,80.984874,0.0],[-25.880404,80.984606,0.0],[-25.882119,80.984611,0.0],[-25.882152,80.984342,0.0],[-25.883866,80.984347,0.0],[-25.883899,80.984079,0.0],[-25.885614,80.984084,0.0],[-25.885647,80.983815,0.0],[-25.887361,80.98382,0.0],[-25.887394,80.983551,0.0],[-25.889108,80.983557,0.0],[-25.889141,80.983288,0.0],[-25.890856,80.983293,0.0],[-25.890888,80.983024,0.0],[-25.892603,80.983029,0.0],[-25.892635,80.982761,0.0],[-25.894349,80.982766,0.0],[-25.894382,80.982497,0.0],[-25.89781,80.982507,0.0],[-25.897843,80.982239,0.0],[-25.901271,80.982249,0.0],[-25.901304,80.98198,0.0],[-25.904732,80.98199,0.0],[-25.904764,80.981722,0.0],[-25.906478,80.981727,0.0],[-25.906511,80.981458,0.0],[-25.908225,80.981463,0.0],[-25.908257,80.981194,0.0],[-25.909971,80.981199,0.0],[-25.910003,80.980931,0.0],[-25.911717,80.980936,0.0],[-25.911749,80.980667,0.0],[-25.91689,80.980682,0.0],[-25.916922,80.980413,0.0],[-25.918636,80.980418,0.0],[-25.9187,80.979881,0.0],[-25.920414,80.979886,0.0],[-25.920637,80.978005,0.0],[-25.92235,80.97801,0.0],[-25.922414,80.977472,0.0],[-25.924127,80.977477,0.0],[-25.924159,80.977209,0.0],[-25.925872,80.977214,0.0],[-25.925904,80.976945,0.0],[-25.92933,80.976955,0.0],[-25.929362,80.976686,0.0],[-25.937927,80.976711,0.0],[-25.937896,80.97698,0.0],[-25.941322,80.976989,0.0],[-25.941291,80.977258,0.0],[-25.944717,80.977268,0.0],[-25.944686,80.977537,0.0],[-25.951539,80.977556,0.0],[-25.951508,80.977825,0.0],[-25.953221,80.97783,0.0],[-25.953252,80.977561,0.0],[-25.954966,80.977566,0.0],[-25.954997,80.977297,0.0],[-25.95671,80.977302,0.0],[-25.956802,80.976496,0.0],[-25.958515,80.976501,0.0],[-25.958546,80.976232,0.0],[-25.961972,80.976242,0.0],[-25.962003,80.975973,0.0],[-25.967142,80.975987,0.0],[-25.967111,80.976256,0.0],[-25.968824,80.976261,0.0],[-25.968794,80.976529,0.0],[-25.970507,80.976534,0.0],[-25.970476,80.976803,0.0],[-25.972189,80.976808,0.0],[-25.972159,80.977076,0.0],[-25.975585,80.977086,0.0],[-25.975555,80.977355,0.0],[-25.977268,80.977359,0.0],[-25.977238,80.977628,0.0],[-25.978952,80.977633,0.0],[-25.978921,80.977902,0.0],[-25.982348,80.977911,0.0],[-25.982318,80.97818,0.0],[-25.985745,80.978189,0.0],[-25.985715,80.978458,0.0],[-25.992569,80.978477,0.0],[-25.992539,80.978745,0.0],[-25.994252,80.97875,0.0],[-25.994223,80.979019,0.0],[-25.995936,80.979023,0.0],[-25.995907,80.979292,0.0],[-26.001047,80.979306,0.0],[-26.001018,80.979575,0.0],[-26.006159,80.979589,0.0],[-26.00613,80.979857,0.0],[-26.009557,80.979867,0.0],[-26.009528,80.980135,0.0],[-26.014669,80.980149,0.0],[-26.014698,80.97988,0.0],[-26.019839,80.979894,0.0],[-26.01981,80.980163,0.0],[-26.021524,80.980167,0.0],[-26.021495,80.980436,0.0],[-26.023209,80.98044,0.0],[-26.023151,80.980978,0.0],[-26.024865,80.980982,0.0],[-26.024837,80.981251,0.0],[-26.026551,80.981256,0.0],[-26.026435,80.982331,0.0],[-26.024721,80.982326,0.0],[-26.024692,80.982595,0.0],[-26.022978,80.98259,0.0],[-26.022863,80.983665,0.0],[-26.021148,80.983661,0.0],[-26.021119,80.983929,0.0],[-26.022834,80.983934,0.0],[-26.022776,80.984471,0.0],[-26.024491,80.984476,0.0],[-26.024433,80.985013,0.0],[-26.026148,80.985018,0.0],[-26.02609,80.985555,0.0],[-26.027805,80.98556,0.0],[-26.02769,80.986635,0.0],[-26.025975,80.98663,0.0],[-26.02586,80.987705,0.0],[-26.02929,80.987714,0.0],[-26.029261,80.987983,0.0],[-26.030977,80.987987,0.0],[-26.030891,80.988793,0.0],[-26.029175,80.988789,0.0],[-26.028974,80.99067,0.0],[-26.027259,80.990666,0.0],[-26.027201,80.991203,0.0],[-26.028917,80.991208,0.0],[-26.028802,80.992282,0.0],[-26.027086,80.992278,0.0],[-26.027,80.993084,0.0],[-26.025283,80.99308,0.0],[-26.025226,80.993617,0.0],[-26.023509,80.993613,0.0],[-26.023423,80.994419,0.0],[-26.021706,80.994414,0.0],[-26.021677,80.994683,0.0],[-26.016528,80.994669,0.0],[-26.016498,80.994938,0.0],[-26.013065,80.994929,0.0],[-26.013036,80.995198,0.0],[-26.01132,80.995193,0.0],[-26.01129,80.995462,0.0],[-26.009574,80.995457,0.0],[-26.009544,80.995726,0.0],[-26.006111,80.995717,0.0],[-26.006081,80.995985,0.0],[-26.002648,80.995976,0.0],[-26.002618,80.996245,0.0],[-25.999185,80.996236,0.0],[-25.999155,80.996504,0.0],[-25.997438,80.9965,0.0],[-25.997349,80.997306,0.0],[-25.995632,80.997301,0.0],[-25.995573,80.997839,0.0],[-25.993856,80.997834,0.0],[-25.993796,80.998371,0.0],[-25.992079,80.998367,0.0],[-25.992049,80.998636,0.0],[-25.990332,80.998631,0.0],[-25.990272,80.999168,0.0],[-25.991989,80.999173,0.0],[-25.99193,80.99971,0.0],[-25.986777,80.999696,0.0],[-25.986807,80.999428,0.0],[-25.98509,80.999423,0.0],[-25.98512,80.999154,0.0],[-25.981685,80.999145,0.0],[-25.981715,80.998876,0.0]]]}},{"type":"Feature","properties":{"rgi_id":"RGI2000-v7.0-G-05-17682","o1region":"05"},"geometry":{"type":"Polygon","coordinates":[[[-25.837782,80.982593,0.0],[-25.837816,80.982324,0.0],[-25.836102,80.982318,0.0],[-25.836136,80.98205,0.0],[-25.834422,80.982044,0.0],[-25.834491,80.981507,0.0],[-25.836205,80.981512,0.0],[-25.836274,80.980975,0.0],[-25.837988,80.98098,0.0],[-25.838022,80.980712,0.0],[-25.839736,80.980717,0.0],[-25.839804,80.980179,0.0],[-25.841518,80.980185,0.0],[-25.841552,80.979916,0.0],[-25.843266,80.979922,0.0],[-25.843403,80.978847,0.0],[-25.841689,80.978841,0.0],[-25.841723,80.978573,0.0],[-25.84001,80.978567,0.0],[-25.840044,80.978299,0.0],[-25.836618,80.978288,0.0],[-25.836652,80.978019,0.0],[-25.834939,80.978014,0.0],[-25.834973,80.977745,0.0],[-25.83326,80.97774,0.0],[-25.833294,80.977471,0.0],[-25.835007,80.977476,0.0],[-25.835042,80.977208,0.0],[-25.836755,80.977213,0.0],[-25.836789,80.976944,0.0],[-25.841929,80.97696,0.0],[-25.841963,80.976692,0.0],[-25.845389,80.976702,0.0],[-25.845355,80.976971,0.0],[-25.850494,80.976987,0.0],[-25.85046,80.977256,0.0],[-25.8556,80.977272,0.0],[-25.855633,80.977003,0.0],[-25.857346,80.977008,0.0],[-25.85738,80.97674,0.0],[-25.859093,80.976745,0.0],[-25.859161,80.976207,0.0],[-25.869438,80.976239,0.0],[-25.869238,80.977851,0.0],[-25.867525,80.977846,0.0],[-25.867324,80.979458,0.0],[-25.86561,80.979453,0.0],[-25.865543,80.979991,0.0],[-25.86383,80.979985,0.0],[-25.863796,80.980254,0.0],[-25.860369,80.980243,0.0],[-25.860335,80.980512,0.0],[-25.858621,80.980507,0.0],[-25.858588,80.980776,0.0],[-25.85516,80.980765,0.0],[-25.855126,80.981034,0.0],[-25.848271,80.981012,0.0],[-25.848203,80.98155,0.0],[-25.846489,80.981544,0.0],[-25.846455,80.981813,0.0],[-25.843027,80.981802,0.0],[-25.842958,80.98234,0.0],[-25.841244,80.982335,0.0],[-25.84121,80.982603,0.0],[-25.837782,80.982593,0.0]]]}},{"type":"Feature","properties":{"rgi_id":"RGI2000-v7.0-G-05-17683","o1region":"05"},"geometry":{"type":"Polygon","coordinates":[[[-25.65239,80.995406,0.0],[-25.652509,80.994599,0.0],[-25.654226,80.994606,0.0],[-25.654265,80.994337,0.0],[-25.657698,80.994349,0.0],[-25.657857,80.993275,0.0],[-25.659573,80.993281,0.0],[-25.659731,80.992206,0.0],[-25.661447,80.992212,0.0],[-25.661487,80.991944,0.0],[-25.666634,80.991962,0.0],[-25.666597,80.992217,0.0],[-25.670427,80.991817,0.0],[-25.674681,80.990164,0.0],[-25.678328,80.989319,0.0],[-25.677529,80.991728,0.0],[-25.674536,80.993844,0.0],[-25.668055,80.997125,0.0],[-25.668446,80.997883,0.0],[-25.6692,80.997886,0.0],[-25.66916,80.998154,0.0],[-25.670877,80.998161,0.0],[-25.670799,80.998698,0.0],[-25.672516,80.998704,0.0],[-25.672437,80.999242,0.0],[-25.674154,80.999248,0.0],[-25.674115,80.999516,0.0],[-25.675832,80.999523,0.0],[-25.675597,81.001135,0.0],[-25.672162,81.001122,0.0],[-25.67228,81.000316,0.0],[-25.670562,81.00031,0.0],[-25.670641,80.999773,0.0],[-25.668924,80.999767,0.0],[-25.668963,80.999498,0.0],[-25.667246,80.999492,0.0],[-25.667286,80.999223,0.0],[-25.665568,80.999217,0.0],[-25.665647,80.99868,0.0],[-25.66393,80.998673,0.0],[-25.664049,80.997867,0.0],[-25.662332,80.997861,0.0],[-25.662411,80.997324,0.0],[-25.660694,80.997317,0.0],[-25.660813,80.996511,0.0],[-25.659097,80.996505,0.0],[-25.659136,80.996236,0.0],[-25.65742,80.99623,0.0],[-25.657459,80.995962,0.0],[-25.655743,80.995955,0.0],[-25.655783,80.995687,0.0],[-25.654066,80.99568,0.0],[-25.654106,80.995412,0.0],[-25.65239,80.995406,0.0]]]}},{"type":"Feature","properties":{"rgi_id":"RGI2000-v7.0-G-05-17684","o1region":"05"},"geometry":{"type":"Polygon","coordinates":[[[-25.572633,81.000215,0.0],[-25.572718,80.999678,0.0],[-25.574435,80.999684,0.0],[-25.574688,80.998072,0.0],[-25.572971,80.998065,0.0],[-25.573014,80.997797,0.0],[-25.571297,80.99779,0.0],[-25.571381,80.997253,0.0],[-25.567948,80.99724,0.0],[-25.56799,80.996971,0.0],[-25.564557,80.996958,0.0],[-25.564599,80.996689,0.0],[-25.562883,80.996682,0.0],[-25.563053,80.995607,0.0],[-25.564769,80.995614,0.0],[-25.564812,80.995345,0.0],[-25.563096,80.995339,0.0],[-25.563181,80.994801,0.0],[-25.561464,80.994795,0.0],[-25.561507,80.994526,0.0],[-25.566655,80.994546,0.0],[-25.56691,80.992934,0.0],[-25.568626,80.992941,0.0],[-25.568668,80.992672,0.0],[-25.5721,80.992685,0.0],[-25.572142,80.992416,0.0],[-25.575574,80.99243,0.0],[-25.575616,80.992161,0.0],[-25.579047,80.992174,0.0],[-25.57909,80.991906,0.0],[-25.582521,80.991919,0.0],[-25.582479,80.992187,0.0],[-25.591058,80.99222,0.0],[-25.5911,80.991951,0.0],[-25.597963,80.991977,0.0],[-25.59788,80.992515,0.0],[-25.596164,80.992508,0.0],[-25.595748,80.995195,0.0],[-25.594032,80.995189,0.0],[-25.593949,80.995726,0.0],[-25.590516,80.995713,0.0],[-25.590474,80.995982,0.0],[-25.588758,80.995975,0.0],[-25.588632,80.996781,0.0],[-25.586916,80.996775,0.0],[-25.586832,80.997312,0.0],[-25.585115,80.997305,0.0],[-25.585032,80.997843,0.0],[-25.583315,80.997836,0.0],[-25.583273,80.998105,0.0],[-25.581556,80.998098,0.0],[-25.581514,80.998367,0.0],[-25.579797,80.99836,0.0],[-25.579755,80.998629,0.0],[-25.578038,80.998623,0.0],[-25.577827,80.999966,0.0],[-25.57611,80.999959,0.0],[-25.576068,81.000228,0.0],[-25.572633,81.000215,0.0]]]}},{"type":"Feature","properties":{"rgi_id":"RGI2000-v7.0-G-05-17685","o1region":"05"},"geometry":{"type":"Polygon","coordinates":[[[-25.567867,81.033537,0.0],[-25.567909,81.033269,0.0],[-25.566186,81.033262,0.0],[-25.566229,81.032993,0.0],[-25.562782,81.03298,0.0],[-25.562825,81.032711,0.0],[-25.555933,81.032685,0.0],[-25.555976,81.032416,0.0],[-25.55253,81.032403,0.0],[-25.552573,81.032134,0.0],[-25.549127,81.032121,0.0],[-25.549084,81.032389,0.0],[-25.542192,81.032362,0.0],[-25.542235,81.032094,0.0],[-25.540513,81.032087,0.0],[-25.540556,81.031818,0.0],[-25.538833,81.031811,0.0],[-25.53892,81.031274,0.0],[-25.537197,81.031267,0.0],[-25.537371,81.030193,0.0],[-25.535648,81.030186,0.0],[-25.535692,81.029917,0.0],[-25.53397,81.02991,0.0],[-25.534144,81.028836,0.0],[-25.535866,81.028842,0.0],[-25.53591,81.028574,0.0],[-25.539354,81.028587,0.0],[-25.539311,81.028856,0.0],[-25.541033,81.028863,0.0],[-25.54099,81.029131,0.0],[-25.544434,81.029145,0.0],[-25.544391,81.029414,0.0],[-25.55817,81.029467,0.0],[-25.558042,81.030273,0.0],[-25.561487,81.030287,0.0],[-25.56153,81.030018,0.0],[-25.563252,81.030025,0.0],[-25.563508,81.028413,0.0],[-25.561786,81.028406,0.0],[-25.561957,81.027331,0.0],[-25.563679,81.027338,0.0],[-25.563849,81.026263,0.0],[-25.565571,81.02627,0.0],[-25.565742,81.025195,0.0],[-25.56402,81.025188,0.0],[-25.564105,81.024651,0.0],[-25.558941,81.024631,0.0],[-25.558898,81.0249,0.0],[-25.552012,81.024873,0.0],[-25.551969,81.025142,0.0],[-25.541639,81.025101,0.0],[-25.541596,81.02537,0.0],[-25.539874,81.025363,0.0],[-25.539831,81.025632,0.0],[-25.538109,81.025625,0.0],[-25.538066,81.025894,0.0],[-25.536344,81.025887,0.0],[-25.536301,81.026156,0.0],[-25.534579,81.026149,0.0],[-25.534536,81.026418,0.0],[-25.52937,81.026397,0.0],[-25.529326,81.026666,0.0],[-25.524161,81.026645,0.0],[-25.524205,81.026377,0.0],[-25.519039,81.026356,0.0],[-25.519083,81.026088,0.0],[-25.51564,81.026074,0.0],[-25.515684,81.025805,0.0],[-25.507076,81.025771,0.0],[-25.507031,81.026039,0.0],[-25.498423,81.026005,0.0],[-25.498378,81.026273,0.0],[-25.491491,81.026245,0.0],[-25.491446,81.026514,0.0],[-25.488003,81.0265,0.0],[-25.487958,81.026769,0.0],[-25.482792,81.026748,0.0],[-25.482837,81.026479,0.0],[-25.481116,81.026472,0.0],[-25.481071,81.026741,0.0],[-25.479349,81.026734,0.0],[-25.479304,81.027002,0.0],[-25.477582,81.026995,0.0],[-25.477536,81.027264,0.0],[-25.465483,81.027214,0.0],[-25.465437,81.027483,0.0],[-25.45855,81.027455,0.0],[-25.458595,81.027186,0.0],[-25.455152,81.027172,0.0],[-25.455243,81.026634,0.0],[-25.453522,81.026627,0.0],[-25.453659,81.025821,0.0],[-25.451938,81.025814,0.0],[-25.451984,81.025545,0.0],[-25.450262,81.025538,0.0],[-25.450308,81.02527,0.0],[-25.448587,81.025262,0.0],[-25.448679,81.024725,0.0],[-25.446957,81.024718,0.0],[-25.44705,81.024181,0.0],[-25.453935,81.024209,0.0],[-25.453981,81.023941,0.0],[-25.457423,81.023955,0.0],[-25.457469,81.023686,0.0],[-25.45919,81.023693,0.0],[-25.459282,81.023156,0.0],[-25.461003,81.023163,0.0],[-25.461049,81.022894,0.0],[-25.46277,81.022902,0.0],[-25.462815,81.022633,0.0],[-25.464536,81.02264,0.0],[-25.464582,81.022371,0.0],[-25.466303,81.022378,0.0],[-25.466394,81.021841,0.0],[-25.468115,81.021848,0.0],[-25.468251,81.021042,0.0],[-25.469972,81.021049,0.0],[-25.470017,81.020781,0.0],[-25.471738,81.020788,0.0],[-25.471829,81.02025,0.0],[-25.473549,81.020257,0.0],[-25.47364,81.01972,0.0],[-25.475361,81.019727,0.0],[-25.475451,81.01919,0.0],[-25.477171,81.019197,0.0],[-25.477307,81.018391,0.0],[-25.479027,81.018398,0.0],[-25.479117,81.017861,0.0],[-25.480838,81.017868,0.0],[-25.481018,81.016793,0.0],[-25.482738,81.0168,0.0],[-25.482873,81.015994,0.0],[-25.481153,81.015987,0.0],[-25.481243,81.01545,0.0],[-25.479523,81.015443,0.0],[-25.479614,81.014905,0.0],[-25.477894,81.014898,0.0],[-25.47803,81.014092,0.0],[-25.47631,81.014085,0.0],[-25.4764,81.013548,0.0],[-25.47812,81.013555,0.0],[-25.47821,81.013017,0.0],[-25.476491,81.01301,0.0],[-25.476536,81.012742,0.0],[-25.46794,81.012706,0.0],[-25.468213,81.011094,0.0],[-25.466494,81.011087,0.0],[-25.466767,81.009475,0.0],[-25.468485,81.009482,0.0],[-25.468576,81.008945,0.0],[-25.470294,81.008952,0.0],[-25.47043,81.008146,0.0],[-25.472149,81.008153,0.0],[-25.472285,81.007347,0.0],[-25.474003,81.007354,0.0],[-25.474093,81.006817,0.0],[-25.475811,81.006824,0.0],[-25.475856,81.006555,0.0],[-25.477574,81.006562,0.0],[-25.477619,81.006294,0.0],[-25.482773,81.006315,0.0],[-25.482818,81.006046,0.0],[-25.487972,81.006067,0.0],[-25.488017,81.005798,0.0],[-25.489735,81.005805,0.0],[-25.489779,81.005537,0.0],[-25.494933,81.005558,0.0],[-25.494977,81.005289,0.0],[-25.503566,81.005324,0.0],[-25.503522,81.005593,0.0],[-25.506958,81.005606,0.0],[-25.506913,81.005875,0.0],[-25.524092,81.005944,0.0],[-25.524049,81.006212,0.0],[-25.527485,81.006226,0.0],[-25.527441,81.006495,0.0],[-25.530877,81.006508,0.0],[-25.530833,81.006777,0.0],[-25.53427,81.006791,0.0],[-25.534226,81.007059,0.0],[-25.537662,81.007073,0.0],[-25.537619,81.007342,0.0],[-25.539337,81.007348,0.0],[-25.539294,81.007617,0.0],[-25.542731,81.007631,0.0],[-25.542687,81.007899,0.0],[-25.544406,81.007906,0.0],[-25.544363,81.008175,0.0],[-25.547799,81.008188,0.0],[-25.547756,81.008457,0.0],[-25.549475,81.008463,0.0],[-25.549432,81.008732,0.0],[-25.552869,81.008746,0.0],[-25.552826,81.009014,0.0],[-25.554544,81.009021,0.0],[-25.554501,81.00929,0.0],[-25.564813,81.00933,0.0],[-25.56477,81.009598,0.0],[-25.57852,81.009651,0.0],[-25.578478,81.00992,0.0],[-25.583634,81.00994,0.0],[-25.583592,81.010208,0.0],[-25.58531,81.010215,0.0],[-25.585269,81.010484,0.0],[-25.586987,81.01049,0.0],[-25.586945,81.010759,0.0],[-25.588664,81.010765,0.0],[-25.588623,81.011034,0.0],[-25.590341,81.011041,0.0],[-25.5903,81.011309,0.0],[-25.592019,81.011316,0.0],[-25.591935,81.011853,0.0],[-25.593654,81.01186,0.0],[-25.593571,81.012397,0.0],[-25.59529,81.012404,0.0],[-25.595248,81.012672,0.0],[-25.596968,81.012679,0.0],[-25.596884,81.013216,0.0],[-25.598604,81.013223,0.0],[-25.598521,81.01376,0.0],[-25.60024,81.013766,0.0],[-25.600199,81.014035,0.0],[-25.601918,81.014042,0.0],[-25.601835,81.014579,0.0],[-25.603555,81.014585,0.0],[-25.603472,81.015123,0.0],[-25.605192,81.015129,0.0],[-25.605109,81.015667,0.0],[-25.606829,81.015673,0.0],[-25.606746,81.01621,0.0],[-25.608466,81.016217,0.0],[-25.608342,81.017023,0.0],[-25.610062,81.017029,0.0],[-25.609939,81.017835,0.0],[-25.611659,81.017842,0.0],[-25.611453,81.019185,0.0],[-25.613173,81.019192,0.0],[-25.613132,81.01946,0.0],[-25.616573,81.019473,0.0],[-25.616532,81.019742,0.0],[-25.618253,81.019748,0.0],[-25.61813,81.020554,0.0],[-25.616409,81.020548,0.0],[-25.616327,81.021085,0.0],[-25.619769,81.021098,0.0],[-25.619646,81.021904,0.0],[-25.616204,81.021891,0.0],[-25.616163,81.02216,0.0],[-25.614442,81.022154,0.0],[-25.614359,81.022691,0.0],[-25.612638,81.022685,0.0],[-25.612556,81.023222,0.0],[-25.609113,81.023209,0.0],[-25.609072,81.023478,0.0],[-25.607351,81.023471,0.0],[-25.607309,81.02374,0.0],[-25.605588,81.023734,0.0],[-25.605505,81.024271,0.0],[-25.602062,81.024258,0.0],[-25.602021,81.024527,0.0],[-25.600299,81.02452,0.0],[-25.600258,81.024789,0.0],[-25.598536,81.024782,0.0],[-25.598411,81.025589,0.0],[-25.596689,81.025582,0.0],[-25.596606,81.026119,0.0],[-25.594884,81.026113,0.0],[-25.594634,81.027725,0.0],[-25.603245,81.027757,0.0],[-25.603162,81.028295,0.0],[-25.59455,81.028262,0.0],[-25.594509,81.028531,0.0],[-25.592786,81.028525,0.0],[-25.592745,81.028793,0.0],[-25.5893,81.02878,0.0],[-25.589258,81.029049,0.0],[-25.587536,81.029042,0.0],[-25.587242,81.030923,0.0],[-25.585519,81.030917,0.0],[-25.585435,81.031454,0.0],[-25.581989,81.031441,0.0],[-25.581947,81.031709,0.0],[-25.580224,81.031703,0.0],[-25.580182,81.031972,0.0],[-25.578459,81.031965,0.0],[-25.578375,81.032502,0.0],[-25.576652,81.032496,0.0],[-25.576525,81.033302,0.0],[-25.573079,81.033289,0.0],[-25.573036,81.033557,0.0],[-25.567867,81.033537,0.0]],[[-25.494509,81.018461,0.0],[-25.494599,81.017924,0.0],[-25.496319,81.017931,0.0],[-25.496542,81.016587,0.0],[-25.491382,81.016566,0.0],[-25.491338,81.016835,0.0],[-25.487898,81.016821,0.0],[-25.487673,81.018164,0.0],[-25.489393,81.018171,0.0],[-25.489349,81.01844,0.0],[-25.494509,81.018461,0.0]]]}},{"type":"Feature","properties":{"rgi_id":"RGI2000-v7.0-G-05-17689","o1region":"05"},"geometry":{"type":"Polygon","coordinates":[[[-25.19939,80.906629,0.0],[-25.199601,80.905554,0.0],[-25.2013,80.905562,0.0],[-25.201405,80.905025,0.0],[-25.203104,80.905033,0.0],[-25.20321,80.904496,0.0],[-25.204909,80.904504,0.0],[-25.205119,80.90343,0.0],[-25.208517,80.903447,0.0],[-25.208622,80.902909,0.0],[-25.21032,80.902918,0.0],[-25.210373,80.902649,0.0],[-25.212072,80.902657,0.0],[-25.212124,80.902389,0.0],[-25.213823,80.902397,0.0],[-25.213875,80.902128,0.0],[-25.215574,80.902136,0.0],[-25.215626,80.901868,0.0],[-25.217324,80.901876,0.0],[-25.217638,80.900264,0.0],[-25.224431,80.900297,0.0],[-25.224483,80.900029,0.0],[-25.229578,80.900053,0.0],[-25.229629,80.899785,0.0],[-25.244913,80.899858,0.0],[-25.244862,80.900127,0.0],[-25.24656,80.900135,0.0],[-25.246509,80.900403,0.0],[-25.244811,80.900395,0.0],[-25.244759,80.900664,0.0],[-25.232871,80.900607,0.0],[-25.232819,80.900876,0.0],[-25.229422,80.900859,0.0],[-25.22937,80.901128,0.0],[-25.224275,80.901103,0.0],[-25.224223,80.901372,0.0],[-25.222524,80.901364,0.0],[-25.22242,80.901901,0.0],[-25.220722,80.901893,0.0],[-25.220617,80.90243,0.0],[-25.218919,80.902422,0.0],[-25.218867,80.90269,0.0],[-25.217168,80.902682,0.0],[-25.217116,80.902951,0.0],[-25.215417,80.902942,0.0],[-25.215312,80.90348,0.0],[-25.213613,80.903471,0.0],[-25.213509,80.904009,0.0],[-25.210111,80.903992,0.0],[-25.209953,80.904798,0.0],[-25.208254,80.90479,0.0],[-25.207939,80.906401,0.0],[-25.204541,80.906385,0.0],[-25.204488,80.906654,0.0],[-25.19939,80.906629,0.0]]]}},{"type":"Feature","properties":{"rgi_id":"RGI2000-v7.0-G-05-17690","o1region":"05"},"geometry":{"type":"Polygon","coordinates":[[[-25.235196,80.888518,0.0],[-25.235454,80.887175,0.0],[-25.233758,80.887167,0.0],[-25.233913,80.886361,0.0],[-25.232217,80.886353,0.0],[-25.23232,80.885815,0.0],[-25.230625,80.885807,0.0],[-25.230676,80.885539,0.0],[-25.234068,80.885555,0.0],[-25.234119,80.885286,0.0],[-25.23751,80.885303,0.0],[-25.237459,80.885571,0.0],[-25.239154,80.885579,0.0],[-25.239103,80.885848,0.0],[-25.245885,80.885881,0.0],[-25.245834,80.886149,0.0],[-25.249226,80.886165,0.0],[-25.249123,80.886703,0.0],[-25.250819,80.886711,0.0],[-25.25087,80.886442,0.0],[-25.252566,80.88645,0.0],[-25.252668,80.885913,0.0],[-25.254364,80.885921,0.0],[-25.254415,80.885652,0.0],[-25.261197,80.885685,0.0],[-25.261147,80.885953,0.0],[-25.267929,80.885986,0.0],[-25.267777,80.886791,0.0],[-25.26269,80.886767,0.0],[-25.262639,80.887036,0.0],[-25.24568,80.886955,0.0],[-25.245629,80.887224,0.0],[-25.242237,80.887208,0.0],[-25.241929,80.888819,0.0],[-25.243625,80.888828,0.0],[-25.243471,80.889633,0.0],[-25.240078,80.889617,0.0],[-25.24013,80.889349,0.0],[-25.238433,80.88934,0.0],[-25.238485,80.889072,0.0],[-25.236789,80.889064,0.0],[-25.236892,80.888526,0.0],[-25.235196,80.888518,0.0]]]}},{"type":"Feature","properties":{"rgi_id":"RGI2000-v7.0-G-05-17699","o1region":"05"},"geometry":{"type":"Polygon","coordinates":[[[-25.009469,80.684061,0.0],[-25.004993,80.684987,0.0],[-25.005024,80.684843,0.0],[-25.000048,80.684815,0.0],[-24.999991,80.685084,0.0],[-24.995015,80.685056,0.0],[-24.994957,80.685324,0.0],[-24.993299,80.685315,0.0],[-24.993241,80.685584,0.0],[-24.984948,80.685537,0.0],[-24.984832,80.686074,0.0],[-24.983174,80.686065,0.0],[-24.983116,80.686334,0.0],[-24.981457,80.686324,0.0],[-24.981399,80.686593,0.0],[-24.97974,80.686584,0.0],[-24.979683,80.686852,0.0],[-24.976365,80.686834,0.0],[-24.976307,80.687102,0.0],[-24.972989,80.687083,0.0],[-24.972931,80.687352,0.0],[-24.966295,80.687314,0.0],[-24.966236,80.687583,0.0],[-24.962918,80.687564,0.0],[-24.962802,80.688101,0.0],[-24.961143,80.688092,0.0],[-24.961026,80.688629,0.0],[-24.959367,80.68862,0.0],[-24.959308,80.688888,0.0],[-24.95599,80.688869,0.0],[-24.955931,80.689138,0.0],[-24.952613,80.689119,0.0],[-24.952554,80.689388,0.0],[-24.950895,80.689378,0.0],[-24.950836,80.689647,0.0],[-24.947517,80.689628,0.0],[-24.947459,80.689896,0.0],[-24.94248,80.689868,0.0],[-24.942539,80.689599,0.0],[-24.935901,80.689561,0.0],[-24.935842,80.68983,0.0],[-24.925886,80.689772,0.0],[-24.925826,80.690041,0.0],[-24.922508,80.690022,0.0],[-24.922329,80.690828,0.0],[-24.92067,80.690818,0.0],[-24.920551,80.691355,0.0],[-24.918891,80.691345,0.0],[-24.918772,80.691883,0.0],[-24.917112,80.691873,0.0],[-24.916993,80.69241,0.0],[-24.915333,80.692401,0.0],[-24.915214,80.692938,0.0],[-24.913554,80.692928,0.0],[-24.913315,80.694002,0.0],[-24.911655,80.693993,0.0],[-24.911535,80.69453,0.0],[-24.909875,80.69452,0.0],[-24.909815,80.694789,0.0],[-24.908155,80.694779,0.0],[-24.908095,80.695048,0.0],[-24.904774,80.695028,0.0],[-24.904715,80.695297,0.0],[-24.894752,80.695239,0.0],[-24.894813,80.69497,0.0],[-24.893152,80.69496,0.0],[-24.893092,80.695229,0.0],[-24.891432,80.695219,0.0],[-24.891371,80.695488,0.0],[-24.889711,80.695478,0.0],[-24.889651,80.695747,0.0],[-24.884669,80.695717,0.0],[-24.884609,80.695986,0.0],[-24.881288,80.695966,0.0],[-24.881348,80.695698,0.0],[-24.878028,80.695678,0.0],[-24.878088,80.69541,0.0],[-24.876428,80.6954,0.0],[-24.876489,80.695131,0.0],[-24.873168,80.695112,0.0],[-24.873229,80.694843,0.0],[-24.869909,80.694823,0.0],[-24.86997,80.694555,0.0],[-24.866649,80.694535,0.0],[-24.86671,80.694266,0.0],[-24.86339,80.694247,0.0],[-24.863451,80.693978,0.0],[-24.861791,80.693968,0.0],[-24.861852,80.6937,0.0],[-24.860192,80.69369,0.0],[-24.860253,80.693421,0.0],[-24.856933,80.693401,0.0],[-24.856995,80.693133,0.0],[-24.855335,80.693123,0.0],[-24.855396,80.692854,0.0],[-24.853736,80.692844,0.0],[-24.853859,80.692307,0.0],[-24.852199,80.692297,0.0],[-24.852261,80.692029,0.0],[-24.848941,80.692009,0.0],[-24.849003,80.69174,0.0],[-24.842364,80.6917,0.0],[-24.842426,80.691432,0.0],[-24.840766,80.691422,0.0],[-24.840828,80.691153,0.0],[-24.839169,80.691143,0.0],[-24.83923,80.690875,0.0],[-24.837571,80.690865,0.0],[-24.837756,80.690059,0.0],[-24.841075,80.690079,0.0],[-24.841816,80.686856,0.0],[-24.840157,80.686846,0.0],[-24.840281,80.686309,0.0],[-24.838622,80.686299,0.0],[-24.838684,80.68603,0.0],[-24.835366,80.68601,0.0],[-24.835428,80.685742,0.0],[-24.825477,80.685681,0.0],[-24.825415,80.68595,0.0],[-24.823756,80.68594,0.0],[-24.823818,80.685671,0.0],[-24.820501,80.685651,0.0],[-24.820563,80.685383,0.0],[-24.815588,80.685352,0.0],[-24.81565,80.685084,0.0],[-24.809017,80.685043,0.0],[-24.809079,80.684775,0.0],[-24.804104,80.684744,0.0],[-24.804167,80.684476,0.0],[-24.80085,80.684455,0.0],[-24.800976,80.683918,0.0],[-24.799318,80.683908,0.0],[-24.799381,80.683639,0.0],[-24.797723,80.683629,0.0],[-24.797785,80.683361,0.0],[-24.796127,80.68335,0.0],[-24.796379,80.682276,0.0],[-24.798037,80.682286,0.0],[-24.7981,80.682018,0.0],[-24.799758,80.682028,0.0],[-24.799821,80.681759,0.0],[-24.803137,80.68178,0.0],[-24.803199,80.681511,0.0],[-24.806515,80.681532,0.0],[-24.806578,80.681263,0.0],[-24.808235,80.681273,0.0],[-24.808298,80.681004,0.0],[-24.819902,80.681075,0.0],[-24.819964,80.680807,0.0],[-24.826595,80.680847,0.0],[-24.826657,80.680578,0.0],[-24.828315,80.680588,0.0],[-24.828377,80.68032,0.0],[-24.836665,80.68037,0.0],[-24.836727,80.680101,0.0],[-24.838385,80.680111,0.0],[-24.838446,80.679843,0.0],[-24.848392,80.679903,0.0],[-24.848453,80.679634,0.0],[-24.850111,80.679644,0.0],[-24.850172,80.679375,0.0],[-24.855145,80.679405,0.0],[-24.855206,80.679137,0.0],[-24.860178,80.679166,0.0],[-24.860239,80.678898,0.0],[-24.863554,80.678918,0.0],[-24.863615,80.678649,0.0],[-24.86693,80.678669,0.0],[-24.866991,80.6784,0.0],[-24.868648,80.67841,0.0],[-24.868709,80.678141,0.0],[-24.870367,80.678151,0.0],[-24.870427,80.677883,0.0],[-24.872085,80.677893,0.0],[-24.872206,80.677355,0.0],[-24.873863,80.677365,0.0],[-24.874228,80.675754,0.0],[-24.875885,80.675764,0.0],[-24.876066,80.674958,0.0],[-24.877723,80.674968,0.0],[-24.877844,80.67443,0.0],[-24.879501,80.67444,0.0],[-24.879562,80.674172,0.0],[-24.881218,80.674182,0.0],[-24.881279,80.673913,0.0],[-24.882935,80.673923,0.0],[-24.883056,80.673386,0.0],[-24.884713,80.673395,0.0],[-24.884833,80.672858,0.0],[-24.88649,80.672868,0.0],[-24.88655,80.672599,0.0],[-24.888207,80.672609,0.0],[-24.888267,80.672341,0.0],[-24.889923,80.67235,0.0],[-24.889803,80.672887,0.0],[-24.899741,80.672946,0.0],[-24.899801,80.672677,0.0],[-24.901457,80.672687,0.0],[-24.901517,80.672418,0.0],[-24.906486,80.672448,0.0],[-24.906546,80.672179,0.0],[-24.908202,80.672189,0.0],[-24.908262,80.67192,0.0],[-24.913231,80.671949,0.0],[-24.91329,80.67168,0.0],[-24.914947,80.67169,0.0],[-24.915006,80.671422,0.0],[-24.916662,80.671431,0.0],[-24.916781,80.670894,0.0],[-24.920093,80.670913,0.0],[-24.920153,80.670645,0.0],[-24.921809,80.670654,0.0],[-24.921927,80.670117,0.0],[-24.923583,80.670127,0.0],[-24.923643,80.669858,0.0],[-24.926954,80.669877,0.0],[-24.927014,80.669609,0.0],[-24.935293,80.669657,0.0],[-24.935352,80.669388,0.0],[-24.940319,80.669417,0.0],[-24.940378,80.669148,0.0],[-24.94369,80.669167,0.0],[-24.944042,80.667555,0.0],[-24.942386,80.667546,0.0],[-24.942504,80.667009,0.0],[-24.940848,80.666999,0.0],[-24.940907,80.666731,0.0],[-24.939252,80.666721,0.0],[-24.939311,80.666452,0.0],[-24.937655,80.666443,0.0],[-24.937714,80.666174,0.0],[-24.936059,80.666165,0.0],[-24.936118,80.665896,0.0],[-24.934462,80.665887,0.0],[-24.934521,80.665618,0.0],[-24.931211,80.665599,0.0],[-24.931152,80.665868,0.0],[-24.929497,80.665858,0.0],[-24.929438,80.666127,0.0],[-24.927782,80.666117,0.0],[-24.927723,80.666386,0.0],[-24.926068,80.666376,0.0],[-24.92595,80.666913,0.0],[-24.924294,80.666904,0.0],[-24.924235,80.667172,0.0],[-24.92258,80.667163,0.0],[-24.92252,80.667431,0.0],[-24.920865,80.667422,0.0],[-24.920806,80.66769,0.0],[-24.91915,80.66768,0.0],[-24.919091,80.667949,0.0],[-24.917435,80.667939,0.0],[-24.917376,80.668208,0.0],[-24.91572,80.668198,0.0],[-24.915661,80.668467,0.0],[-24.914005,80.668457,0.0],[-24.913945,80.668726,0.0],[-24.910634,80.668707,0.0],[-24.910574,80.668975,0.0],[-24.908919,80.668966,0.0],[-24.908859,80.669234,0.0],[-24.905547,80.669215,0.0],[-24.905488,80.669483,0.0],[-24.902176,80.669464,0.0],[-24.902116,80.669733,0.0],[-24.90046,80.669723,0.0],[-24.9004,80.669991,0.0],[-24.897089,80.669972,0.0],[-24.897029,80.670241,0.0],[-24.890405,80.670202,0.0],[-24.890345,80.67047,0.0],[-24.887033,80.670451,0.0],[-24.886972,80.670719,0.0],[-24.88366,80.6707,0.0],[-24.8836,80.670968,0.0],[-24.880288,80.670949,0.0],[-24.880227,80.671217,0.0],[-24.876915,80.671198,0.0],[-24.877218,80.669855,0.0],[-24.878874,80.669865,0.0],[-24.878995,80.669327,0.0],[-24.880651,80.669337,0.0],[-24.880711,80.669069,0.0],[-24.882367,80.669078,0.0],[-24.882427,80.66881,0.0],[-24.885739,80.668829,0.0],[-24.885859,80.668292,0.0],[-24.887515,80.668302,0.0],[-24.887575,80.668033,0.0],[-24.88592,80.668024,0.0],[-24.88604,80.667486,0.0],[-24.884385,80.667477,0.0],[-24.884566,80.666671,0.0],[-24.886221,80.666681,0.0],[-24.886643,80.664801,0.0],[-24.884988,80.664791,0.0],[-24.885109,80.664254,0.0],[-24.883454,80.664244,0.0],[-24.883515,80.663975,0.0],[-24.88186,80.663965,0.0],[-24.88192,80.663697,0.0],[-24.876956,80.663667,0.0],[-24.876895,80.663936,0.0],[-24.873586,80.663916,0.0],[-24.873768,80.663111,0.0],[-24.878732,80.66314,0.0],[-24.878792,80.662872,0.0],[-24.880447,80.662881,0.0],[-24.880689,80.661807,0.0],[-24.882343,80.661817,0.0],[-24.882584,80.660742,0.0],[-24.884239,80.660752,0.0],[-24.884299,80.660484,0.0],[-24.885953,80.660493,0.0],[-24.886014,80.660225,0.0],[-24.887668,80.660235,0.0],[-24.887788,80.659697,0.0],[-24.889442,80.659707,0.0],[-24.889502,80.659439,0.0],[-24.891156,80.659448,0.0],[-24.891277,80.658911,0.0],[-24.894585,80.658931,0.0],[-24.894645,80.658662,0.0],[-24.896298,80.658672,0.0],[-24.896358,80.658403,0.0],[-24.899666,80.658423,0.0],[-24.899726,80.658154,0.0],[-24.90138,80.658164,0.0],[-24.90132,80.658432,0.0],[-24.906282,80.658461,0.0],[-24.906341,80.658193,0.0],[-24.907995,80.658203,0.0],[-24.908114,80.657665,0.0],[-24.909768,80.657675,0.0],[-24.909828,80.657406,0.0],[-24.908174,80.657397,0.0],[-24.908353,80.656591,0.0],[-24.906699,80.656581,0.0],[-24.906759,80.656313,0.0],[-24.903452,80.656293,0.0],[-24.903512,80.656025,0.0],[-24.901858,80.656015,0.0],[-24.901918,80.655746,0.0],[-24.898611,80.655727,0.0],[-24.898671,80.655458,0.0],[-24.895364,80.655439,0.0],[-24.895424,80.65517,0.0],[-24.893771,80.655161,0.0],[-24.893831,80.654892,0.0],[-24.892178,80.654882,0.0],[-24.892298,80.654345,0.0],[-24.890645,80.654335,0.0],[-24.890705,80.654067,0.0],[-24.889052,80.654057,0.0],[-24.889172,80.65352,0.0],[-24.887519,80.65351,0.0],[-24.8877,80.652704,0.0],[-24.886047,80.652695,0.0],[-24.886107,80.652426,0.0],[-24.882801,80.652406,0.0],[-24.882862,80.652138,0.0],[-24.881209,80.652128,0.0],[-24.881269,80.651859,0.0],[-24.879617,80.65185,0.0],[-24.879677,80.651581,0.0],[-24.874719,80.651552,0.0],[-24.87478,80.651283,0.0],[-24.873127,80.651273,0.0],[-24.873248,80.650736,0.0],[-24.874901,80.650746,0.0],[-24.875022,80.650209,0.0],[-24.873369,80.650199,0.0],[-24.873491,80.649662,0.0],[-24.871838,80.649652,0.0],[-24.871959,80.649115,0.0],[-24.870307,80.649105,0.0],[-24.870368,80.648836,0.0],[-24.868716,80.648826,0.0],[-24.868776,80.648558,0.0],[-24.86382,80.648528,0.0],[-24.864003,80.647722,0.0],[-24.865655,80.647732,0.0],[-24.865715,80.647464,0.0],[-24.86076,80.647434,0.0],[-24.86082,80.647166,0.0],[-24.859169,80.647156,0.0],[-24.85923,80.646887,0.0],[-24.846015,80.646808,0.0],[-24.846077,80.646539,0.0],[-24.841122,80.646509,0.0],[-24.841183,80.646241,0.0],[-24.83788,80.646221,0.0],[-24.837941,80.645952,0.0],[-24.829683,80.645902,0.0],[-24.829745,80.645633,0.0],[-24.826442,80.645613,0.0],[-24.826504,80.645345,0.0],[-24.824852,80.645335,0.0],[-24.82479,80.645603,0.0],[-24.823139,80.645593,0.0],[-24.823077,80.645862,0.0],[-24.824729,80.645872,0.0],[-24.824667,80.64614,0.0],[-24.826318,80.64615,0.0],[-24.826256,80.646419,0.0],[-24.831211,80.646449,0.0],[-24.83115,80.646718,0.0],[-24.832801,80.646728,0.0],[-24.83274,80.646996,0.0],[-24.834391,80.647006,0.0],[-24.83433,80.647275,0.0],[-24.835982,80.647285,0.0],[-24.83592,80.647553,0.0],[-24.834268,80.647543,0.0],[-24.834207,80.647812,0.0],[-24.827599,80.647772,0.0],[-24.827661,80.647503,0.0],[-24.824357,80.647483,0.0],[-24.824419,80.647215,0.0],[-24.821115,80.647194,0.0],[-24.821177,80.646926,0.0],[-24.819526,80.646916,0.0],[-24.819588,80.646647,0.0],[-24.817936,80.646637,0.0],[-24.818122,80.645831,0.0],[-24.816471,80.645821,0.0],[-24.816533,80.645553,0.0],[-24.81323,80.645533,0.0],[-24.813292,80.645264,0.0],[-24.811641,80.645254,0.0],[-24.811703,80.644985,0.0],[-24.810052,80.644975,0.0],[-24.810114,80.644707,0.0],[-24.808463,80.644696,0.0],[-24.80865,80.643891,0.0],[-24.810301,80.643901,0.0],[-24.810363,80.643632,0.0],[-24.815317,80.643663,0.0],[-24.815255,80.643931,0.0],[-24.821859,80.643972,0.0],[-24.821797,80.64424,0.0],[-24.8251,80.64426,0.0],[-24.825038,80.644529,0.0],[-24.826689,80.644539,0.0],[-24.826628,80.644807,0.0],[-24.828279,80.644817,0.0],[-24.828217,80.645086,0.0],[-24.839777,80.645156,0.0],[-24.839716,80.645425,0.0],[-24.843019,80.645445,0.0],[-24.842957,80.645713,0.0],[-24.849564,80.645753,0.0],[-24.849625,80.645485,0.0],[-24.85458,80.645514,0.0],[-24.854641,80.645246,0.0],[-24.862898,80.645295,0.0],[-24.862959,80.645027,0.0],[-24.864611,80.645037,0.0],[-24.864732,80.644499,0.0],[-24.866383,80.644509,0.0],[-24.866444,80.644241,0.0],[-24.868096,80.644251,0.0],[-24.868217,80.643713,0.0],[-24.869868,80.643723,0.0],[-24.87005,80.642918,0.0],[-24.871701,80.642927,0.0],[-24.871822,80.64239,0.0],[-24.873473,80.6424,0.0],[-24.873655,80.641594,0.0],[-24.875306,80.641604,0.0],[-24.875547,80.64053,0.0],[-24.872246,80.64051,0.0],[-24.872307,80.640242,0.0],[-24.860752,80.640172,0.0],[-24.860691,80.640441,0.0],[-24.859041,80.640431,0.0],[-24.859101,80.640163,0.0],[-24.8558,80.640143,0.0],[-24.855861,80.639874,0.0],[-24.849259,80.639834,0.0],[-24.84932,80.639566,0.0],[-24.844369,80.639536,0.0],[-24.844307,80.639805,0.0],[-24.842657,80.639795,0.0],[-24.842595,80.640063,0.0],[-24.840945,80.640053,0.0],[-24.840883,80.640322,0.0],[-24.835932,80.640292,0.0],[-24.83587,80.64056,0.0],[-24.827617,80.64051,0.0],[-24.827679,80.640242,0.0],[-24.826028,80.640232,0.0],[-24.82609,80.639963,0.0],[-24.82774,80.639973,0.0],[-24.827802,80.639704,0.0],[-24.829453,80.639715,0.0],[-24.829514,80.639446,0.0],[-24.831165,80.639456,0.0],[-24.831227,80.639187,0.0],[-24.832877,80.639197,0.0],[-24.832939,80.638929,0.0],[-24.836239,80.638949,0.0],[-24.836301,80.63868,0.0],[-24.839602,80.6387,0.0],[-24.83954,80.638969,0.0],[-24.844491,80.638999,0.0],[-24.844553,80.63873,0.0],[-24.846203,80.63874,0.0],[-24.846264,80.638472,0.0],[-24.847915,80.638482,0.0],[-24.848037,80.637944,0.0],[-24.846387,80.637934,0.0],[-24.846448,80.637666,0.0],[-24.843148,80.637646,0.0],[-24.843209,80.637377,0.0],[-24.841559,80.637367,0.0],[-24.841682,80.63683,0.0],[-24.844982,80.63685,0.0],[-24.845104,80.636313,0.0],[-24.843454,80.636303,0.0],[-24.843761,80.63496,0.0],[-24.835512,80.63491,0.0],[-24.835574,80.634642,0.0],[-24.833924,80.634632,0.0],[-24.833986,80.634363,0.0],[-24.832336,80.634353,0.0],[-24.83246,80.633816,0.0],[-24.83081,80.633806,0.0],[-24.830872,80.633537,0.0],[-24.832521,80.633547,0.0],[-24.832583,80.633279,0.0],[-24.834232,80.633289,0.0],[-24.834355,80.632752,0.0],[-24.839303,80.632782,0.0],[-24.839365,80.632513,0.0],[-24.841014,80.632523,0.0],[-24.841075,80.632254,0.0],[-24.842724,80.632264,0.0],[-24.842847,80.631727,0.0],[-24.844496,80.631737,0.0],[-24.844619,80.6312,0.0],[-24.847917,80.63122,0.0],[-24.847978,80.630951,0.0],[-24.852925,80.630981,0.0],[-24.852986,80.630713,0.0],[-24.86288,80.630772,0.0],[-24.862819,80.631041,0.0],[-24.866117,80.63106,0.0],[-24.866057,80.631329,0.0],[-24.871004,80.631359,0.0],[-24.870943,80.631627,0.0],[-24.874242,80.631647,0.0],[-24.874181,80.631915,0.0],[-24.884076,80.631974,0.0],[-24.884137,80.631706,0.0],[-24.885786,80.631715,0.0],[-24.885846,80.631447,0.0],[-24.889144,80.631466,0.0],[-24.889084,80.631735,0.0],[-24.894032,80.631764,0.0],[-24.893972,80.632033,0.0],[-24.89727,80.632052,0.0],[-24.897151,80.632589,0.0],[-24.8988,80.632599,0.0],[-24.89874,80.632868,0.0],[-24.90039,80.632878,0.0],[-24.90033,80.633146,0.0],[-24.903629,80.633166,0.0],[-24.903569,80.633434,0.0],[-24.905219,80.633444,0.0],[-24.905159,80.633712,0.0],[-24.906809,80.633722,0.0],[-24.90663,80.634528,0.0],[-24.90828,80.634538,0.0],[-24.908221,80.634806,0.0],[-24.90987,80.634816,0.0],[-24.909752,80.635353,0.0],[-24.911401,80.635363,0.0],[-24.911342,80.635631,0.0],[-24.912992,80.635641,0.0],[-24.912933,80.635909,0.0],[-24.914582,80.635919,0.0],[-24.914523,80.636188,0.0],[-24.916173,80.636197,0.0],[-24.916114,80.636466,0.0],[-24.917764,80.636476,0.0],[-24.917705,80.636744,0.0],[-24.919355,80.636754,0.0],[-24.919296,80.637022,0.0],[-24.920946,80.637032,0.0],[-24.920887,80.637301,0.0],[-24.924187,80.63732,0.0],[-24.924128,80.637588,0.0],[-24.925778,80.637598,0.0],[-24.925719,80.637867,0.0],[-24.92737,80.637876,0.0],[-24.927311,80.638145,0.0],[-24.928961,80.638154,0.0],[-24.928902,80.638423,0.0],[-24.930553,80.638433,0.0],[-24.930494,80.638701,0.0],[-24.932144,80.638711,0.0],[-24.932026,80.639248,0.0],[-24.933677,80.639257,0.0],[-24.933559,80.639795,0.0],[-24.93521,80.639804,0.0],[-24.935093,80.640341,0.0],[-24.936743,80.640351,0.0],[-24.936685,80.64062,0.0],[-24.938335,80.640629,0.0],[-24.938218,80.641166,0.0],[-24.939869,80.641176,0.0],[-24.93981,80.641444,0.0],[-24.941461,80.641454,0.0],[-24.941344,80.641991,0.0],[-24.942995,80.642001,0.0],[-24.942937,80.642269,0.0],[-24.944588,80.642279,0.0],[-24.944529,80.642547,0.0],[-24.946181,80.642557,0.0],[-24.946064,80.643094,0.0],[-24.947715,80.643104,0.0],[-24.947598,80.643641,0.0],[-24.949249,80.64365,0.0],[-24.949016,80.644725,0.0],[-24.945713,80.644706,0.0],[-24.945362,80.646317,0.0],[-24.947014,80.646327,0.0],[-24.946838,80.647133,0.0],[-24.94849,80.647142,0.0],[-24.948082,80.649022,0.0],[-24.949734,80.649032,0.0],[-24.949617,80.649569,0.0],[-24.947965,80.649559,0.0],[-24.947789,80.650365,0.0],[-24.949442,80.650375,0.0],[-24.949267,80.65118,0.0],[-24.950919,80.65119,0.0],[-24.950803,80.651727,0.0],[-24.952455,80.651737,0.0],[-24.952397,80.652005,0.0],[-24.95405,80.652015,0.0],[-24.953992,80.652283,0.0],[-24.955644,80.652293,0.0],[-24.955586,80.652561,0.0],[-24.957239,80.652571,0.0],[-24.957123,80.653108,0.0],[-24.958776,80.653117,0.0],[-24.958718,80.653386,0.0],[-24.960371,80.653395,0.0],[-24.960313,80.653664,0.0],[-24.963619,80.653683,0.0],[-24.963561,80.653952,0.0],[-24.965214,80.653961,0.0],[-24.965156,80.65423,0.0],[-24.966809,80.654239,0.0],[-24.966751,80.654508,0.0],[-24.968404,80.654517,0.0],[-24.968347,80.654786,0.0],[-24.97,80.654795,0.0],[-24.969942,80.655064,0.0],[-24.971595,80.655073,0.0],[-24.971538,80.655342,0.0],[-24.973191,80.655351,0.0],[-24.973133,80.65562,0.0],[-24.974787,80.655629,0.0],[-24.974729,80.655897,0.0],[-24.976383,80.655907,0.0],[-24.976325,80.656175,0.0],[-24.977978,80.656185,0.0],[-24.977921,80.656453,0.0],[-24.979574,80.656463,0.0],[-24.979517,80.656731,0.0],[-24.981171,80.656741,0.0],[-24.981113,80.657009,0.0],[-24.982767,80.657019,0.0],[-24.982652,80.657556,0.0],[-24.984306,80.657565,0.0],[-24.984248,80.657834,0.0],[-24.985902,80.657843,0.0],[-24.985845,80.658112,0.0],[-24.987499,80.658121,0.0],[-24.987441,80.65839,0.0],[-24.989095,80.658399,0.0],[-24.989038,80.658668,0.0],[-24.990692,80.658677,0.0],[-24.990577,80.659214,0.0],[-24.992231,80.659223,0.0],[-24.992174,80.659492,0.0],[-24.993828,80.659501,0.0],[-24.993714,80.660038,0.0],[-24.995368,80.660048,0.0],[-24.995254,80.660585,0.0],[-24.996908,80.660594,0.0],[-24.996794,80.661131,0.0],[-24.998448,80.661141,0.0],[-24.998334,80.661678,0.0],[-24.999989,80.661687,0.0],[-24.999818,80.662493,0.0],[-25.001473,80.662502,0.0],[-25.001359,80.663039,0.0],[-25.003013,80.663049,0.0],[-25.002899,80.663586,0.0],[-25.004554,80.663595,0.0],[-25.004384,80.664401,0.0],[-25.006039,80.66441,0.0],[-25.005925,80.664947,0.0],[-25.00758,80.664957,0.0],[-25.007409,80.665762,0.0],[-25.009065,80.665772,0.0],[-25.008838,80.666846,0.0],[-25.010493,80.666855,0.0],[-25.010266,80.66793,0.0],[-25.011922,80.667939,0.0],[-25.011638,80.669282,0.0],[-25.013294,80.669291,0.0],[-25.013067,80.670366,0.0],[-25.014723,80.670375,0.0],[-25.01461,80.670912,0.0],[-25.016266,80.670921,0.0],[-25.01604,80.671996,0.0],[-25.014383,80.671986,0.0],[-25.014326,80.672255,0.0],[-25.011014,80.672237,0.0],[-25.010957,80.672505,0.0],[-25.007644,80.672487,0.0],[-25.006563,80.67759,0.0],[-25.004905,80.677581,0.0],[-25.004392,80.679999,0.0],[-25.002734,80.679989,0.0],[-25.002392,80.681601,0.0],[-25.000734,80.681592,0.0],[-25.000677,80.68186,0.0],[-24.999019,80.681851,0.0],[-24.998961,80.68212,0.0],[-24.997303,80.68211,0.0],[-24.997017,80.683453,0.0],[-24.998675,80.683463,0.0],[-24.998618,80.683731,0.0],[-25.000277,80.683741,0.0],[-25.000219,80.684009,0.0],[-25.001878,80.684018,0.0],[-25.001821,80.684287,0.0],[-25.005138,80.684305,0.0],[-25.005195,80.684037,0.0],[-25.009469,80.684061,0.0]],[[-24.899554,80.636638,0.0],[-24.899614,80.636369,0.0],[-24.901264,80.636379,0.0],[-24.901383,80.635842,0.0],[-24.903033,80.635851,0.0],[-24.903093,80.635583,0.0],[-24.901443,80.635573,0.0],[-24.901502,80.635305,0.0],[-24.899853,80.635295,0.0],[-24.899912,80.635026,0.0],[-24.896613,80.635007,0.0],[-24.896672,80.634738,0.0],[-24.891723,80.634709,0.0],[-24.891424,80.636052,0.0],[-24.893074,80.636062,0.0],[-24.893014,80.63633,0.0],[-24.894664,80.63634,0.0],[-24.894604,80.636609,0.0],[-24.899554,80.636638,0.0]]]}},{"type":"Feature","properties":{"rgi_id":"RGI2000-v7.0-G-05-17700","o1region":"05"},"geometry":{"type":"Polygon","coordinates":[[[-25.011948,80.730598,0.0],[-25.012062,80.730061,0.0],[-25.002062,80.730005,0.0],[-25.00212,80.729737,0.0],[-24.998787,80.729718,0.0],[-24.998729,80.729987,0.0],[-24.988729,80.729931,0.0],[-24.988672,80.7302,0.0],[-24.982005,80.730163,0.0],[-24.982121,80.729625,0.0],[-24.983787,80.729635,0.0],[-24.984193,80.727755,0.0],[-24.985859,80.727764,0.0],[-24.986033,80.726958,0.0],[-24.987699,80.726967,0.0],[-24.987814,80.72643,0.0],[-24.98948,80.726439,0.0],[-24.989769,80.725096,0.0],[-24.986437,80.725078,0.0],[-24.98638,80.725346,0.0],[-24.983048,80.725328,0.0],[-24.98299,80.725596,0.0],[-24.981324,80.725587,0.0],[-24.981382,80.725318,0.0],[-24.979716,80.725309,0.0],[-24.979774,80.72504,0.0],[-24.98144,80.72505,0.0],[-24.981498,80.724781,0.0],[-24.984829,80.7248,0.0],[-24.984887,80.724531,0.0],[-24.986553,80.724541,0.0],[-24.986611,80.724272,0.0],[-24.988276,80.724281,0.0],[-24.988334,80.724013,0.0],[-24.99,80.724022,0.0],[-24.990057,80.723753,0.0],[-24.991723,80.723763,0.0],[-24.991781,80.723494,0.0],[-24.993446,80.723503,0.0],[-24.993504,80.723235,0.0],[-24.995169,80.723244,0.0],[-24.995227,80.722975,0.0],[-24.996892,80.722985,0.0],[-24.99695,80.722716,0.0],[-24.998615,80.722725,0.0],[-24.998672,80.722457,0.0],[-25.000338,80.722466,0.0],[-25.000395,80.722197,0.0],[-25.00206,80.722207,0.0],[-25.002118,80.721938,0.0],[-25.003783,80.721947,0.0],[-25.003898,80.72141,0.0],[-25.005563,80.721419,0.0],[-25.005849,80.720076,0.0],[-25.007514,80.720086,0.0],[-25.0078,80.718742,0.0],[-25.006135,80.718733,0.0],[-25.006364,80.717659,0.0],[-25.003035,80.71764,0.0],[-25.002978,80.717909,0.0],[-25.001313,80.7179,0.0],[-25.001256,80.718168,0.0],[-24.999591,80.718159,0.0],[-24.999534,80.718428,0.0],[-24.996205,80.718409,0.0],[-24.996147,80.718678,0.0],[-24.992818,80.718659,0.0],[-24.99276,80.718928,0.0],[-24.987766,80.7189,0.0],[-24.987709,80.719169,0.0],[-24.986044,80.719159,0.0],[-24.985986,80.719428,0.0],[-24.984321,80.719419,0.0],[-24.984263,80.719687,0.0],[-24.982599,80.719678,0.0],[-24.982483,80.720215,0.0],[-24.980818,80.720206,0.0],[-24.980702,80.720743,0.0],[-24.979037,80.720734,0.0],[-24.978979,80.721002,0.0],[-24.977314,80.720993,0.0],[-24.977372,80.720724,0.0],[-24.975707,80.720715,0.0],[-24.975823,80.720178,0.0],[-24.977488,80.720187,0.0],[-24.977604,80.71965,0.0],[-24.979269,80.719659,0.0],[-24.979443,80.718853,0.0],[-24.981108,80.718863,0.0],[-24.981166,80.718594,0.0],[-24.98283,80.718603,0.0],[-24.983004,80.717798,0.0],[-24.981339,80.717788,0.0],[-24.981397,80.71752,0.0],[-24.978068,80.717501,0.0],[-24.978126,80.717232,0.0],[-24.974798,80.717214,0.0],[-24.974856,80.716945,0.0],[-24.971527,80.716926,0.0],[-24.971644,80.716389,0.0],[-24.969979,80.71638,0.0],[-24.970038,80.716111,0.0],[-24.968374,80.716102,0.0],[-24.968548,80.715296,0.0],[-24.970212,80.715305,0.0],[-24.970445,80.714231,0.0],[-24.972109,80.71424,0.0],[-24.972167,80.713972,0.0],[-24.973831,80.713981,0.0],[-24.974063,80.712907,0.0],[-24.977391,80.712925,0.0],[-24.977449,80.712657,0.0],[-24.979112,80.712666,0.0],[-24.97917,80.712397,0.0],[-24.980833,80.712407,0.0],[-24.980891,80.712138,0.0],[-24.985882,80.712166,0.0],[-24.985824,80.712435,0.0],[-24.989151,80.712453,0.0],[-24.989093,80.712722,0.0],[-24.99242,80.712741,0.0],[-24.992363,80.713009,0.0],[-24.999017,80.713046,0.0],[-24.999075,80.712778,0.0],[-25.000738,80.712787,0.0],[-25.00091,80.711981,0.0],[-24.997583,80.711963,0.0],[-24.997641,80.711694,0.0],[-24.994314,80.711676,0.0],[-24.994372,80.711407,0.0],[-24.991045,80.711388,0.0],[-24.991218,80.710583,0.0],[-24.982902,80.710536,0.0],[-24.983017,80.709999,0.0],[-24.986344,80.710017,0.0],[-24.986401,80.709749,0.0],[-24.989727,80.709767,0.0],[-24.989785,80.709499,0.0],[-24.993111,80.709517,0.0],[-24.993169,80.709249,0.0],[-24.998157,80.709277,0.0],[-24.998502,80.707665,0.0],[-24.996839,80.707656,0.0],[-24.996896,80.707387,0.0],[-24.995234,80.707378,0.0],[-24.995521,80.706035,0.0],[-24.997183,80.706044,0.0],[-24.997298,80.705507,0.0],[-24.993974,80.705488,0.0],[-24.994031,80.70522,0.0],[-24.995693,80.705229,0.0],[-24.995751,80.70496,0.0],[-24.997413,80.70497,0.0],[-24.99747,80.704701,0.0],[-25.002457,80.704729,0.0],[-25.002514,80.70446,0.0],[-25.004176,80.704469,0.0],[-25.004405,80.703395,0.0],[-25.007729,80.703413,0.0],[-25.007786,80.703145,0.0],[-25.009448,80.703154,0.0],[-25.009505,80.702885,0.0],[-25.011166,80.702895,0.0],[-25.011223,80.702626,0.0],[-25.012885,80.702635,0.0],[-25.012942,80.702367,0.0],[-25.014604,80.702376,0.0],[-25.014718,80.701839,0.0],[-25.016379,80.701848,0.0],[-25.016436,80.701579,0.0],[-25.018098,80.701588,0.0],[-25.018211,80.701051,0.0],[-25.019873,80.70106,0.0],[-25.019929,80.700792,0.0],[-25.021591,80.700801,0.0],[-25.021704,80.700264,0.0],[-25.023366,80.700273,0.0],[-25.023479,80.699736,0.0],[-25.02514,80.699745,0.0],[-25.025197,80.699476,0.0],[-25.026858,80.699485,0.0],[-25.027027,80.698679,0.0],[-25.028689,80.698689,0.0],[-25.028858,80.697883,0.0],[-25.027197,80.697874,0.0],[-25.027253,80.697605,0.0],[-25.025592,80.697596,0.0],[-25.025649,80.697327,0.0],[-25.020666,80.6973,0.0],[-25.02061,80.697568,0.0],[-25.018949,80.697559,0.0],[-25.018892,80.697828,0.0],[-25.01557,80.69781,0.0],[-25.015513,80.698078,0.0],[-25.012191,80.69806,0.0],[-25.012134,80.698328,0.0],[-25.010473,80.698319,0.0],[-25.010416,80.698588,0.0],[-25.007094,80.698569,0.0],[-25.007151,80.698301,0.0],[-25.008812,80.69831,0.0],[-25.008983,80.697504,0.0],[-25.010644,80.697513,0.0],[-25.010929,80.69617,0.0],[-25.01259,80.696179,0.0],[-25.012646,80.695911,0.0],[-25.014307,80.69592,0.0],[-25.014364,80.695651,0.0],[-25.017685,80.69567,0.0],[-25.017742,80.695401,0.0],[-25.019402,80.69541,0.0],[-25.019459,80.695142,0.0],[-25.02112,80.695151,0.0],[-25.021176,80.694882,0.0],[-25.022837,80.694891,0.0],[-25.022893,80.694623,0.0],[-25.031195,80.694668,0.0],[-25.031252,80.6944,0.0],[-25.034572,80.694418,0.0],[-25.034741,80.693612,0.0],[-25.033081,80.693603,0.0],[-25.033137,80.693335,0.0],[-25.029817,80.693316,0.0],[-25.02976,80.693585,0.0],[-25.02644,80.693567,0.0],[-25.026383,80.693835,0.0],[-25.024723,80.693826,0.0],[-25.02478,80.693558,0.0],[-25.023119,80.693548,0.0],[-25.023063,80.693817,0.0],[-25.018082,80.69379,0.0],[-25.018025,80.694058,0.0],[-25.013045,80.694031,0.0],[-25.012874,80.694836,0.0],[-25.011214,80.694827,0.0],[-25.011157,80.695096,0.0],[-25.009496,80.695087,0.0],[-25.009439,80.695355,0.0],[-25.007779,80.695346,0.0],[-25.007722,80.695615,0.0],[-25.006061,80.695605,0.0],[-25.005947,80.696143,0.0],[-25.004286,80.696133,0.0],[-25.004229,80.696402,0.0],[-25.002569,80.696393,0.0],[-25.002511,80.696661,0.0],[-25.000851,80.696652,0.0],[-25.000793,80.696921,0.0],[-24.999133,80.696912,0.0],[-24.999018,80.697449,0.0],[-24.997357,80.697439,0.0],[-24.997243,80.697977,0.0],[-24.995582,80.697967,0.0],[-24.995524,80.698236,0.0],[-24.993863,80.698227,0.0],[-24.993748,80.698764,0.0],[-24.992087,80.698755,0.0],[-24.99203,80.699023,0.0],[-24.990369,80.699014,0.0],[-24.990254,80.699551,0.0],[-24.988592,80.699542,0.0],[-24.988189,80.701422,0.0],[-24.986528,80.701413,0.0],[-24.98647,80.701681,0.0],[-24.984808,80.701672,0.0],[-24.984751,80.701941,0.0],[-24.983089,80.701931,0.0],[-24.983031,80.7022,0.0],[-24.978046,80.702172,0.0],[-24.978104,80.701903,0.0],[-24.976442,80.701894,0.0],[-24.9765,80.701625,0.0],[-24.974839,80.701616,0.0],[-24.974955,80.701079,0.0],[-24.973293,80.701069,0.0],[-24.973351,80.700801,0.0],[-24.97169,80.700791,0.0],[-24.971632,80.70106,0.0],[-24.96997,80.701051,0.0],[-24.969796,80.701856,0.0],[-24.974781,80.701885,0.0],[-24.974665,80.702422,0.0],[-24.976326,80.702431,0.0],[-24.976095,80.703506,0.0],[-24.977756,80.703515,0.0],[-24.977699,80.703784,0.0],[-24.979361,80.703793,0.0],[-24.979303,80.704061,0.0],[-24.980965,80.704071,0.0],[-24.980791,80.704877,0.0],[-24.982453,80.704886,0.0],[-24.982395,80.705155,0.0],[-24.98572,80.705173,0.0],[-24.985604,80.70571,0.0],[-24.983942,80.705701,0.0],[-24.983884,80.70597,0.0],[-24.98056,80.705951,0.0],[-24.980502,80.70622,0.0],[-24.978839,80.70621,0.0],[-24.978781,80.706479,0.0],[-24.977119,80.70647,0.0],[-24.977061,80.706738,0.0],[-24.975399,80.706729,0.0],[-24.975341,80.706997,0.0],[-24.973678,80.706988,0.0],[-24.97362,80.707257,0.0],[-24.970295,80.707238,0.0],[-24.970237,80.707506,0.0],[-24.963586,80.707469,0.0],[-24.963411,80.708275,0.0],[-24.958423,80.708246,0.0],[-24.958481,80.707978,0.0],[-24.956819,80.707968,0.0],[-24.956936,80.707431,0.0],[-24.958598,80.707441,0.0],[-24.958774,80.706635,0.0],[-24.957112,80.706625,0.0],[-24.95717,80.706357,0.0],[-24.947196,80.7063,0.0],[-24.947255,80.706031,0.0],[-24.948917,80.706041,0.0],[-24.948976,80.705772,0.0],[-24.950638,80.705782,0.0],[-24.950755,80.705244,0.0],[-24.95408,80.705263,0.0],[-24.954138,80.704995,0.0],[-24.957463,80.705014,0.0],[-24.957521,80.704745,0.0],[-24.959183,80.704755,0.0],[-24.959242,80.704486,0.0],[-24.960904,80.704495,0.0],[-24.960962,80.704227,0.0],[-24.962624,80.704236,0.0],[-24.962916,80.702893,0.0],[-24.964578,80.702903,0.0],[-24.964694,80.702365,0.0],[-24.966356,80.702375,0.0],[-24.966822,80.700226,0.0],[-24.961838,80.700198,0.0],[-24.961955,80.699661,0.0],[-24.960294,80.699651,0.0],[-24.960352,80.699383,0.0],[-24.952046,80.699335,0.0],[-24.952105,80.699067,0.0],[-24.948783,80.699048,0.0],[-24.948841,80.698779,0.0],[-24.94718,80.69877,0.0],[-24.947239,80.698501,0.0],[-24.942256,80.698473,0.0],[-24.942315,80.698204,0.0],[-24.940654,80.698194,0.0],[-24.940831,80.697389,0.0],[-24.942492,80.697398,0.0],[-24.942727,80.696324,0.0],[-24.95103,80.696371,0.0],[-24.951089,80.696103,0.0],[-24.957731,80.696141,0.0],[-24.95779,80.695872,0.0],[-24.95945,80.695881,0.0],[-24.959567,80.695344,0.0],[-24.962888,80.695363,0.0],[-24.962946,80.695094,0.0],[-24.964607,80.695104,0.0],[-24.964782,80.694298,0.0],[-24.966442,80.694307,0.0],[-24.9665,80.694039,0.0],[-24.96816,80.694048,0.0],[-24.968335,80.693242,0.0],[-24.969995,80.693252,0.0],[-24.970053,80.692983,0.0],[-24.975033,80.693011,0.0],[-24.975091,80.692743,0.0],[-24.976751,80.692752,0.0],[-24.976867,80.692215,0.0],[-24.980186,80.692234,0.0],[-24.980302,80.691696,0.0],[-24.981962,80.691706,0.0],[-24.98202,80.691437,0.0],[-24.983679,80.691447,0.0],[-24.983737,80.691178,0.0],[-24.985397,80.691187,0.0],[-24.985512,80.69065,0.0],[-24.987172,80.690659,0.0],[-24.987229,80.690391,0.0],[-24.988889,80.6904,0.0],[-24.989004,80.689863,0.0],[-24.997302,80.689909,0.0],[-24.997359,80.689641,0.0],[-25.010635,80.689715,0.0],[-25.010692,80.689446,0.0],[-25.014011,80.689464,0.0],[-25.014067,80.689196,0.0],[-25.017386,80.689214,0.0],[-25.017443,80.688945,0.0],[-25.020762,80.688964,0.0],[-25.020818,80.688695,0.0],[-25.022478,80.688704,0.0],[-25.022591,80.688167,0.0],[-25.02425,80.688176,0.0],[-25.024363,80.687639,0.0],[-25.026022,80.687648,0.0],[-25.026248,80.686574,0.0],[-25.024589,80.686565,0.0],[-25.024759,80.685759,0.0],[-25.0231,80.68575,0.0],[-25.023156,80.685481,0.0],[-25.021497,80.685472,0.0],[-25.021837,80.68386,0.0],[-25.023495,80.683869,0.0],[-25.023608,80.683332,0.0],[-25.025267,80.683341,0.0],[-25.025775,80.680924,0.0],[-25.027433,80.680933,0.0],[-25.027489,80.680664,0.0],[-25.025831,80.680655,0.0],[-25.025887,80.680387,0.0],[-25.027545,80.680396,0.0],[-25.027602,80.680127,0.0],[-25.029259,80.680136,0.0],[-25.029316,80.679868,0.0],[-25.030974,80.679877,0.0],[-25.031142,80.679071,0.0],[-25.0328,80.67908,0.0],[-25.032856,80.678811,0.0],[-25.039487,80.678848,0.0],[-25.039431,80.679116,0.0],[-25.041088,80.679125,0.0],[-25.041032,80.679394,0.0],[-25.04269,80.679403,0.0],[-25.042634,80.679672,0.0],[-25.044292,80.679681,0.0],[-25.044236,80.679949,0.0],[-25.045894,80.679958,0.0],[-25.045838,80.680227,0.0],[-25.047496,80.680236,0.0],[-25.04744,80.680505,0.0],[-25.049098,80.680514,0.0],[-25.049042,80.680782,0.0],[-25.0507,80.680791,0.0],[-25.050645,80.68106,0.0],[-25.052303,80.681069,0.0],[-25.052247,80.681338,0.0],[-25.053905,80.681347,0.0],[-25.05385,80.681615,0.0],[-25.055508,80.681624,0.0],[-25.055452,80.681893,0.0],[-25.05711,80.681902,0.0],[-25.056999,80.682439,0.0],[-25.058658,80.682448,0.0],[-25.058602,80.682717,0.0],[-25.06026,80.682726,0.0],[-25.060149,80.683263,0.0],[-25.068442,80.683308,0.0],[-25.068276,80.684113,0.0],[-25.0633,80.684087,0.0],[-25.063245,80.684355,0.0],[-25.061586,80.684346,0.0],[-25.061475,80.684883,0.0],[-25.063134,80.684892,0.0],[-25.063079,80.685161,0.0],[-25.064738,80.68517,0.0],[-25.064572,80.685976,0.0],[-25.062913,80.685967,0.0],[-25.062802,80.686504,0.0],[-25.061143,80.686495,0.0],[-25.061032,80.687032,0.0],[-25.059373,80.687023,0.0],[-25.059151,80.688098,0.0],[-25.064129,80.688125,0.0],[-25.064184,80.687856,0.0],[-25.07414,80.68791,0.0],[-25.07403,80.688447,0.0],[-25.075689,80.688456,0.0],[-25.075634,80.688724,0.0],[-25.077293,80.688733,0.0],[-25.077238,80.689002,0.0],[-25.080557,80.68902,0.0],[-25.080612,80.688751,0.0],[-25.08559,80.688778,0.0],[-25.085481,80.689315,0.0],[-25.083821,80.689306,0.0],[-25.083767,80.689575,0.0],[-25.078788,80.689548,0.0],[-25.078733,80.689817,0.0],[-25.072095,80.689781,0.0],[-25.072039,80.69005,0.0],[-25.065401,80.690014,0.0],[-25.065345,80.690283,0.0],[-25.062026,80.690265,0.0],[-25.061915,80.690802,0.0],[-25.063575,80.690811,0.0],[-25.063409,80.691617,0.0],[-25.061749,80.691608,0.0],[-25.061583,80.692414,0.0],[-25.063243,80.692423,0.0],[-25.063132,80.69296,0.0],[-25.064792,80.692969,0.0],[-25.064737,80.693237,0.0],[-25.068057,80.693255,0.0],[-25.06767,80.695136,0.0],[-25.06933,80.695145,0.0],[-25.069165,80.69595,0.0],[-25.070825,80.695959,0.0],[-25.07066,80.696765,0.0],[-25.072321,80.696774,0.0],[-25.072155,80.69758,0.0],[-25.073816,80.697589,0.0],[-25.073706,80.698126,0.0],[-25.075367,80.698135,0.0],[-25.075257,80.698672,0.0],[-25.076918,80.698681,0.0],[-25.076808,80.699218,0.0],[-25.078469,80.699227,0.0],[-25.078414,80.699496,0.0],[-25.080075,80.699505,0.0],[-25.07991,80.700311,0.0],[-25.081572,80.70032,0.0],[-25.081462,80.700857,0.0],[-25.0798,80.700848,0.0],[-25.07969,80.701385,0.0],[-25.081352,80.701394,0.0],[-25.081297,80.701663,0.0],[-25.082959,80.701671,0.0],[-25.082574,80.703552,0.0],[-25.084236,80.703561,0.0],[-25.084072,80.704367,0.0],[-25.085734,80.704375,0.0],[-25.085624,80.704913,0.0],[-25.087286,80.704921,0.0],[-25.087232,80.70519,0.0],[-25.088894,80.705199,0.0],[-25.088785,80.705736,0.0],[-25.090447,80.705745,0.0],[-25.090392,80.706014,0.0],[-25.093717,80.706031,0.0],[-25.093663,80.7063,0.0],[-25.095325,80.706309,0.0],[-25.095216,80.706846,0.0],[-25.096879,80.706855,0.0],[-25.09677,80.707392,0.0],[-25.098432,80.707401,0.0],[-25.098378,80.707669,0.0],[-25.100041,80.707678,0.0],[-25.099986,80.707947,0.0],[-25.101649,80.707956,0.0],[-25.101595,80.708224,0.0],[-25.106583,80.708251,0.0],[-25.106529,80.708519,0.0],[-25.108192,80.708528,0.0],[-25.108138,80.708797,0.0],[-25.109801,80.708805,0.0],[-25.109692,80.709343,0.0],[-25.111356,80.709351,0.0],[-25.111139,80.710426,0.0],[-25.112802,80.710435,0.0],[-25.11264,80.71124,0.0],[-25.110977,80.711232,0.0],[-25.110922,80.7115,0.0],[-25.102605,80.711457,0.0],[-25.102496,80.711994,0.0],[-25.100833,80.711985,0.0],[-25.100724,80.712522,0.0],[-25.09906,80.712513,0.0],[-25.099005,80.712782,0.0],[-25.095678,80.712764,0.0],[-25.095623,80.713033,0.0],[-25.09396,80.713024,0.0],[-25.093905,80.713293,0.0],[-25.095569,80.713302,0.0],[-25.09546,80.713839,0.0],[-25.097124,80.713848,0.0],[-25.097014,80.714385,0.0],[-25.098678,80.714394,0.0],[-25.098569,80.714931,0.0],[-25.100233,80.71494,0.0],[-25.100179,80.715208,0.0],[-25.101843,80.715217,0.0],[-25.10168,80.716023,0.0],[-25.103344,80.716032,0.0],[-25.103126,80.717106,0.0],[-25.101462,80.717098,0.0],[-25.101407,80.717366,0.0],[-25.099743,80.717357,0.0],[-25.099688,80.717626,0.0],[-25.101353,80.717635,0.0],[-25.101135,80.718709,0.0],[-25.1028,80.718718,0.0],[-25.102636,80.719524,0.0],[-25.104301,80.719533,0.0],[-25.104138,80.720339,0.0],[-25.105803,80.720347,0.0],[-25.105694,80.720885,0.0],[-25.10736,80.720893,0.0],[-25.107305,80.721162,0.0],[-25.10897,80.721171,0.0],[-25.108916,80.721439,0.0],[-25.110581,80.721448,0.0],[-25.110419,80.722254,0.0],[-25.112084,80.722263,0.0],[-25.11203,80.722531,0.0],[-25.113695,80.72254,0.0],[-25.113533,80.723346,0.0],[-25.115199,80.723355,0.0],[-25.11509,80.723892,0.0],[-25.116756,80.723901,0.0],[-25.116648,80.724438,0.0],[-25.114982,80.724429,0.0],[-25.114928,80.724698,0.0],[-25.113262,80.724689,0.0],[-25.113208,80.724958,0.0],[-25.111542,80.724949,0.0],[-25.111325,80.726023,0.0],[-25.112991,80.726032,0.0],[-25.112774,80.727107,0.0],[-25.111108,80.727098,0.0],[-25.111054,80.727367,0.0],[-25.109388,80.727358,0.0],[-25.109333,80.727626,0.0],[-25.107667,80.727618,0.0],[-25.107613,80.727886,0.0],[-25.10428,80.727869,0.0],[-25.104225,80.728137,0.0],[-25.102559,80.728129,0.0],[-25.102504,80.728397,0.0],[-25.099171,80.72838,0.0],[-25.099117,80.728648,0.0],[-25.09745,80.728639,0.0],[-25.097396,80.728908,0.0],[-25.087396,80.728855,0.0],[-25.087451,80.728587,0.0],[-25.084118,80.728569,0.0],[-25.084173,80.7283,0.0],[-25.082507,80.728291,0.0],[-25.082562,80.728023,0.0],[-25.080895,80.728014,0.0],[-25.080951,80.727745,0.0],[-25.077618,80.727727,0.0],[-25.077673,80.727459,0.0],[-25.067675,80.727405,0.0],[-25.06762,80.727674,0.0],[-25.057622,80.72762,0.0],[-25.057678,80.727352,0.0],[-25.056012,80.727343,0.0],[-25.056067,80.727074,0.0],[-25.054401,80.727065,0.0],[-25.054457,80.726796,0.0],[-25.049459,80.726769,0.0],[-25.049403,80.727038,0.0],[-25.04607,80.72702,0.0],[-25.046014,80.727288,0.0],[-25.042682,80.72727,0.0],[-25.042626,80.727539,0.0],[-25.040959,80.72753,0.0],[-25.040903,80.727799,0.0],[-25.039237,80.727789,0.0],[-25.03918,80.728058,0.0],[-25.032515,80.728022,0.0],[-25.032459,80.72829,0.0],[-25.030792,80.728281,0.0],[-25.030736,80.72855,0.0],[-25.029069,80.728541,0.0],[-25.029013,80.728809,0.0],[-25.024013,80.728782,0.0],[-25.023956,80.729051,0.0],[-25.02229,80.729041,0.0],[-25.022233,80.72931,0.0],[-25.020566,80.729301,0.0],[-25.020339,80.730375,0.0],[-25.017006,80.730357,0.0],[-25.016949,80.730626,0.0],[-25.011948,80.730598,0.0]],[[-25.005443,80.714158,0.0],[-25.0055,80.713889,0.0],[-25.007164,80.713898,0.0],[-25.007221,80.71363,0.0],[-25.010549,80.713648,0.0],[-25.010663,80.713111,0.0],[-25.012327,80.71312,0.0],[-25.012441,80.712583,0.0],[-25.009113,80.712565,0.0],[-25.009056,80.712833,0.0],[-25.007393,80.712824,0.0],[-25.007336,80.713093,0.0],[-25.004008,80.713074,0.0],[-25.003951,80.713343,0.0],[-25.000624,80.713324,0.0],[-25.000452,80.71413,0.0],[-25.005443,80.714158,0.0]],[[-24.959158,80.697224,0.0],[-24.9591,80.697493,0.0],[-24.957439,80.697483,0.0],[-24.957322,80.698021,0.0],[-24.958983,80.69803,0.0],[-24.958925,80.698299,0.0],[-24.965568,80.698336,0.0],[-24.965743,80.697531,0.0],[-24.964082,80.697521,0.0],[-24.964141,80.697253,0.0],[-24.959158,80.697224,0.0]],[[-24.96796,80.702653,0.0],[-24.969621,80.702662,0.0],[-24.96968,80.702394,0.0],[-24.968018,80.702384,0.0],[-24.96796,80.702653,0.0]]]}},{"type":"Feature","properties":{"rgi_id":"RGI2000-v7.0-G-05-17701","o1region":"05"},"geometry":{"type":"Polygon","coordinates":[[[-25.063937,80.734372,0.0],[-25.063993,80.734104,0.0],[-25.062325,80.734095,0.0],[-25.06238,80.733826,0.0],[-25.060712,80.733817,0.0],[-25.060768,80.733548,0.0],[-25.0591,80.733539,0.0],[-25.059044,80.733808,0.0],[-25.055709,80.73379,0.0],[-25.055765,80.733521,0.0],[-25.050761,80.733494,0.0],[-25.050817,80.733226,0.0],[-25.047481,80.733208,0.0],[-25.047538,80.732939,0.0],[-25.04587,80.73293,0.0],[-25.045982,80.732393,0.0],[-25.044315,80.732384,0.0],[-25.044371,80.732115,0.0],[-25.042703,80.732106,0.0],[-25.042984,80.730763,0.0],[-25.044652,80.730772,0.0],[-25.044708,80.730503,0.0],[-25.059714,80.730585,0.0],[-25.059769,80.730316,0.0],[-25.061437,80.730325,0.0],[-25.061381,80.730594,0.0],[-25.064716,80.730612,0.0],[-25.06466,80.73088,0.0],[-25.066327,80.730889,0.0],[-25.066272,80.731158,0.0],[-25.069607,80.731176,0.0],[-25.069551,80.731444,0.0],[-25.071219,80.731453,0.0],[-25.071108,80.73199,0.0],[-25.06944,80.731981,0.0],[-25.069329,80.732519,0.0],[-25.070997,80.732528,0.0],[-25.070664,80.734139,0.0],[-25.068996,80.73413,0.0],[-25.068941,80.734399,0.0],[-25.063937,80.734372,0.0]]]}},{"type":"Feature","properties":{"rgi_id":"RGI2000-v7.0-G-05-17702","o1region":"05"},"geometry":{"type":"Polygon","coordinates":[[[-25.063451,80.739753,0.0],[-25.063618,80.738947,0.0],[-25.065286,80.738956,0.0],[-25.065342,80.738687,0.0],[-25.063673,80.738678,0.0],[-25.063785,80.738141,0.0],[-25.062117,80.738132,0.0],[-25.062228,80.737595,0.0],[-25.06056,80.737586,0.0],[-25.060671,80.737049,0.0],[-25.059003,80.73704,0.0],[-25.059059,80.736771,0.0],[-25.057391,80.736762,0.0],[-25.057447,80.736493,0.0],[-25.055779,80.736484,0.0],[-25.056003,80.73541,0.0],[-25.054335,80.735401,0.0],[-25.054447,80.734864,0.0],[-25.056115,80.734873,0.0],[-25.05617,80.734604,0.0],[-25.057838,80.734613,0.0],[-25.057782,80.734882,0.0],[-25.061117,80.7349,0.0],[-25.061062,80.735168,0.0],[-25.062729,80.735177,0.0],[-25.062618,80.735715,0.0],[-25.06095,80.735706,0.0],[-25.060894,80.735974,0.0],[-25.062562,80.735983,0.0],[-25.062506,80.736252,0.0],[-25.065842,80.73627,0.0],[-25.065787,80.736538,0.0],[-25.067454,80.736547,0.0],[-25.067343,80.737084,0.0],[-25.069011,80.737093,0.0],[-25.068956,80.737362,0.0],[-25.075628,80.737398,0.0],[-25.075573,80.737666,0.0],[-25.077241,80.737675,0.0],[-25.077296,80.737407,0.0],[-25.080632,80.737424,0.0],[-25.080687,80.737156,0.0],[-25.082355,80.737165,0.0],[-25.08208,80.738508,0.0],[-25.080411,80.738499,0.0],[-25.080301,80.739036,0.0],[-25.078633,80.739027,0.0],[-25.078577,80.739296,0.0],[-25.076909,80.739287,0.0],[-25.076854,80.739556,0.0],[-25.075185,80.739547,0.0],[-25.074964,80.740621,0.0],[-25.071627,80.740603,0.0],[-25.071682,80.740335,0.0],[-25.070013,80.740326,0.0],[-25.070069,80.740057,0.0],[-25.0684,80.740048,0.0],[-25.068456,80.73978,0.0],[-25.063451,80.739753,0.0]],[[-25.075517,80.737935,0.0],[-25.072181,80.737917,0.0],[-25.072126,80.738186,0.0],[-25.070457,80.738177,0.0],[-25.070402,80.738445,0.0],[-25.075407,80.738472,0.0],[-25.075517,80.737935,0.0]]]}}]}
