{"type":"FeatureCollection","features":[{"type":"Feature","properties":{"rgi_id":"RGI2000-v7.0-G-14-00040","o1region":"14"},"geometry":{"type":"Polygon","coordinates":[[[68.769384,35.21194,0.0],[68.769211,35.211939,0.0],[68.768777,35.211867,0.0],[68.768343,35.212009,0.0],[68.767908,35.21215,0.0],[68.76756,35.212435,0.0],[68.767733,35.212791,0.0],[68.767906,35.213148,0.0],[68.768078,35.213504,0.0],[68.768599,35.213505,0.0],[68.769034,35.213292,0.0],[68.769382,35.212937,0.0],[68.769643,35.212581,0.0],[68.769384,35.21194,0.0]]]}},{"type":"Feature","properties":{"rgi_id":"RGI2000-v7.0-G-14-00041","o1region":"14"},"geometry":{"type":"Polygon","coordinates":[[[68.774151,35.212541,0.0],[68.773695,35.212165,0.0],[68.773238,35.212164,0.0],[68.77278,35.212201,0.0],[68.772323,35.212237,0.0],[68.771911,35.212387,0.0],[68.77191,35.212762,0.0],[68.772275,35.213025,0.0],[68.77264,35.213251,0.0],[68.772959,35.213515,0.0],[68.773279,35.213778,0.0],[68.773736,35.213816,0.0],[68.774148,35.213667,0.0],[68.774332,35.21333,0.0],[68.774333,35.212954,0.0],[68.774197,35.212541,0.0],[68.774151,35.212541,0.0]]]}},{"type":"Feature","properties":{"rgi_id":"RGI2000-v7.0-G-14-00042","o1region":"14"},"geometry":{"type":"Polygon","coordinates":[[[68.784882,35.218228,0.0],[68.785067,35.217627,0.0],[68.784885,35.217289,0.0],[68.784703,35.216951,0.0],[68.784612,35.216576,0.0],[68.784476,35.2162,0.0],[68.784386,35.215787,0.0],[68.78425,35.215412,0.0],[68.784022,35.215074,0.0],[68.783611,35.214848,0.0],[68.783154,35.214809,0.0],[68.782696,35.214809,0.0],[68.782284,35.214958,0.0],[68.781918,35.215182,0.0],[68.781597,35.215445,0.0],[68.781413,35.215782,0.0],[68.781184,35.216119,0.0],[68.781091,35.216494,0.0],[68.781136,35.21687,0.0],[68.781318,35.217208,0.0],[68.781637,35.217471,0.0],[68.782049,35.217622,0.0],[68.782506,35.217736,0.0],[68.782963,35.217849,0.0],[68.783419,35.218037,0.0],[68.783876,35.218188,0.0],[68.784334,35.218227,0.0],[68.784837,35.218228,0.0],[68.784882,35.218228,0.0]]]}},{"type":"Feature","properties":{"rgi_id":"RGI2000-v7.0-G-14-00043","o1region":"14"},"geometry":{"type":"Polygon","coordinates":[[[68.771924,35.224134,0.0],[68.771513,35.223607,0.0],[68.771056,35.223644,0.0],[68.770598,35.223756,0.0],[68.770323,35.224056,0.0],[68.770322,35.224431,0.0],[68.770321,35.224844,0.0],[68.770457,35.225219,0.0],[68.770914,35.22537,0.0],[68.771371,35.225371,0.0],[68.771829,35.225372,0.0],[68.772286,35.22526,0.0],[68.772104,35.224922,0.0],[68.772014,35.224547,0.0],[68.771924,35.224171,0.0],[68.771924,35.224134,0.0]]]}},{"type":"Feature","properties":{"rgi_id":"RGI2000-v7.0-G-14-00044","o1region":"14"},"geometry":{"type":"Polygon","coordinates":[[[68.798452,35.223267,0.0],[68.798393,35.222517,0.0],[68.79815,35.222216,0.0],[68.797785,35.221965,0.0],[68.79742,35.221715,0.0],[68.797054,35.221514,0.0],[68.796689,35.221263,0.0],[68.796263,35.221112,0.0],[68.795836,35.220961,0.0],[68.795409,35.22086,0.0],[68.794922,35.22076,0.0],[68.794373,35.220759,0.0],[68.793885,35.220758,0.0],[68.793397,35.220757,0.0],[68.79297,35.220856,0.0],[68.792482,35.220906,0.0],[68.791994,35.221055,0.0],[68.791871,35.221405,0.0],[68.792175,35.221706,0.0],[68.792541,35.221906,0.0],[68.792906,35.222157,0.0],[68.793271,35.222358,0.0],[68.793576,35.222659,0.0],[68.793636,35.223059,0.0],[68.793696,35.22346,0.0],[68.793755,35.22386,0.0],[68.79406,35.224161,0.0],[68.794486,35.224262,0.0],[68.794913,35.224412,0.0],[68.795339,35.224513,0.0],[68.795766,35.224664,0.0],[68.796254,35.224715,0.0],[68.79662,35.224465,0.0],[68.796986,35.224266,0.0],[68.797292,35.223966,0.0],[68.797659,35.223716,0.0],[68.798025,35.223417,0.0],[68.798452,35.223317,0.0],[68.798452,35.223267,0.0]]]}},{"type":"Feature","properties":{"rgi_id":"RGI2000-v7.0-G-14-00045","o1region":"14"},"geometry":{"type":"Polygon","coordinates":[[[68.834609,35.271165,0.0],[68.834509,35.270918,0.0],[68.834057,35.270959,0.0],[68.833606,35.271082,0.0],[68.833204,35.271287,0.0],[68.832852,35.271574,0.0],[68.832551,35.271903,0.0],[68.8324,35.272314,0.0],[68.832349,35.272684,0.0],[68.832298,35.273054,0.0],[68.832297,35.273424,0.0],[68.832396,35.273795,0.0],[68.832646,35.274165,0.0],[68.832997,35.274412,0.0],[68.833448,35.274413,0.0],[68.8339,35.27429,0.0],[68.834001,35.27392,0.0],[68.833902,35.27355,0.0],[68.833802,35.27318,0.0],[68.833803,35.272809,0.0],[68.833804,35.272398,0.0],[68.833804,35.272028,0.0],[68.834206,35.271864,0.0],[68.834407,35.271535,0.0],[68.834609,35.271206,0.0],[68.834609,35.271165,0.0]]]}},{"type":"Feature","properties":{"rgi_id":"RGI2000-v7.0-G-14-00046","o1region":"14"},"geometry":{"type":"Polygon","coordinates":[[[68.839318,35.273598,0.0],[68.839318,35.273557,0.0],[68.839269,35.273187,0.0],[68.839169,35.272775,0.0],[68.838768,35.27261,0.0],[68.838367,35.272445,0.0],[68.837916,35.272486,0.0],[68.837564,35.272732,0.0],[68.837313,35.273061,0.0],[68.837262,35.273431,0.0],[68.837562,35.273719,0.0],[68.838064,35.273885,0.0],[68.839318,35.273598,0.0]]]}},{"type":"Feature","properties":{"rgi_id":"RGI2000-v7.0-G-14-00047","o1region":"14"},"geometry":{"type":"Polygon","coordinates":[[[68.825865,35.279009,0.0],[68.825865,35.278968,0.0],[68.825816,35.278597,0.0],[68.825717,35.278227,0.0],[68.825617,35.277857,0.0],[68.825216,35.277651,0.0],[68.824765,35.277691,0.0],[68.824363,35.277855,0.0],[68.824262,35.278225,0.0],[68.824562,35.278513,0.0],[68.824963,35.27872,0.0],[68.825865,35.279009,0.0]]]}},{"type":"Feature","properties":{"rgi_id":"RGI2000-v7.0-G-14-00048","o1region":"14"},"geometry":{"type":"Polygon","coordinates":[[[68.810058,35.282275,0.0],[68.810008,35.282275,0.0],[68.809557,35.282316,0.0],[68.809155,35.28248,0.0],[68.809104,35.28285,0.0],[68.809203,35.28322,0.0],[68.809303,35.28359,0.0],[68.809302,35.28396,0.0],[68.809101,35.284289,0.0],[68.808649,35.28433,0.0],[68.808197,35.284452,0.0],[68.808146,35.284822,0.0],[68.808346,35.285193,0.0],[68.808747,35.285399,0.0],[68.809249,35.285318,0.0],[68.8095,35.284989,0.0],[68.809652,35.284578,0.0],[68.809753,35.284208,0.0],[68.809754,35.283838,0.0],[68.809855,35.283468,0.0],[68.810258,35.28281,0.0],[68.810058,35.282275,0.0]]]}},{"type":"Feature","properties":{"rgi_id":"RGI2000-v7.0-G-14-00049","o1region":"14"},"geometry":{"type":"Polygon","coordinates":[[[68.862654,35.299663,0.0],[68.862654,35.299612,0.0],[68.862467,35.299252,0.0],[68.862405,35.298893,0.0],[68.862155,35.298533,0.0],[68.862093,35.298173,0.0],[68.862094,35.297762,0.0],[68.862094,35.297351,0.0],[68.86172,35.296683,0.0],[68.861469,35.296374,0.0],[68.861219,35.296066,0.0],[68.860781,35.29586,0.0],[68.860406,35.295654,0.0],[68.859967,35.295551,0.0],[68.859528,35.295653,0.0],[68.859215,35.295961,0.0],[68.858901,35.296217,0.0],[68.858587,35.296474,0.0],[68.858461,35.296833,0.0],[68.858648,35.297193,0.0],[68.858899,35.297502,0.0],[68.859211,35.29781,0.0],[68.859524,35.298067,0.0],[68.859837,35.298325,0.0],[68.86015,35.298582,0.0],[68.8604,35.29889,0.0],[68.86065,35.299199,0.0],[68.860963,35.299507,0.0],[68.861464,35.299508,0.0],[68.862654,35.299663,0.0]]]}},{"type":"Feature","properties":{"rgi_id":"RGI2000-v7.0-G-14-00050","o1region":"14"},"geometry":{"type":"Polygon","coordinates":[[[68.852566,35.312753,0.0],[68.852566,35.312724,0.0],[68.852496,35.312291,0.0],[68.852497,35.311915,0.0],[68.852357,35.311568,0.0],[68.851899,35.311452,0.0],[68.851688,35.311134,0.0],[68.8513,35.310931,0.0],[68.850842,35.310989,0.0],[68.850665,35.311335,0.0],[68.850664,35.311711,0.0],[68.850664,35.312086,0.0],[68.850769,35.312462,0.0],[68.851121,35.312694,0.0],[68.851614,35.312781,0.0],[68.852073,35.312782,0.0],[68.852566,35.312753,0.0]]]}},{"type":"Feature","properties":{"rgi_id":"RGI2000-v7.0-G-14-00051","o1region":"14"},"geometry":{"type":"Polygon","coordinates":[[[68.879271,35.291154,0.0],[68.879523,35.290435,0.0],[68.879398,35.290075,0.0],[68.879273,35.289716,0.0],[68.879211,35.289356,0.0],[68.879087,35.288996,0.0],[68.878836,35.288688,0.0],[68.878586,35.28838,0.0],[68.878336,35.288071,0.0],[68.877898,35.287917,0.0],[68.87746,35.287762,0.0],[68.877084,35.287556,0.0],[68.876645,35.287607,0.0],[68.876394,35.287915,0.0],[68.876394,35.288326,0.0],[68.876456,35.288686,0.0],[68.876518,35.289045,0.0],[68.876517,35.289456,0.0],[68.876517,35.289918,0.0],[68.876955,35.28997,0.0],[68.877394,35.290022,0.0],[68.877832,35.290177,0.0],[68.878333,35.29028,0.0],[68.878771,35.290434,0.0],[68.879084,35.290743,0.0],[68.879271,35.291103,0.0],[68.879271,35.291154,0.0]]]}},{"type":"Feature","properties":{"rgi_id":"RGI2000-v7.0-G-14-00052","o1region":"14"},"geometry":{"type":"Polygon","coordinates":[[[68.884108,35.282529,0.0],[68.884861,35.281862,0.0],[68.88461,35.281554,0.0],[68.884172,35.281399,0.0],[68.883922,35.281091,0.0],[68.883735,35.280731,0.0],[68.88361,35.280371,0.0],[68.883485,35.27996,0.0],[68.883298,35.2796,0.0],[68.883173,35.279241,0.0],[68.883111,35.278881,0.0],[68.883111,35.27847,0.0],[68.883112,35.278059,0.0],[68.882673,35.27811,0.0],[68.882235,35.278315,0.0],[68.881984,35.278623,0.0],[68.881983,35.279034,0.0],[68.881982,35.279445,0.0],[68.881919,35.279804,0.0],[68.881856,35.280164,0.0],[68.881542,35.280472,0.0],[68.881166,35.280677,0.0],[68.881291,35.281037,0.0],[68.881604,35.281294,0.0],[68.881729,35.281705,0.0],[68.881791,35.282065,0.0],[68.882103,35.282373,0.0],[68.882479,35.282579,0.0],[68.88298,35.282579,0.0],[68.883481,35.28258,0.0],[68.884045,35.28258,0.0],[68.884108,35.282529,0.0]]]}},{"type":"Feature","properties":{"rgi_id":"RGI2000-v7.0-G-14-00053","o1region":"14"},"geometry":{"type":"Polygon","coordinates":[[[68.860026,35.348307,0.0],[68.858803,35.348162,0.0],[68.858338,35.348114,0.0],[68.857639,35.348113,0.0],[68.857173,35.348113,0.0],[68.856765,35.348255,0.0],[68.856473,35.348541,0.0],[68.856531,35.348923,0.0],[68.856821,35.34921,0.0],[68.857229,35.349401,0.0],[68.857578,35.34964,0.0],[68.857985,35.349831,0.0],[68.858392,35.350023,0.0],[68.8588,35.350214,0.0],[68.859266,35.35031,0.0],[68.859731,35.350358,0.0],[68.860256,35.350263,0.0],[68.860489,35.34993,0.0],[68.86049,35.3495,0.0],[68.860316,35.349166,0.0],[68.860026,35.348307,0.0]]]}},{"type":"Feature","properties":{"rgi_id":"RGI2000-v7.0-G-14-00054","o1region":"14"},"geometry":{"type":"Polygon","coordinates":[[[68.841371,35.348125,0.0],[68.841436,35.348338,0.0],[68.841623,35.348523,0.0],[68.841622,35.348714,0.0],[68.841738,35.349095,0.0],[68.841737,35.349477,0.0],[68.841736,35.349859,0.0],[68.841794,35.350241,0.0],[68.842026,35.350575,0.0],[68.842039,35.350661,0.0],[68.842201,35.350718,0.0],[68.842375,35.351053,0.0],[68.842477,35.351249,0.0],[68.842612,35.351234,0.0],[68.843014,35.35107,0.0],[68.843282,35.350741,0.0],[68.84355,35.350412,0.0],[68.843685,35.350029,0.0],[68.84383,35.349712,0.0],[68.843619,35.349316,0.0],[68.843352,35.348986,0.0],[68.843152,35.348657,0.0],[68.842885,35.348328,0.0],[68.842752,35.347944,0.0],[68.842734,35.347837,0.0],[68.842686,35.34756,0.0],[68.842486,35.34723,0.0],[68.842151,35.346956,0.0],[68.84175,35.346791,0.0],[68.841349,35.346626,0.0],[68.840881,35.34646,0.0],[68.840545,35.346734,0.0],[68.840545,35.347118,0.0],[68.840879,35.347393,0.0],[68.841146,35.347722,0.0],[68.841413,35.348051,0.0],[68.841432,35.348075,0.0],[68.841371,35.348125,0.0]]]}},{"type":"Feature","properties":{"rgi_id":"RGI2000-v7.0-G-14-00055","o1region":"14"},"geometry":{"type":"Polygon","coordinates":[[[68.835573,35.347466,0.0],[68.835573,35.347409,0.0],[68.835468,35.346975,0.0],[68.835469,35.346599,0.0],[68.835716,35.346282,0.0],[68.835928,35.345964,0.0],[68.83607,35.345618,0.0],[68.836212,35.345271,0.0],[68.836319,35.344896,0.0],[68.836284,35.34452,0.0],[68.836144,35.344173,0.0],[68.835862,35.343826,0.0],[68.835687,35.343479,0.0],[68.835334,35.343247,0.0],[68.834876,35.34316,0.0],[68.834453,35.343304,0.0],[68.834065,35.343477,0.0],[68.833782,35.343765,0.0],[68.83364,35.344112,0.0],[68.833498,35.344487,0.0],[68.833356,35.344834,0.0],[68.83332,35.34521,0.0],[68.83332,35.345614,0.0],[68.833354,35.34599,0.0],[68.833424,35.346365,0.0],[68.833599,35.346712,0.0],[68.83381,35.347031,0.0],[68.834127,35.347291,0.0],[68.83455,35.347465,0.0],[68.835573,35.347466,0.0]]]}},{"type":"Feature","properties":{"rgi_id":"RGI2000-v7.0-G-14-00056","o1region":"14"},"geometry":{"type":"Polygon","coordinates":[[[68.804395,35.365895,0.0],[68.803903,35.365374,0.0],[68.803621,35.365085,0.0],[68.80341,35.364766,0.0],[68.803093,35.364506,0.0],[68.802671,35.364274,0.0],[68.802247,35.364389,0.0],[68.802211,35.364764,0.0],[68.802104,35.365169,0.0],[68.802033,35.365573,0.0],[68.801891,35.36592,0.0],[68.80196,35.366295,0.0],[68.802383,35.366412,0.0],[68.802771,35.366615,0.0],[68.803123,35.366846,0.0],[68.803582,35.366818,0.0],[68.8039,35.366559,0.0],[68.804183,35.36627,0.0],[68.804395,35.365924,0.0],[68.804395,35.365895,0.0]]]}}]}
