{"type":"FeatureCollection","features":[{"type":"Feature","properties":{"rgi_id":"RGI2000-v7.0-G-06-00538","o1region":"06"},"geometry":{"type":"Polygon","coordinates":[[[-18.59123,66.04263,0.0],[-18.59124,66.0422,0.0],[-18.59151,66.04174,0.0],[-18.59201,66.04128,0.0],[-18.59304,66.04086,0.0],[-18.59374,66.04067,0.0],[-18.59563,66.04069,0.0],[-18.59644,66.04087,0.0],[-18.59724,66.04101,0.0],[-18.59773,66.04123,0.0],[-18.59864,66.04127,0.0],[-18.60004,66.04134,0.0],[-18.60069,66.04147,0.0],[-18.60084,66.04185,0.0],[-18.60095,66.04229,0.0],[-18.60121,66.04259,0.0],[-18.60142,66.04288,0.0],[-18.60098,66.04371,0.0],[-18.60022,66.04413,0.0],[-18.59913,66.04439,0.0],[-18.59778,66.04443,0.0],[-18.59601,66.04425,0.0],[-18.59493,66.04427,0.0],[-18.5939,66.04444,0.0],[-18.59336,66.04424,0.0],[-18.59321,66.04391,0.0],[-18.59278,66.04367,0.0],[-18.59197,66.04364,0.0],[-18.59121,66.04377,0.0],[-18.59062,66.04351,0.0],[-18.59084,66.04316,0.0],[-18.59112,66.04292,0.0],[-18.59123,66.04263,0.0]]]}},{"type":"Feature","properties":{"rgi_id":"RGI2000-v7.0-G-06-00539","o1region":"06"},"geometry":{"type":"Polygon","coordinates":[[[-18.239031,66.055771,0.0],[-18.239073,66.055766,0.0],[-18.239288,66.055735,0.0],[-18.239494,66.055701,0.0],[-18.23969,66.055662,0.0],[-18.23988,66.055616,0.0],[-18.240066,66.055567,0.0],[-18.240251,66.055517,0.0],[-18.240437,66.055468,0.0],[-18.240624,66.055419,0.0],[-18.240807,66.055367,0.0],[-18.240991,66.055314,0.0],[-18.24118,66.055269,0.0],[-18.24138,66.055236,0.0],[-18.241593,66.055211,0.0],[-18.241815,66.055191,0.0],[-18.242041,66.055179,0.0],[-18.242264,66.055174,0.0],[-18.242481,66.055181,0.0],[-18.242688,66.055201,0.0],[-18.242894,66.055231,0.0],[-18.243095,66.055271,0.0],[-18.243292,66.055316,0.0],[-18.243483,66.055366,0.0],[-18.243665,66.055418,0.0],[-18.243841,66.055473,0.0],[-18.24401,66.055535,0.0],[-18.244162,66.055603,0.0],[-18.244285,66.055677,0.0],[-18.244369,66.055756,0.0],[-18.244423,66.055843,0.0],[-18.244452,66.055933,0.0],[-18.244464,66.056026,0.0],[-18.244464,66.056116,0.0],[-18.24445,66.056205,0.0],[-18.244416,66.056294,0.0],[-18.244373,66.056382,0.0],[-18.244329,66.056471,0.0],[-18.244295,66.056559,0.0],[-18.244275,66.056649,0.0],[-18.244255,66.056739,0.0],[-18.244237,66.056829,0.0],[-18.244224,66.056919,0.0],[-18.244218,66.057009,0.0],[-18.244221,66.057099,0.0],[-18.244238,66.057187,0.0],[-18.244278,66.057275,0.0],[-18.244351,66.057362,0.0],[-18.24445,66.057444,0.0],[-18.244571,66.057518,0.0],[-18.244736,66.057575,0.0],[-18.24493,66.057623,0.0],[-18.245107,66.057677,0.0],[-18.245249,66.057746,0.0],[-18.245382,66.057819,0.0],[-18.245501,66.057896,0.0],[-18.245601,66.057976,0.0],[-18.245675,66.058059,0.0],[-18.245726,66.058145,0.0],[-18.245762,66.058234,0.0],[-18.245788,66.058324,0.0],[-18.245814,66.058414,0.0],[-18.245843,66.058503,0.0],[-18.245873,66.058592,0.0],[-18.245901,66.058681,0.0],[-18.245928,66.05877,0.0],[-18.245953,66.058859,0.0],[-18.245977,66.058948,0.0],[-18.245999,66.059037,0.0],[-18.246021,66.059127,0.0],[-18.246046,66.059216,0.0],[-18.246071,66.059306,0.0],[-18.246092,66.059396,0.0],[-18.246107,66.059486,0.0],[-18.24611,66.059575,0.0],[-18.2461,66.059664,0.0],[-18.246077,66.059758,0.0],[-18.246034,66.059854,0.0],[-18.245961,66.05994,0.0],[-18.245847,66.060007,0.0],[-18.245722,66.06004,0.0],[-18.245714,66.060032,0.0],[-18.245209,66.05945,0.0],[-18.24496,66.059198,0.0],[-18.244803,66.058999,0.0],[-18.244523,66.058587,0.0],[-18.244356,66.058391,0.0],[-18.24373,66.057821,0.0],[-18.243531,66.057666,0.0],[-18.243359,66.057558,0.0],[-18.242809,66.057246,0.0],[-18.242002,66.056858,0.0],[-18.241151,66.056486,0.0],[-18.240251,66.056132,0.0],[-18.240009,66.05605,0.0],[-18.239507,66.055892,0.0],[-18.239242,66.055818,0.0],[-18.239031,66.055771,0.0]]]}},{"type":"Feature","properties":{"rgi_id":"RGI2000-v7.0-G-06-00540","o1region":"06"},"geometry":{"type":"Polygon","coordinates":[[[-18.225658,66.060361,0.0],[-18.225437,66.060356,0.0],[-18.225215,66.060356,0.0],[-18.224994,66.060361,0.0],[-18.224775,66.060371,0.0],[-18.224558,66.060387,0.0],[-18.224341,66.060406,0.0],[-18.224124,66.060422,0.0],[-18.223905,66.060434,0.0],[-18.223682,66.060445,0.0],[-18.223459,66.060454,0.0],[-18.223237,66.060458,0.0],[-18.223022,66.060451,0.0],[-18.222813,66.060429,0.0],[-18.22261,66.06039,0.0],[-18.222419,66.060341,0.0],[-18.222244,66.060287,0.0],[-18.222091,66.060219,0.0],[-18.221943,66.06015,0.0],[-18.22178,66.060091,0.0],[-18.221588,66.060055,0.0],[-18.22137,66.060035,0.0],[-18.221143,66.060026,0.0],[-18.220922,66.060024,0.0],[-18.220703,66.060032,0.0],[-18.220484,66.060049,0.0],[-18.220268,66.060069,0.0],[-18.220054,66.06009,0.0],[-18.21984,66.060112,0.0],[-18.219627,66.060136,0.0],[-18.219415,66.060161,0.0],[-18.219202,66.060185,0.0],[-18.218993,66.060216,0.0],[-18.218783,66.060245,0.0],[-18.218568,66.060258,0.0],[-18.218347,66.060261,0.0],[-18.218125,66.060258,0.0],[-18.217904,66.060249,0.0],[-18.217684,66.060238,0.0],[-18.21746,66.060224,0.0],[-18.217243,66.060201,0.0],[-18.217048,66.060164,0.0],[-18.216877,66.060111,0.0],[-18.216719,66.060049,0.0],[-18.216569,66.059981,0.0],[-18.216419,66.059913,0.0],[-18.216267,66.059847,0.0],[-18.215996,66.059763,0.0],[-18.215822,66.059707,0.0],[-18.215665,66.059645,0.0],[-18.215533,66.059574,0.0],[-18.215419,66.059497,0.0],[-18.215309,66.059418,0.0],[-18.215191,66.059342,0.0],[-18.215072,66.059267,0.0],[-18.214953,66.059191,0.0],[-18.214834,66.059116,0.0],[-18.214713,66.059041,0.0],[-18.21459,66.058966,0.0],[-18.214463,66.058893,0.0],[-18.214331,66.058821,0.0],[-18.214199,66.058749,0.0],[-18.214073,66.058675,0.0],[-18.213958,66.058599,0.0],[-18.213846,66.058522,0.0],[-18.213736,66.058443,0.0],[-18.213631,66.058364,0.0],[-18.213532,66.058284,0.0],[-18.213442,66.058202,0.0],[-18.213361,66.058119,0.0],[-18.213287,66.058035,0.0],[-18.213218,66.05795,0.0],[-18.213153,66.057864,0.0],[-18.213093,66.057777,0.0],[-18.213038,66.05769,0.0],[-18.212987,66.057602,0.0],[-18.212941,66.057515,0.0],[-18.212899,66.057427,0.0],[-18.212863,66.057338,0.0],[-18.212832,66.057249,0.0],[-18.212806,66.05716,0.0],[-18.212785,66.05707,0.0],[-18.21277,66.056981,0.0],[-18.212761,66.056891,0.0],[-18.212757,66.056802,0.0],[-18.212761,66.056712,0.0],[-18.212773,66.056622,0.0],[-18.212793,66.056532,0.0],[-18.212822,66.056443,0.0],[-18.212861,66.056355,0.0],[-18.212913,66.056268,0.0],[-18.212978,66.056181,0.0],[-18.213056,66.056096,0.0],[-18.213148,66.056015,0.0],[-18.213254,66.055937,0.0],[-18.213374,66.055862,0.0],[-18.213506,66.055789,0.0],[-18.213648,66.05572,0.0],[-18.213798,66.055653,0.0],[-18.213954,66.055589,0.0],[-18.214114,66.055528,0.0],[-18.214278,66.055468,0.0],[-18.214446,66.055409,0.0],[-18.214618,66.055352,0.0],[-18.214794,66.055297,0.0],[-18.214973,66.055245,0.0],[-18.215157,66.055196,0.0],[-18.215345,66.055149,0.0],[-18.215537,66.055106,0.0],[-18.215733,66.055064,0.0],[-18.215932,66.055025,0.0],[-18.216134,66.054987,0.0],[-18.216337,66.054951,0.0],[-18.21654,66.054916,0.0],[-18.216745,66.054882,0.0],[-18.216951,66.054851,0.0],[-18.217159,66.054821,0.0],[-18.217369,66.054794,0.0],[-18.21758,66.054767,0.0],[-18.217792,66.054741,0.0],[-18.218003,66.054715,0.0],[-18.218214,66.054688,0.0],[-18.218424,66.054661,0.0],[-18.218635,66.054634,0.0],[-18.218845,66.054607,0.0],[-18.219056,66.054581,0.0],[-18.219267,66.054554,0.0],[-18.219477,66.054528,0.0],[-18.219688,66.054501,0.0],[-18.219899,66.054474,0.0],[-18.220109,66.054447,0.0],[-18.220318,66.054418,0.0],[-18.220528,66.05439,0.0],[-18.220737,66.054361,0.0],[-18.220946,66.054332,0.0],[-18.221155,66.054304,0.0],[-18.221365,66.054276,0.0],[-18.221576,66.05425,0.0],[-18.221788,66.054225,0.0],[-18.222001,66.054203,0.0],[-18.222216,66.054183,0.0],[-18.222432,66.054164,0.0],[-18.222648,66.054146,0.0],[-18.222865,66.054128,0.0],[-18.223081,66.054109,0.0],[-18.223297,66.05409,0.0],[-18.223511,66.054068,0.0],[-18.223726,66.054045,0.0],[-18.223941,66.054023,0.0],[-18.224156,66.054003,0.0],[-18.224372,66.053987,0.0],[-18.22459,66.053977,0.0],[-18.224809,66.053975,0.0],[-18.22503,66.05398,0.0],[-18.225252,66.053987,0.0],[-18.225473,66.053995,0.0],[-18.225694,66.053999,0.0],[-18.225914,66.053998,0.0],[-18.226133,66.053986,0.0],[-18.226352,66.053965,0.0],[-18.22657,66.05394,0.0],[-18.226788,66.053917,0.0],[-18.227003,66.053901,0.0],[-18.227215,66.0539,0.0],[-18.227423,66.053918,0.0],[-18.227625,66.053953,0.0],[-18.227827,66.053996,0.0],[-18.228029,66.054038,0.0],[-18.228237,66.05407,0.0],[-18.22845,66.05409,0.0],[-18.228668,66.054103,0.0],[-18.228887,66.054113,0.0],[-18.229109,66.054121,0.0],[-18.22933,66.054128,0.0],[-18.22955,66.054137,0.0],[-18.229774,66.054141,0.0],[-18.23,66.054143,0.0],[-18.230221,66.054151,0.0],[-18.230428,66.054171,0.0],[-18.230612,66.054216,0.0],[-18.230776,66.054279,0.0],[-18.230936,66.054344,0.0],[-18.231091,66.054408,0.0],[-18.231242,66.054474,0.0],[-18.231395,66.054539,0.0],[-18.231558,66.054599,0.0],[-18.231734,66.054652,0.0],[-18.231917,66.054704,0.0],[-18.232105,66.054753,0.0],[-18.232298,66.054799,0.0],[-18.232497,66.054839,0.0],[-18.2327,66.054871,0.0],[-18.232909,66.054895,0.0],[-18.233123,66.054912,0.0],[-18.233342,66.054925,0.0],[-18.233563,66.054934,0.0],[-18.233785,66.054942,0.0],[-18.234008,66.05495,0.0],[-18.234228,66.05496,0.0],[-18.234448,66.054972,0.0],[-18.23467,66.054981,0.0],[-18.234893,66.054989,0.0],[-18.235114,66.054998,0.0],[-18.235334,66.05501,0.0],[-18.235358,66.055012,0.0],[-18.235548,66.055027,0.0],[-18.235756,66.055052,0.0],[-18.235957,66.055086,0.0],[-18.236152,66.055128,0.0],[-18.236341,66.055177,0.0],[-18.236523,66.05523,0.0],[-18.2367,66.055285,0.0],[-18.236871,66.055341,0.0],[-18.236981,66.055386,0.0],[-18.237027,66.055405,0.0],[-18.237174,66.055472,0.0],[-18.23732,66.055541,0.0],[-18.237471,66.055606,0.0],[-18.237635,66.055665,0.0],[-18.237816,66.055722,0.0],[-18.238011,66.055773,0.0],[-18.238213,66.055808,0.0],[-18.23842,66.055817,0.0],[-18.238635,66.05581,0.0],[-18.238854,66.055792,0.0],[-18.239031,66.055771,0.0],[-18.239242,66.055818,0.0],[-18.239507,66.055892,0.0],[-18.240009,66.05605,0.0],[-18.240251,66.056132,0.0],[-18.241151,66.056486,0.0],[-18.242002,66.056858,0.0],[-18.242809,66.057246,0.0],[-18.243359,66.057558,0.0],[-18.243531,66.057666,0.0],[-18.24373,66.057821,0.0],[-18.244356,66.058391,0.0],[-18.244523,66.058587,0.0],[-18.244803,66.058999,0.0],[-18.24496,66.059198,0.0],[-18.245209,66.05945,0.0],[-18.245714,66.060032,0.0],[-18.245722,66.06004,0.0],[-18.245677,66.060052,0.0],[-18.245459,66.060079,0.0],[-18.245221,66.060093,0.0],[-18.24499,66.060097,0.0],[-18.244773,66.060093,0.0],[-18.244553,66.060083,0.0],[-18.244333,66.060066,0.0],[-18.244116,66.060043,0.0],[-18.243903,66.060017,0.0],[-18.243698,66.059986,0.0],[-18.243498,66.059949,0.0],[-18.243301,66.059909,0.0],[-18.243108,66.059865,0.0],[-18.242916,66.059819,0.0],[-18.242724,66.059773,0.0],[-18.242533,66.059728,0.0],[-18.242342,66.059683,0.0],[-18.242152,66.059638,0.0],[-18.241963,66.059592,0.0],[-18.241774,66.059545,0.0],[-18.241587,66.059497,0.0],[-18.241402,66.059449,0.0],[-18.241218,66.059399,0.0],[-18.241039,66.059346,0.0],[-18.240861,66.059292,0.0],[-18.240684,66.059239,0.0],[-18.240505,66.059186,0.0],[-18.240322,66.059136,0.0],[-18.240133,66.05909,0.0],[-18.239935,66.059042,0.0],[-18.239731,66.058998,0.0],[-18.239526,66.058961,0.0],[-18.239323,66.05894,0.0],[-18.239116,66.058947,0.0],[-18.238905,66.058994,0.0],[-18.238751,66.05906,0.0],[-18.238696,66.059142,0.0],[-18.238685,66.059237,0.0],[-18.238634,66.059325,0.0],[-18.238501,66.059398,0.0],[-18.238337,66.059459,0.0],[-18.238166,66.059521,0.0],[-18.237984,66.059574,0.0],[-18.237787,66.059607,0.0],[-18.237575,66.059617,0.0],[-18.237353,66.059613,0.0],[-18.237127,66.059606,0.0],[-18.236902,66.059602,0.0],[-18.236682,66.059607,0.0],[-18.236462,66.059617,0.0],[-18.236243,66.059629,0.0],[-18.236023,66.05964,0.0],[-18.235804,66.05965,0.0],[-18.235584,66.059654,0.0],[-18.235363,66.059655,0.0],[-18.235139,66.059656,0.0],[-18.234914,66.059654,0.0],[-18.234692,66.059649,0.0],[-18.234473,66.059638,0.0],[-18.234259,66.059621,0.0],[-18.234055,66.059594,0.0],[-18.233862,66.059553,0.0],[-18.233676,66.059502,0.0],[-18.233493,66.059448,0.0],[-18.233309,66.059397,0.0],[-18.233126,66.059345,0.0],[-18.232946,66.059287,0.0],[-18.232765,66.059231,0.0],[-18.232579,66.059185,0.0],[-18.232383,66.059154,0.0],[-18.232165,66.059139,0.0],[-18.231931,66.059136,0.0],[-18.231697,66.059145,0.0],[-18.231481,66.059167,0.0],[-18.231299,66.059202,0.0],[-18.231158,66.059267,0.0],[-18.231049,66.059352,0.0],[-18.230958,66.05944,0.0],[-18.230876,66.059523,0.0],[-18.230806,66.059608,0.0],[-18.230743,66.059694,0.0],[-18.230685,66.059781,0.0],[-18.230626,66.059867,0.0],[-18.230566,66.059954,0.0],[-18.230515,66.060042,0.0],[-18.230465,66.06013,0.0],[-18.230405,66.060216,0.0],[-18.230325,66.060299,0.0],[-18.230217,66.060378,0.0],[-18.230079,66.060451,0.0],[-18.229916,66.060509,0.0],[-18.229728,66.060556,0.0],[-18.229524,66.060595,0.0],[-18.229313,66.060625,0.0],[-18.2291,66.060643,0.0],[-18.22888,66.060653,0.0],[-18.228656,66.060656,0.0],[-18.228433,66.060651,0.0],[-18.228215,66.060641,0.0],[-18.227999,66.060624,0.0],[-18.227785,66.060602,0.0],[-18.227571,66.060578,0.0],[-18.227359,66.060552,0.0],[-18.227146,66.060527,0.0],[-18.226934,66.060501,0.0],[-18.226723,66.060473,0.0],[-18.226513,66.060445,0.0],[-18.226302,66.060418,0.0],[-18.22609,66.060393,0.0],[-18.225876,66.060374,0.0],[-18.225658,66.060361,0.0]]]}},{"type":"Feature","properties":{"rgi_id":"RGI2000-v7.0-G-06-00541","o1region":"06"},"geometry":{"type":"Polygon","coordinates":[[[-18.23248,66.06623,0.0],[-18.23226,66.06625,0.0],[-18.23204,66.06626,0.0],[-18.23182,66.06627,0.0],[-18.2316,66.06628,0.0],[-18.23138,66.06628,0.0],[-18.23116,66.06627,0.0],[-18.23094,66.06627,0.0],[-18.23072,66.06626,0.0],[-18.2305,66.06625,0.0],[-18.23028,66.06624,0.0],[-18.23007,66.06622,0.0],[-18.22985,66.0662,0.0],[-18.22964,66.06617,0.0],[-18.22944,66.06613,0.0],[-18.22923,66.06609,0.0],[-18.22904,66.06605,0.0],[-18.22888,66.06599,0.0],[-18.22874,66.06592,0.0],[-18.22861,66.06585,0.0],[-18.2285,66.06577,0.0],[-18.22838,66.06569,0.0],[-18.22825,66.06562,0.0],[-18.22814,66.06554,0.0],[-18.22804,66.06546,0.0],[-18.22797,66.06538,0.0],[-18.22792,66.06529,0.0],[-18.22789,66.0652,0.0],[-18.22788,66.06511,0.0],[-18.2279,66.06502,0.0],[-18.22796,66.06493,0.0],[-18.22806,66.06485,0.0],[-18.22818,66.06477,0.0],[-18.22832,66.06471,0.0],[-18.22849,66.06465,0.0],[-18.22867,66.06459,0.0],[-18.22885,66.06454,0.0],[-18.22903,66.06449,0.0],[-18.22921,66.06444,0.0],[-18.22939,66.06439,0.0],[-18.22958,66.06434,0.0],[-18.22978,66.0643,0.0],[-18.22997,66.06426,0.0],[-18.23017,66.06422,0.0],[-18.23037,66.06418,0.0],[-18.23058,66.06415,0.0],[-18.23078,66.06411,0.0],[-18.23099,66.06408,0.0],[-18.2312,66.06405,0.0],[-18.23141,66.06403,0.0],[-18.23162,66.064,0.0],[-18.23184,66.06398,0.0],[-18.23205,66.06396,0.0],[-18.23227,66.06394,0.0],[-18.23248,66.06392,0.0],[-18.2327,66.0639,0.0],[-18.23291,66.06388,0.0],[-18.23313,66.06385,0.0],[-18.23335,66.06383,0.0],[-18.23356,66.06381,0.0],[-18.23378,66.0638,0.0],[-18.234,66.06378,0.0],[-18.23421,66.06378,0.0],[-18.23443,66.06377,0.0],[-18.23466,66.06378,0.0],[-18.23488,66.0638,0.0],[-18.2351,66.06382,0.0],[-18.2353,66.06385,0.0],[-18.2355,66.06389,0.0],[-18.23569,66.06394,0.0],[-18.23586,66.064,0.0],[-18.23601,66.06407,0.0],[-18.23612,66.06414,0.0],[-18.2362,66.06422,0.0],[-18.23627,66.06431,0.0],[-18.23632,66.0644,0.0],[-18.23635,66.06449,0.0],[-18.23636,66.06458,0.0],[-18.23636,66.06467,0.0],[-18.23634,66.06476,0.0],[-18.2363,66.06485,0.0],[-18.23626,66.06494,0.0],[-18.23621,66.06502,0.0],[-18.23616,66.06511,0.0],[-18.23609,66.0652,0.0],[-18.23602,66.06528,0.0],[-18.23593,66.06536,0.0],[-18.23582,66.06544,0.0],[-18.2357,66.06552,0.0],[-18.23556,66.06559,0.0],[-18.23541,66.06565,0.0],[-18.23524,66.06571,0.0],[-18.23507,66.06577,0.0],[-18.23488,66.06581,0.0],[-18.23469,66.06586,0.0],[-18.2345,66.0659,0.0],[-18.2343,66.06594,0.0],[-18.2341,66.06598,0.0],[-18.2339,66.06602,0.0],[-18.2337,66.06606,0.0],[-18.2335,66.06609,0.0],[-18.23329,66.06613,0.0],[-18.23309,66.06617,0.0],[-18.23289,66.0662,0.0],[-18.23248,66.06623,0.0]]]}},{"type":"Feature","properties":{"rgi_id":"RGI2000-v7.0-G-06-00542","o1region":"06"},"geometry":{"type":"Polygon","coordinates":[[[-18.23558,66.08184,0.0],[-18.23549,66.08192,0.0],[-18.2354,66.082,0.0],[-18.23528,66.08208,0.0],[-18.23516,66.08215,0.0],[-18.23502,66.08223,0.0],[-18.23487,66.08229,0.0],[-18.23472,66.08236,0.0],[-18.23457,66.08242,0.0],[-18.23441,66.08249,0.0],[-18.23424,66.08255,0.0],[-18.23406,66.0826,0.0],[-18.23386,66.08264,0.0],[-18.23365,66.08266,0.0],[-18.23343,66.08267,0.0],[-18.23321,66.08268,0.0],[-18.23299,66.08267,0.0],[-18.23277,66.08267,0.0],[-18.23255,66.08265,0.0],[-18.23232,66.08264,0.0],[-18.2321,66.08262,0.0],[-18.23188,66.0826,0.0],[-18.23167,66.08258,0.0],[-18.23148,66.08254,0.0],[-18.23132,66.08248,0.0],[-18.23119,66.0824,0.0],[-18.23108,66.08232,0.0],[-18.231,66.08224,0.0],[-18.23094,66.08215,0.0],[-18.2309,66.08206,0.0],[-18.23085,66.08198,0.0],[-18.2308,66.08189,0.0],[-18.23074,66.0818,0.0],[-18.23069,66.08171,0.0],[-18.23063,66.08163,0.0],[-18.23056,66.08154,0.0],[-18.23049,66.08146,0.0],[-18.2304,66.08138,0.0],[-18.2303,66.0813,0.0],[-18.2302,66.08121,0.0],[-18.2301,66.08114,0.0],[-18.22999,66.08106,0.0],[-18.22987,66.08098,0.0],[-18.22975,66.08091,0.0],[-18.22962,66.08083,0.0],[-18.2295,66.08076,0.0],[-18.22939,66.08068,0.0],[-18.22928,66.0806,0.0],[-18.22918,66.08052,0.0],[-18.22909,66.08044,0.0],[-18.22901,66.08036,0.0],[-18.22895,66.08027,0.0],[-18.2289,66.08018,0.0],[-18.22885,66.0801,0.0],[-18.22882,66.08001,0.0],[-18.22879,66.07992,0.0],[-18.22878,66.07983,0.0],[-18.22877,66.07974,0.0],[-18.22878,66.07965,0.0],[-18.2288,66.07956,0.0],[-18.22883,66.07947,0.0],[-18.22886,66.07938,0.0],[-18.22891,66.07929,0.0],[-18.22895,66.0792,0.0],[-18.229,66.07912,0.0],[-18.22904,66.07903,0.0],[-18.22909,66.07894,0.0],[-18.22915,66.07885,0.0],[-18.22921,66.07877,0.0],[-18.22927,66.07868,0.0],[-18.22934,66.0786,0.0],[-18.22943,66.07851,0.0],[-18.22952,66.07843,0.0],[-18.22962,66.07835,0.0],[-18.22974,66.07828,0.0],[-18.22987,66.0782,0.0],[-18.23002,66.07814,0.0],[-18.23018,66.07807,0.0],[-18.23035,66.07802,0.0],[-18.23053,66.07796,0.0],[-18.23072,66.07792,0.0],[-18.23092,66.07788,0.0],[-18.23112,66.07784,0.0],[-18.23133,66.07781,0.0],[-18.23154,66.07778,0.0],[-18.23175,66.07775,0.0],[-18.23196,66.07773,0.0],[-18.23217,66.0777,0.0],[-18.23239,66.07767,0.0],[-18.2326,66.07765,0.0],[-18.23282,66.07763,0.0],[-18.23304,66.07762,0.0],[-18.23325,66.07761,0.0],[-18.23347,66.07761,0.0],[-18.23369,66.07761,0.0],[-18.23391,66.07762,0.0],[-18.23413,66.07763,0.0],[-18.23436,66.07764,0.0],[-18.23458,66.07765,0.0],[-18.2348,66.07766,0.0],[-18.23502,66.07767,0.0],[-18.23524,66.07768,0.0],[-18.23545,66.07769,0.0],[-18.23567,66.07771,0.0],[-18.23589,66.07772,0.0],[-18.23611,66.07774,0.0],[-18.23632,66.07776,0.0],[-18.23654,66.07778,0.0],[-18.23675,66.0778,0.0],[-18.23697,66.07782,0.0],[-18.23718,66.07785,0.0],[-18.23739,66.07787,0.0],[-18.2376,66.0779,0.0],[-18.23781,66.07793,0.0],[-18.23801,66.07797,0.0],[-18.23821,66.07801,0.0],[-18.23841,66.07805,0.0],[-18.2386,66.07809,0.0],[-18.2388,66.07813,0.0],[-18.23899,66.07818,0.0],[-18.23918,66.07822,0.0],[-18.23938,66.07826,0.0],[-18.23957,66.07831,0.0],[-18.23976,66.07835,0.0],[-18.23996,66.0784,0.0],[-18.24015,66.07844,0.0],[-18.24033,66.07849,0.0],[-18.24051,66.07854,0.0],[-18.24067,66.0786,0.0],[-18.24084,66.07866,0.0],[-18.24099,66.07873,0.0],[-18.24115,66.07879,0.0],[-18.2413,66.07886,0.0],[-18.24145,66.07892,0.0],[-18.2416,66.07899,0.0],[-18.24175,66.07906,0.0],[-18.24189,66.07913,0.0],[-18.24203,66.0792,0.0],[-18.24215,66.07927,0.0],[-18.24227,66.07934,0.0],[-18.24239,66.07942,0.0],[-18.24249,66.0795,0.0],[-18.24258,66.07959,0.0],[-18.24264,66.07967,0.0],[-18.24266,66.07976,0.0],[-18.24266,66.07985,0.0],[-18.24263,66.07994,0.0],[-18.24259,66.08003,0.0],[-18.24253,66.08012,0.0],[-18.24247,66.08021,0.0],[-18.24238,66.0803,0.0],[-18.24226,66.08037,0.0],[-18.24209,66.08039,0.0],[-18.24185,66.08035,0.0],[-18.24166,66.0803,0.0],[-18.24155,66.08022,0.0],[-18.24148,66.08014,0.0],[-18.24138,66.08005,0.0],[-18.24127,66.07997,0.0],[-18.24115,66.0799,0.0],[-18.24102,66.07983,0.0],[-18.24087,66.07976,0.0],[-18.24069,66.07971,0.0],[-18.24049,66.07966,0.0],[-18.24029,66.07963,0.0],[-18.24008,66.07961,0.0],[-18.23985,66.07961,0.0],[-18.23963,66.07963,0.0],[-18.23941,66.07965,0.0],[-18.2392,66.07967,0.0],[-18.23899,66.0797,0.0],[-18.23878,66.07974,0.0],[-18.23858,66.07977,0.0],[-18.23838,66.07981,0.0],[-18.23819,66.07986,0.0],[-18.238,66.0799,0.0],[-18.23781,66.07995,0.0],[-18.23764,66.08001,0.0],[-18.23747,66.08007,0.0],[-18.23732,66.08013,0.0],[-18.23717,66.0802,0.0],[-18.23704,66.08027,0.0],[-18.23692,66.08035,0.0],[-18.23681,66.08042,0.0],[-18.23671,66.0805,0.0],[-18.23662,66.08059,0.0],[-18.23654,66.08067,0.0],[-18.23647,66.08075,0.0],[-18.2364,66.08084,0.0],[-18.23633,66.08093,0.0],[-18.23627,66.08101,0.0],[-18.2362,66.0811,0.0],[-18.23614,66.08118,0.0],[-18.23608,66.08127,0.0],[-18.23602,66.08136,0.0],[-18.23596,66.08144,0.0],[-18.23591,66.08153,0.0],[-18.23585,66.08162,0.0],[-18.23579,66.0817,0.0],[-18.23558,66.08184,0.0]]]}},{"type":"Feature","properties":{"rgi_id":"RGI2000-v7.0-G-06-00543","o1region":"06"},"geometry":{"type":"Polygon","coordinates":[[[-18.25155,66.082,0.0],[-18.25191,66.08206,0.0],[-18.25212,66.08209,0.0],[-18.25232,66.08212,0.0],[-18.25252,66.08216,0.0],[-18.25272,66.0822,0.0],[-18.25291,66.08224,0.0],[-18.25309,66.08229,0.0],[-18.25327,66.08235,0.0],[-18.25345,66.0824,0.0],[-18.25362,66.08246,0.0],[-18.25377,66.08252,0.0],[-18.25391,66.08259,0.0],[-18.25404,66.08266,0.0],[-18.25416,66.08274,0.0],[-18.25426,66.08282,0.0],[-18.25435,66.0829,0.0],[-18.25444,66.08299,0.0],[-18.25451,66.08307,0.0],[-18.25458,66.08316,0.0],[-18.25465,66.08324,0.0],[-18.2547,66.08333,0.0],[-18.25474,66.08342,0.0],[-18.25477,66.08351,0.0],[-18.2548,66.0836,0.0],[-18.25481,66.08369,0.0],[-18.25482,66.08378,0.0],[-18.25482,66.08386,0.0],[-18.25481,66.08395,0.0],[-18.2548,66.08404,0.0],[-18.25478,66.08413,0.0],[-18.25476,66.08422,0.0],[-18.25472,66.08431,0.0],[-18.25469,66.0844,0.0],[-18.25463,66.08449,0.0],[-18.25457,66.08457,0.0],[-18.25449,66.08466,0.0],[-18.25442,66.08474,0.0],[-18.25435,66.08483,0.0],[-18.25428,66.08491,0.0],[-18.25423,66.085,0.0],[-18.25417,66.08509,0.0],[-18.25412,66.08517,0.0],[-18.25407,66.08526,0.0],[-18.25402,66.08535,0.0],[-18.25398,66.08544,0.0],[-18.25394,66.08553,0.0],[-18.2539,66.08561,0.0],[-18.25387,66.0857,0.0],[-18.25386,66.08579,0.0],[-18.25385,66.08588,0.0],[-18.25385,66.08597,0.0],[-18.25385,66.08606,0.0],[-18.25385,66.08615,0.0],[-18.25384,66.08624,0.0],[-18.25384,66.08633,0.0],[-18.25382,66.08642,0.0],[-18.25381,66.08651,0.0],[-18.25379,66.0866,0.0],[-18.25378,66.08669,0.0],[-18.25375,66.08678,0.0],[-18.25373,66.08687,0.0],[-18.2537,66.08696,0.0],[-18.25366,66.08705,0.0],[-18.25361,66.08713,0.0],[-18.25353,66.08721,0.0],[-18.25342,66.08729,0.0],[-18.25329,66.08737,0.0],[-18.25316,66.08744,0.0],[-18.25296,66.08748,0.0],[-18.25274,66.0875,0.0],[-18.25252,66.08751,0.0],[-18.2523,66.08751,0.0],[-18.25208,66.0875,0.0],[-18.25186,66.08749,0.0],[-18.25164,66.08747,0.0],[-18.25143,66.08745,0.0],[-18.25121,66.08743,0.0],[-18.25099,66.08741,0.0],[-18.25078,66.08738,0.0],[-18.25057,66.08736,0.0],[-18.25037,66.08732,0.0],[-18.25018,66.08728,0.0],[-18.25,66.08722,0.0],[-18.24983,66.08716,0.0],[-18.24967,66.0871,0.0],[-18.24951,66.08704,0.0],[-18.24936,66.08698,0.0],[-18.2492,66.08691,0.0],[-18.24905,66.08685,0.0],[-18.2489,66.08678,0.0],[-18.24875,66.08672,0.0],[-18.24859,66.08665,0.0],[-18.24843,66.08659,0.0],[-18.24826,66.08653,0.0],[-18.2481,66.08647,0.0],[-18.24794,66.08641,0.0],[-18.24778,66.08635,0.0],[-18.24763,66.08628,0.0],[-18.24749,66.08621,0.0],[-18.24735,66.08614,0.0],[-18.24722,66.08607,0.0],[-18.24709,66.086,0.0],[-18.24696,66.08592,0.0],[-18.24683,66.08585,0.0],[-18.2467,66.08578,0.0],[-18.24658,66.0857,0.0],[-18.24645,66.08563,0.0],[-18.24633,66.08556,0.0],[-18.24622,66.08548,0.0],[-18.24611,66.0854,0.0],[-18.24601,66.08532,0.0],[-18.24592,66.08524,0.0],[-18.24582,66.08516,0.0],[-18.24573,66.08508,0.0],[-18.24565,66.08499,0.0],[-18.24556,66.08491,0.0],[-18.24547,66.08483,0.0],[-18.24539,66.08474,0.0],[-18.24531,66.08466,0.0],[-18.24524,66.08458,0.0],[-18.24519,66.08449,0.0],[-18.24514,66.0844,0.0],[-18.2451,66.08431,0.0],[-18.24506,66.08423,0.0],[-18.24503,66.08414,0.0],[-18.24501,66.08405,0.0],[-18.24499,66.08396,0.0],[-18.24498,66.08387,0.0],[-18.24496,66.08378,0.0],[-18.24496,66.08369,0.0],[-18.24496,66.0836,0.0],[-18.24496,66.08351,0.0],[-18.24497,66.08342,0.0],[-18.24498,66.08333,0.0],[-18.245,66.08324,0.0],[-18.24502,66.08315,0.0],[-18.24505,66.08306,0.0],[-18.24509,66.08297,0.0],[-18.24513,66.08289,0.0],[-18.24518,66.0828,0.0],[-18.24525,66.08271,0.0],[-18.24532,66.08263,0.0],[-18.2454,66.08254,0.0],[-18.24548,66.08246,0.0],[-18.24555,66.08238,0.0],[-18.24562,66.08229,0.0],[-18.2457,66.0822,0.0],[-18.24578,66.08212,0.0],[-18.24586,66.08204,0.0],[-18.24596,66.08196,0.0],[-18.24608,66.08188,0.0],[-18.24624,66.08182,0.0],[-18.24642,66.08177,0.0],[-18.24662,66.08172,0.0],[-18.24682,66.08169,0.0],[-18.24703,66.08166,0.0],[-18.24725,66.08164,0.0],[-18.24737,66.08164,0.0],[-18.24747,66.08163,0.0],[-18.24769,66.08163,0.0],[-18.24791,66.08163,0.0],[-18.24813,66.08164,0.0],[-18.24836,66.08165,0.0],[-18.24858,66.08165,0.0],[-18.2488,66.08166,0.0],[-18.24902,66.08167,0.0],[-18.24924,66.08168,0.0],[-18.24945,66.0817,0.0],[-18.24966,66.08173,0.0],[-18.24987,66.08176,0.0],[-18.25007,66.08179,0.0],[-18.25028,66.08183,0.0],[-18.25048,66.08186,0.0],[-18.25069,66.0819,0.0],[-18.25155,66.082,0.0]]]}},{"type":"Feature","properties":{"rgi_id":"RGI2000-v7.0-G-06-00544","o1region":"06"},"geometry":{"type":"Polygon","coordinates":[[[-18.25792,66.09116,0.0],[-18.25812,66.09119,0.0],[-18.25832,66.09123,0.0],[-18.2585,66.09129,0.0],[-18.25864,66.09136,0.0],[-18.25875,66.09144,0.0],[-18.25882,66.09152,0.0],[-18.25885,66.09161,0.0],[-18.25886,66.0917,0.0],[-18.25887,66.09179,0.0],[-18.25886,66.09188,0.0],[-18.25883,66.09197,0.0],[-18.2588,66.09206,0.0],[-18.25875,66.09215,0.0],[-18.25869,66.09223,0.0],[-18.25863,66.09232,0.0],[-18.25856,66.09241,0.0],[-18.2585,66.09249,0.0],[-18.25842,66.09258,0.0],[-18.25834,66.09266,0.0],[-18.25825,66.09274,0.0],[-18.25814,66.09282,0.0],[-18.25802,66.09289,0.0],[-18.25788,66.09296,0.0],[-18.25774,66.09303,0.0],[-18.25759,66.0931,0.0],[-18.25744,66.09317,0.0],[-18.25729,66.09323,0.0],[-18.25713,66.09329,0.0],[-18.25696,66.09335,0.0],[-18.25679,66.09341,0.0],[-18.25661,66.09346,0.0],[-18.25642,66.09351,0.0],[-18.25623,66.09355,0.0],[-18.25604,66.0936,0.0],[-18.25585,66.09365,0.0],[-18.25566,66.09369,0.0],[-18.25547,66.09374,0.0],[-18.25528,66.09379,0.0],[-18.25509,66.09383,0.0],[-18.2549,66.09387,0.0],[-18.2547,66.09392,0.0],[-18.2545,66.09395,0.0],[-18.2543,66.09399,0.0],[-18.2541,66.09403,0.0],[-18.25389,66.09406,0.0],[-18.25369,66.09409,0.0],[-18.25348,66.09412,0.0],[-18.25327,66.09415,0.0],[-18.25305,66.09417,0.0],[-18.25284,66.09419,0.0],[-18.25262,66.09421,0.0],[-18.2524,66.09423,0.0],[-18.25219,66.09424,0.0],[-18.25197,66.09426,0.0],[-18.25175,66.09428,0.0],[-18.25153,66.09429,0.0],[-18.25131,66.0943,0.0],[-18.25109,66.0943,0.0],[-18.25087,66.09429,0.0],[-18.25066,66.09428,0.0],[-18.25044,66.09425,0.0],[-18.25023,66.09423,0.0],[-18.25001,66.0942,0.0],[-18.2498,66.09418,0.0],[-18.24958,66.09415,0.0],[-18.24938,66.09412,0.0],[-18.24919,66.09407,0.0],[-18.24902,66.09402,0.0],[-18.24886,66.09395,0.0],[-18.24874,66.09387,0.0],[-18.24867,66.09379,0.0],[-18.24862,66.0937,0.0],[-18.2486,66.09361,0.0],[-18.24859,66.09352,0.0],[-18.24859,66.09343,0.0],[-18.2486,66.09334,0.0],[-18.24861,66.09325,0.0],[-18.24863,66.09316,0.0],[-18.24866,66.09307,0.0],[-18.2487,66.09299,0.0],[-18.24874,66.0929,0.0],[-18.24879,66.09281,0.0],[-18.24884,66.09272,0.0],[-18.24889,66.09263,0.0],[-18.24894,66.09255,0.0],[-18.24899,66.09246,0.0],[-18.24905,66.09237,0.0],[-18.24911,66.09229,0.0],[-18.24917,66.0922,0.0],[-18.24924,66.09212,0.0],[-18.24931,66.09203,0.0],[-18.24938,66.09195,0.0],[-18.24946,66.09186,0.0],[-18.24955,66.09178,0.0],[-18.24964,66.0917,0.0],[-18.24973,66.09162,0.0],[-18.24982,66.09153,0.0],[-18.24992,66.09145,0.0],[-18.25002,66.09137,0.0],[-18.25013,66.0913,0.0],[-18.25025,66.09122,0.0],[-18.25039,66.09115,0.0],[-18.25054,66.09108,0.0],[-18.25069,66.09102,0.0],[-18.25085,66.09096,0.0],[-18.25101,66.09089,0.0],[-18.25117,66.09083,0.0],[-18.25133,66.09077,0.0],[-18.2515,66.09071,0.0],[-18.25168,66.09066,0.0],[-18.25187,66.09061,0.0],[-18.25207,66.09057,0.0],[-18.25228,66.09054,0.0],[-18.25249,66.09053,0.0],[-18.25271,66.09052,0.0],[-18.25293,66.09052,0.0],[-18.25316,66.09053,0.0],[-18.25338,66.09053,0.0],[-18.2536,66.09054,0.0],[-18.25382,66.09055,0.0],[-18.25404,66.09057,0.0],[-18.25425,66.09059,0.0],[-18.25447,66.09061,0.0],[-18.25468,66.09064,0.0],[-18.25489,66.09067,0.0],[-18.2551,66.0907,0.0],[-18.25531,66.09073,0.0],[-18.25551,66.09076,0.0],[-18.25572,66.09079,0.0],[-18.25592,66.09082,0.0],[-18.25613,66.09086,0.0],[-18.25633,66.09089,0.0],[-18.25653,66.09093,0.0],[-18.25674,66.09096,0.0],[-18.25694,66.091,0.0],[-18.25714,66.09103,0.0],[-18.25735,66.09107,0.0],[-18.25755,66.0911,0.0],[-18.25792,66.09116,0.0]]]}},{"type":"Feature","properties":{"rgi_id":"RGI2000-v7.0-G-06-00545","o1region":"06"},"geometry":{"type":"Polygon","coordinates":[[[-18.1557,66.09392,0.0],[-18.15554,66.09386,0.0],[-18.15541,66.09379,0.0],[-18.15532,66.09371,0.0],[-18.15527,66.09362,0.0],[-18.15523,66.09353,0.0],[-18.15521,66.09344,0.0],[-18.15519,66.09335,0.0],[-18.15517,66.09326,0.0],[-18.15516,66.09317,0.0],[-18.15514,66.09308,0.0],[-18.15513,66.09299,0.0],[-18.15513,66.0929,0.0],[-18.15514,66.09281,0.0],[-18.15517,66.09273,0.0],[-18.1552,66.09264,0.0],[-18.15524,66.09255,0.0],[-18.15528,66.09246,0.0],[-18.15533,66.09237,0.0],[-18.15538,66.09228,0.0],[-18.15544,66.0922,0.0],[-18.15551,66.09211,0.0],[-18.15559,66.09203,0.0],[-18.15568,66.09195,0.0],[-18.15579,66.09187,0.0],[-18.1559,66.09179,0.0],[-18.15602,66.09171,0.0],[-18.15614,66.09164,0.0],[-18.15627,66.09157,0.0],[-18.15641,66.0915,0.0],[-18.15655,66.09143,0.0],[-18.1567,66.09136,0.0],[-18.15684,66.09129,0.0],[-18.157,66.09123,0.0],[-18.15715,66.09116,0.0],[-18.15731,66.0911,0.0],[-18.15746,66.09104,0.0],[-18.15763,66.09098,0.0],[-18.15779,66.09092,0.0],[-18.15795,66.09086,0.0],[-18.15812,66.0908,0.0],[-18.15829,66.09074,0.0],[-18.15846,66.09068,0.0],[-18.15864,66.09063,0.0],[-18.15881,66.09057,0.0],[-18.15899,66.09052,0.0],[-18.15917,66.09047,0.0],[-18.15935,66.09042,0.0],[-18.15954,66.09037,0.0],[-18.15973,66.09032,0.0],[-18.15993,66.09028,0.0],[-18.16013,66.09025,0.0],[-18.16034,66.09021,0.0],[-18.16054,66.09018,0.0],[-18.16076,66.09015,0.0],[-18.16097,66.09012,0.0],[-18.16118,66.0901,0.0],[-18.1614,66.09008,0.0],[-18.16161,66.09007,0.0],[-18.16183,66.09007,0.0],[-18.16206,66.09008,0.0],[-18.16228,66.09009,0.0],[-18.1625,66.09012,0.0],[-18.16271,66.09014,0.0],[-18.16291,66.09018,0.0],[-18.1631,66.09022,0.0],[-18.1633,66.09027,0.0],[-18.16348,66.09032,0.0],[-18.16366,66.09037,0.0],[-18.16383,66.09043,0.0],[-18.16399,66.09049,0.0],[-18.16415,66.09056,0.0],[-18.16429,66.09063,0.0],[-18.16442,66.0907,0.0],[-18.16453,66.09078,0.0],[-18.16462,66.09086,0.0],[-18.16471,66.09095,0.0],[-18.16477,66.09103,0.0],[-18.16481,66.09112,0.0],[-18.16482,66.09121,0.0],[-18.16479,66.0913,0.0],[-18.16474,66.09138,0.0],[-18.16466,66.09147,0.0],[-18.16457,66.09155,0.0],[-18.16446,66.09163,0.0],[-18.16434,66.09171,0.0],[-18.16421,66.09178,0.0],[-18.16408,66.09185,0.0],[-18.16394,66.09192,0.0],[-18.16382,66.092,0.0],[-18.16369,66.09207,0.0],[-18.16357,66.09215,0.0],[-18.16344,66.09222,0.0],[-18.16332,66.0923,0.0],[-18.1632,66.09237,0.0],[-18.16307,66.09244,0.0],[-18.16295,66.09252,0.0],[-18.16282,66.09259,0.0],[-18.1627,66.09267,0.0],[-18.16258,66.09274,0.0],[-18.16245,66.09282,0.0],[-18.16233,66.09289,0.0],[-18.1622,66.09296,0.0],[-18.16206,66.09303,0.0],[-18.16192,66.0931,0.0],[-18.16177,66.09317,0.0],[-18.16162,66.09323,0.0],[-18.16147,66.0933,0.0],[-18.16131,66.09336,0.0],[-18.16115,66.09342,0.0],[-18.16099,66.09348,0.0],[-18.16082,66.09354,0.0],[-18.16066,66.0936,0.0],[-18.16049,66.09366,0.0],[-18.16031,66.09372,0.0],[-18.16013,66.09377,0.0],[-18.15995,66.09382,0.0],[-18.15977,66.09387,0.0],[-18.15958,66.09392,0.0],[-18.15939,66.09396,0.0],[-18.15919,66.094,0.0],[-18.15898,66.09403,0.0],[-18.15876,66.09405,0.0],[-18.15854,66.09407,0.0],[-18.15833,66.09409,0.0],[-18.15811,66.0941,0.0],[-18.15789,66.09411,0.0],[-18.15767,66.09411,0.0],[-18.15744,66.09411,0.0],[-18.15723,66.0941,0.0],[-18.15701,66.09409,0.0],[-18.15679,66.09407,0.0],[-18.15657,66.09406,0.0],[-18.15636,66.09404,0.0],[-18.15614,66.09402,0.0],[-18.15592,66.094,0.0],[-18.1557,66.09392,0.0]]]}},{"type":"Feature","properties":{"rgi_id":"RGI2000-v7.0-G-06-00546","o1region":"06"},"geometry":{"type":"Polygon","coordinates":[[[-18.1542,66.0489,0.0],[-18.15584,66.04891,0.0],[-18.15708,66.04911,0.0],[-18.15804,66.04923,0.0],[-18.15908,66.04959,0.0],[-18.15964,66.0501,0.0],[-18.15981,66.05076,0.0],[-18.15884,66.05103,0.0],[-18.15739,66.05138,0.0],[-18.15652,66.05161,0.0],[-18.15574,66.05191,0.0],[-18.15457,66.05222,0.0],[-18.15351,66.05245,0.0],[-18.15245,66.0524,0.0],[-18.1515,66.05216,0.0],[-18.15026,66.05188,0.0],[-18.14989,66.05137,0.0],[-18.14981,66.05094,0.0],[-18.1501,66.05063,0.0],[-18.15088,66.05044,0.0],[-18.1508,66.05005,0.0],[-18.15091,66.04966,0.0],[-18.1513,66.04931,0.0],[-18.15208,66.049,0.0],[-18.15285,66.04889,0.0],[-18.15372,66.04897,0.0],[-18.15295,66.04889,0.0],[-18.1542,66.0489,0.0]]]}},{"type":"Feature","properties":{"rgi_id":"RGI2000-v7.0-G-06-00547","o1region":"06"},"geometry":{"type":"Polygon","coordinates":[[[-18.2182,66.02881,0.0],[-18.21738,66.02885,0.0],[-18.21647,66.02851,0.0],[-18.21618,66.02809,0.0],[-18.21487,66.02738,0.0],[-18.21468,66.02688,0.0],[-18.2147,66.0263,0.0],[-18.21481,66.02601,0.0],[-18.21421,66.02555,0.0],[-18.21351,66.02513,0.0],[-18.21403,66.02463,0.0],[-18.21374,66.02405,0.0],[-18.21272,66.02396,0.0],[-18.212,66.02424,0.0],[-18.21147,66.02474,0.0],[-18.21166,66.02541,0.0],[-18.21235,66.02603,0.0],[-18.21234,66.02662,0.0],[-18.2112,66.02703,0.0],[-18.21036,66.02756,0.0],[-18.20902,66.02806,0.0],[-18.20758,66.02834,0.0],[-18.20604,66.02871,0.0],[-18.20439,66.02907,0.0],[-18.20306,66.02915,0.0],[-18.20173,66.02927,0.0],[-18.20019,66.02934,0.0],[-18.19857,66.02867,0.0],[-18.1989,66.02817,0.0],[-18.19932,66.02759,0.0],[-18.19994,66.02734,0.0],[-18.20067,66.02697,0.0],[-18.2007,66.02622,0.0],[-18.20122,66.02565,0.0],[-18.20156,66.02477,0.0],[-18.20159,66.02386,0.0],[-18.20223,66.02278,0.0],[-18.20337,66.02245,0.0],[-18.20511,66.02234,0.0],[-18.20715,66.02247,0.0],[-18.20877,66.02281,0.0],[-18.2105,66.02316,0.0],[-18.21182,66.02333,0.0],[-18.21275,66.023,0.0],[-18.21357,66.02292,0.0],[-18.2146,66.02284,0.0],[-18.21622,66.02314,0.0],[-18.21867,66.02332,0.0],[-18.21988,66.02383,0.0],[-18.22048,66.02437,0.0],[-18.22097,66.02504,0.0],[-18.22126,66.0255,0.0],[-18.22217,66.02588,0.0],[-18.2237,66.02617,0.0],[-18.22471,66.02647,0.0],[-18.22542,66.02664,0.0],[-18.22592,66.02698,0.0],[-18.22601,66.02752,0.0],[-18.22447,66.02772,0.0],[-18.22273,66.02779,0.0],[-18.2219,66.028,0.0],[-18.22098,66.0282,0.0],[-18.21954,66.02852,0.0],[-18.21841,66.02868,0.0],[-18.21733,66.02864,0.0],[-18.2182,66.02881,0.0]]]}},{"type":"Feature","properties":{"rgi_id":"RGI2000-v7.0-G-06-00548","o1region":"06"},"geometry":{"type":"Polygon","coordinates":[[[-18.193226,66.023285,0.0],[-18.193195,66.02322,0.0],[-18.193099,66.022938,0.0],[-18.193052,66.022664,0.0],[-18.193053,66.022415,0.0],[-18.193095,66.022188,0.0],[-18.19317,66.021966,0.0],[-18.193282,66.021753,0.0],[-18.193436,66.021553,0.0],[-18.193711,66.021295,0.0],[-18.194172,66.02081,0.0],[-18.194333,66.020654,0.0],[-18.194512,66.020508,0.0],[-18.194844,66.020288,0.0],[-18.195143,66.020073,0.0],[-18.195278,66.019969,0.0],[-18.195387,66.019866,0.0],[-18.195469,66.01972,0.0],[-18.195473,66.019572,0.0],[-18.195394,66.019431,0.0],[-18.195278,66.019335,0.0],[-18.195129,66.019244,0.0],[-18.195035,66.019195,0.0],[-18.195139,66.019221,0.0],[-18.196306,66.019476,0.0],[-18.196954,66.019999,0.0],[-18.197198,66.020375,0.0],[-18.196971,66.021081,0.0],[-18.196543,66.021723,0.0],[-18.196062,66.022386,0.0],[-18.195685,66.022987,0.0],[-18.195216,66.023296,0.0],[-18.194803,66.023419,0.0],[-18.19363,66.02335,0.0],[-18.193226,66.023285,0.0]]]}},{"type":"Feature","properties":{"rgi_id":"RGI2000-v7.0-G-06-00549","o1region":"06"},"geometry":{"type":"Polygon","coordinates":[[[-18.190569,66.021546,0.0],[-18.189707,66.021355,0.0],[-18.188785,66.021412,0.0],[-18.188423,66.021556,0.0],[-18.187754,66.021719,0.0],[-18.18724,66.021799,0.0],[-18.186219,66.021752,0.0],[-18.185663,66.021583,0.0],[-18.185057,66.021351,0.0],[-18.184602,66.021182,0.0],[-18.18415,66.020931,0.0],[-18.183702,66.020575,0.0],[-18.183456,66.020262,0.0],[-18.183314,66.019908,0.0],[-18.183327,66.019492,0.0],[-18.183946,66.019329,0.0],[-18.18441,66.019206,0.0],[-18.18503,66.018981,0.0],[-18.185648,66.018818,0.0],[-18.186518,66.018781,0.0],[-18.187335,66.018785,0.0],[-18.188145,66.019039,0.0],[-18.188601,66.019145,0.0],[-18.189309,66.019378,0.0],[-18.189873,66.019339,0.0],[-18.190235,66.019175,0.0],[-18.190445,66.019009,0.0],[-18.191268,66.018826,0.0],[-18.191972,66.018678,0.0],[-18.19204,66.018664,0.0],[-18.192164,66.018675,0.0],[-18.193314,66.018775,0.0],[-18.194024,66.018945,0.0],[-18.195035,66.019195,0.0],[-18.195129,66.019244,0.0],[-18.195278,66.019335,0.0],[-18.195394,66.019431,0.0],[-18.195473,66.019572,0.0],[-18.195469,66.01972,0.0],[-18.195387,66.019866,0.0],[-18.195278,66.019969,0.0],[-18.195143,66.020073,0.0],[-18.194844,66.020288,0.0],[-18.194512,66.020508,0.0],[-18.194333,66.020654,0.0],[-18.194172,66.02081,0.0],[-18.193711,66.021295,0.0],[-18.193436,66.021553,0.0],[-18.193282,66.021753,0.0],[-18.19317,66.021966,0.0],[-18.193095,66.022188,0.0],[-18.193053,66.022415,0.0],[-18.193052,66.022664,0.0],[-18.193099,66.022938,0.0],[-18.193195,66.02322,0.0],[-18.193226,66.023285,0.0],[-18.192562,66.023178,0.0],[-18.191861,66.022717,0.0],[-18.19157,66.022217,0.0],[-18.191021,66.021798,0.0],[-18.190569,66.021546,0.0]]]}},{"type":"Feature","properties":{"rgi_id":"RGI2000-v7.0-G-06-00550","o1region":"06"},"geometry":{"type":"Polygon","coordinates":[[[-18.02707,66.07786,0.0],[-18.02687,66.07782,0.0],[-18.02671,66.07776,0.0],[-18.02659,66.07769,0.0],[-18.02649,66.07761,0.0],[-18.02642,66.07752,0.0],[-18.02635,66.07744,0.0],[-18.0263,66.07735,0.0],[-18.02624,66.07726,0.0],[-18.02618,66.07718,0.0],[-18.02612,66.07709,0.0],[-18.02608,66.077,0.0],[-18.02605,66.07691,0.0],[-18.02602,66.07682,0.0],[-18.02601,66.07673,0.0],[-18.02603,66.07664,0.0],[-18.02608,66.07656,0.0],[-18.02616,66.07647,0.0],[-18.02625,66.07639,0.0],[-18.02636,66.07631,0.0],[-18.02648,66.07624,0.0],[-18.02661,66.07616,0.0],[-18.02675,66.07609,0.0],[-18.0269,66.07602,0.0],[-18.02705,66.07596,0.0],[-18.02722,66.0759,0.0],[-18.0274,66.07585,0.0],[-18.02759,66.0758,0.0],[-18.02779,66.07576,0.0],[-18.028,66.07573,0.0],[-18.02821,66.0757,0.0],[-18.02842,66.07568,0.0],[-18.02864,66.07567,0.0],[-18.02887,66.07567,0.0],[-18.02909,66.07568,0.0],[-18.0293,66.07571,0.0],[-18.02952,66.07574,0.0],[-18.02973,66.07576,0.0],[-18.02994,66.07575,0.0],[-18.03015,66.07573,0.0],[-18.03036,66.0757,0.0],[-18.03057,66.07567,0.0],[-18.03078,66.07563,0.0],[-18.03099,66.0756,0.0],[-18.03119,66.07557,0.0],[-18.0314,66.07553,0.0],[-18.0316,66.0755,0.0],[-18.03181,66.07546,0.0],[-18.03201,66.07543,0.0],[-18.03222,66.0754,0.0],[-18.03243,66.07537,0.0],[-18.03265,66.07533,0.0],[-18.03287,66.0753,0.0],[-18.03308,66.07528,0.0],[-18.03329,66.07528,0.0],[-18.03349,66.0753,0.0],[-18.03369,66.07534,0.0],[-18.03389,66.07539,0.0],[-18.03406,66.07545,0.0],[-18.03422,66.07552,0.0],[-18.03434,66.07559,0.0],[-18.03445,66.07567,0.0],[-18.03454,66.07575,0.0],[-18.03461,66.07584,0.0],[-18.03468,66.07593,0.0],[-18.03474,66.07601,0.0],[-18.03479,66.0761,0.0],[-18.03483,66.07619,0.0],[-18.03486,66.07628,0.0],[-18.0349,66.07637,0.0],[-18.03493,66.07645,0.0],[-18.03497,66.07654,0.0],[-18.03502,66.07663,0.0],[-18.03508,66.07672,0.0],[-18.03515,66.0768,0.0],[-18.03523,66.07689,0.0],[-18.0353,66.07697,0.0],[-18.03537,66.07706,0.0],[-18.03543,66.07714,0.0],[-18.03547,66.07723,0.0],[-18.0355,66.07732,0.0],[-18.03549,66.07741,0.0],[-18.03546,66.0775,0.0],[-18.03541,66.07759,0.0],[-18.03536,66.07768,0.0],[-18.03531,66.07776,0.0],[-18.03524,66.07785,0.0],[-18.03517,66.07794,0.0],[-18.03508,66.07802,0.0],[-18.03497,66.07809,0.0],[-18.03482,66.07816,0.0],[-18.03466,66.07822,0.0],[-18.03449,66.07828,0.0],[-18.03432,66.07834,0.0],[-18.03415,66.0784,0.0],[-18.03398,66.07845,0.0],[-18.0338,66.07851,0.0],[-18.03362,66.07856,0.0],[-18.03342,66.0786,0.0],[-18.03322,66.07864,0.0],[-18.033,66.07866,0.0],[-18.03278,66.07867,0.0],[-18.03257,66.07867,0.0],[-18.03235,66.07865,0.0],[-18.03213,66.07864,0.0],[-18.03191,66.07862,0.0],[-18.03169,66.0786,0.0],[-18.03148,66.07857,0.0],[-18.03127,66.07855,0.0],[-18.03105,66.07853,0.0],[-18.03084,66.07851,0.0],[-18.03062,66.07849,0.0],[-18.0304,66.07847,0.0],[-18.03019,66.07846,0.0],[-18.02997,66.07845,0.0],[-18.02975,66.07845,0.0],[-18.02952,66.07845,0.0],[-18.0293,66.07845,0.0],[-18.02908,66.07845,0.0],[-18.02886,66.07844,0.0],[-18.02864,66.07844,0.0],[-18.02842,66.07842,0.0],[-18.02822,66.07838,0.0],[-18.02803,66.07833,0.0],[-18.02786,66.07827,0.0],[-18.02773,66.0782,0.0],[-18.02762,66.07813,0.0],[-18.02752,66.07805,0.0],[-18.02742,66.07796,0.0],[-18.02732,66.07788,0.0],[-18.02707,66.07786,0.0]]]}},{"type":"Feature","properties":{"rgi_id":"RGI2000-v7.0-G-06-00551","o1region":"06"},"geometry":{"type":"Polygon","coordinates":[[[-18.01657,66.09564,0.0],[-18.01662,66.09557,0.0],[-18.01673,66.09549,0.0],[-18.01687,66.09541,0.0],[-18.01703,66.09533,0.0],[-18.01718,66.09527,0.0],[-18.01733,66.09521,0.0],[-18.0175,66.09515,0.0],[-18.01767,66.09509,0.0],[-18.01785,66.09504,0.0],[-18.01804,66.09499,0.0],[-18.01823,66.09494,0.0],[-18.01843,66.0949,0.0],[-18.01863,66.09486,0.0],[-18.01884,66.09483,0.0],[-18.01905,66.0948,0.0],[-18.01926,66.09478,0.0],[-18.01947,66.09476,0.0],[-18.01969,66.09474,0.0],[-18.01991,66.09473,0.0],[-18.02013,66.09471,0.0],[-18.02035,66.09471,0.0],[-18.02057,66.0947,0.0],[-18.02079,66.09469,0.0],[-18.02101,66.09469,0.0],[-18.02124,66.09469,0.0],[-18.02146,66.09469,0.0],[-18.02168,66.09469,0.0],[-18.0219,66.0947,0.0],[-18.02212,66.0947,0.0],[-18.02234,66.09472,0.0],[-18.02256,66.09474,0.0],[-18.02277,66.09476,0.0],[-18.02298,66.0948,0.0],[-18.02317,66.09484,0.0],[-18.02335,66.09489,0.0],[-18.02353,66.09494,0.0],[-18.0237,66.095,0.0],[-18.02387,66.09506,0.0],[-18.02402,66.09513,0.0],[-18.02417,66.09519,0.0],[-18.0243,66.09527,0.0],[-18.02443,66.09534,0.0],[-18.02455,66.09542,0.0],[-18.02465,66.0955,0.0],[-18.02474,66.09558,0.0],[-18.02482,66.09566,0.0],[-18.02489,66.09575,0.0],[-18.02495,66.09583,0.0],[-18.025,66.09592,0.0],[-18.02505,66.09601,0.0],[-18.02511,66.0961,0.0],[-18.02517,66.09618,0.0],[-18.02522,66.09627,0.0],[-18.02527,66.09636,0.0],[-18.02531,66.09645,0.0],[-18.02533,66.09653,0.0],[-18.02534,66.09662,0.0],[-18.02534,66.09671,0.0],[-18.02533,66.0968,0.0],[-18.02531,66.09689,0.0],[-18.02529,66.09698,0.0],[-18.02525,66.09707,0.0],[-18.0252,66.09716,0.0],[-18.02514,66.09725,0.0],[-18.02507,66.09733,0.0],[-18.02499,66.09741,0.0],[-18.0249,66.0975,0.0],[-18.0248,66.09758,0.0],[-18.0247,66.09766,0.0],[-18.02458,66.09774,0.0],[-18.02446,66.09781,0.0],[-18.02431,66.09788,0.0],[-18.02414,66.09794,0.0],[-18.02397,66.09799,0.0],[-18.02378,66.09804,0.0],[-18.02358,66.09808,0.0],[-18.02339,66.09812,0.0],[-18.02318,66.09816,0.0],[-18.02298,66.0982,0.0],[-18.02277,66.09823,0.0],[-18.02256,66.09825,0.0],[-18.02234,66.09827,0.0],[-18.02212,66.09828,0.0],[-18.0219,66.0983,0.0],[-18.02168,66.0983,0.0],[-18.02146,66.09831,0.0],[-18.02123,66.09831,0.0],[-18.02101,66.09831,0.0],[-18.0208,66.0983,0.0],[-18.02058,66.09828,0.0],[-18.02036,66.09826,0.0],[-18.02015,66.09823,0.0],[-18.01994,66.0982,0.0],[-18.01973,66.09817,0.0],[-18.01953,66.09813,0.0],[-18.01933,66.09809,0.0],[-18.01915,66.09804,0.0],[-18.01899,66.09798,0.0],[-18.01884,66.09791,0.0],[-18.01871,66.09784,0.0],[-18.01858,66.09777,0.0],[-18.01845,66.09769,0.0],[-18.01833,66.09761,0.0],[-18.01821,66.09754,0.0],[-18.0181,66.09746,0.0],[-18.01799,66.09738,0.0],[-18.01788,66.09731,0.0],[-18.01778,66.09723,0.0],[-18.01767,66.09715,0.0],[-18.01757,66.09707,0.0],[-18.01746,66.09699,0.0],[-18.01736,66.09691,0.0],[-18.01726,66.09683,0.0],[-18.01716,66.09675,0.0],[-18.01706,66.09667,0.0],[-18.01697,66.09659,0.0],[-18.01689,66.0965,0.0],[-18.0168,66.09642,0.0],[-18.01672,66.09633,0.0],[-18.01665,66.09625,0.0],[-18.01662,66.09616,0.0],[-18.01662,66.09607,0.0],[-18.01667,66.09599,0.0],[-18.01676,66.0959,0.0],[-18.01685,66.09582,0.0],[-18.01693,66.09573,0.0],[-18.01657,66.09564,0.0]]]}},{"type":"Feature","properties":{"rgi_id":"RGI2000-v7.0-G-06-00552","o1region":"06"},"geometry":{"type":"Polygon","coordinates":[[[-17.9971,66.10087,0.0],[-17.99722,66.10079,0.0],[-17.99734,66.10072,0.0],[-17.99745,66.10064,0.0],[-17.99756,66.10056,0.0],[-17.99767,66.10049,0.0],[-17.99778,66.10041,0.0],[-17.99789,66.10033,0.0],[-17.99801,66.10025,0.0],[-17.99812,66.10018,0.0],[-17.99824,66.1001,0.0],[-17.99836,66.10003,0.0],[-17.99849,66.09995,0.0],[-17.99863,66.09988,0.0],[-17.99868,66.09986,0.0],[-17.99877,66.09981,0.0],[-17.99891,66.09974,0.0],[-17.99905,66.09967,0.0],[-17.99919,66.0996,0.0],[-17.99932,66.09953,0.0],[-17.99944,66.09946,0.0],[-17.99956,66.09938,0.0],[-17.99967,66.0993,0.0],[-17.99977,66.09923,0.0],[-17.99987,66.09915,0.0],[-17.99997,66.09907,0.0],[-18.00007,66.09899,0.0],[-18.00017,66.0989,0.0],[-18.00027,66.09883,0.0],[-18.00037,66.09875,0.0],[-18.00048,66.09867,0.0],[-18.00059,66.09859,0.0],[-18.00069,66.09851,0.0],[-18.0008,66.09843,0.0],[-18.00091,66.09835,0.0],[-18.00102,66.09828,0.0],[-18.00114,66.0982,0.0],[-18.00126,66.09813,0.0],[-18.00138,66.09805,0.0],[-18.00151,66.09798,0.0],[-18.00164,66.0979,0.0],[-18.00177,66.09783,0.0],[-18.0019,66.09776,0.0],[-18.00204,66.09769,0.0],[-18.00218,66.09762,0.0],[-18.00233,66.09755,0.0],[-18.00247,66.09749,0.0],[-18.00262,66.09742,0.0],[-18.00277,66.09735,0.0],[-18.00292,66.09729,0.0],[-18.00308,66.09722,0.0],[-18.00323,66.09716,0.0],[-18.00339,66.0971,0.0],[-18.00356,66.09704,0.0],[-18.00372,66.09698,0.0],[-18.00389,66.09692,0.0],[-18.00407,66.09687,0.0],[-18.00426,66.09682,0.0],[-18.00445,66.09678,0.0],[-18.00464,66.09673,0.0],[-18.00484,66.09669,0.0],[-18.00503,66.09665,0.0],[-18.00523,66.09661,0.0],[-18.00542,66.09656,0.0],[-18.00562,66.09652,0.0],[-18.00582,66.09648,0.0],[-18.00602,66.09645,0.0],[-18.00623,66.09642,0.0],[-18.00644,66.09639,0.0],[-18.00665,66.09637,0.0],[-18.00687,66.09635,0.0],[-18.00709,66.09633,0.0],[-18.00731,66.09633,0.0],[-18.00753,66.09633,0.0],[-18.00774,66.09635,0.0],[-18.00795,66.09638,0.0],[-18.00816,66.09641,0.0],[-18.00836,66.09645,0.0],[-18.00855,66.09649,0.0],[-18.00875,66.09653,0.0],[-18.00894,66.09658,0.0],[-18.00913,66.09663,0.0],[-18.00931,66.09668,0.0],[-18.00949,66.09673,0.0],[-18.00967,66.09678,0.0],[-18.00985,66.09683,0.0],[-18.01002,66.09689,0.0],[-18.01019,66.09695,0.0],[-18.01035,66.09701,0.0],[-18.0105,66.09708,0.0],[-18.01063,66.09715,0.0],[-18.01074,66.09723,0.0],[-18.01084,66.09731,0.0],[-18.01093,66.09739,0.0],[-18.011,66.09747,0.0],[-18.01106,66.09756,0.0],[-18.01108,66.09765,0.0],[-18.01102,66.09774,0.0],[-18.01088,66.0978,0.0],[-18.0107,66.09786,0.0],[-18.01051,66.0979,0.0],[-18.01031,66.09794,0.0],[-18.01011,66.09798,0.0],[-18.00992,66.09802,0.0],[-18.00972,66.09806,0.0],[-18.00951,66.09809,0.0],[-18.00931,66.09813,0.0],[-18.00912,66.09817,0.0],[-18.00898,66.09824,0.0],[-18.00894,66.09833,0.0],[-18.00895,66.09842,0.0],[-18.009,66.09851,0.0],[-18.00906,66.09859,0.0],[-18.00915,66.09868,0.0],[-18.00927,66.09875,0.0],[-18.00941,66.09882,0.0],[-18.00956,66.09889,0.0],[-18.0097,66.09896,0.0],[-18.00983,66.09903,0.0],[-18.00997,66.0991,0.0],[-18.01011,66.09917,0.0],[-18.01024,66.09924,0.0],[-18.01038,66.09931,0.0],[-18.01052,66.09938,0.0],[-18.01065,66.09945,0.0],[-18.01077,66.09953,0.0],[-18.0109,66.0996,0.0],[-18.01102,66.09968,0.0],[-18.01114,66.09975,0.0],[-18.01126,66.09983,0.0],[-18.01138,66.0999,0.0],[-18.01151,66.09997,0.0],[-18.01164,66.10005,0.0],[-18.01177,66.10012,0.0],[-18.01189,66.10019,0.0],[-18.01201,66.10027,0.0],[-18.01211,66.10035,0.0],[-18.0122,66.10043,0.0],[-18.01227,66.10052,0.0],[-18.01234,66.1006,0.0],[-18.0124,66.10069,0.0],[-18.01244,66.10078,0.0],[-18.01246,66.10087,0.0],[-18.01245,66.10095,0.0],[-18.01243,66.10104,0.0],[-18.01239,66.10113,0.0],[-18.01234,66.10122,0.0],[-18.01227,66.1013,0.0],[-18.0122,66.10139,0.0],[-18.01211,66.10147,0.0],[-18.01201,66.10155,0.0],[-18.01191,66.10163,0.0],[-18.0118,66.10171,0.0],[-18.01169,66.10179,0.0],[-18.01157,66.10186,0.0],[-18.01145,66.10194,0.0],[-18.01133,66.10201,0.0],[-18.0112,66.10209,0.0],[-18.01107,66.10216,0.0],[-18.01093,66.10223,0.0],[-18.01079,66.1023,0.0],[-18.01065,66.10237,0.0],[-18.0105,66.10243,0.0],[-18.01035,66.1025,0.0],[-18.0102,66.10256,0.0],[-18.01005,66.10263,0.0],[-18.00991,66.1027,0.0],[-18.00976,66.10276,0.0],[-18.00962,66.10283,0.0],[-18.00947,66.1029,0.0],[-18.00933,66.10297,0.0],[-18.00918,66.10304,0.0],[-18.00904,66.1031,0.0],[-18.00889,66.10317,0.0],[-18.00873,66.10323,0.0],[-18.00858,66.1033,0.0],[-18.00841,66.10336,0.0],[-18.00824,66.10341,0.0],[-18.00805,66.10346,0.0],[-18.00787,66.10351,0.0],[-18.00769,66.10356,0.0],[-18.00751,66.10362,0.0],[-18.00732,66.10367,0.0],[-18.00714,66.10372,0.0],[-18.00696,66.10376,0.0],[-18.00677,66.10381,0.0],[-18.00659,66.10386,0.0],[-18.00641,66.10392,0.0],[-18.00623,66.10397,0.0],[-18.00605,66.10402,0.0],[-18.00586,66.10407,0.0],[-18.00565,66.1041,0.0],[-18.00543,66.10411,0.0],[-18.00521,66.10412,0.0],[-18.00499,66.10411,0.0],[-18.00477,66.1041,0.0],[-18.00455,66.10409,0.0],[-18.00434,66.10407,0.0],[-18.00412,66.10405,0.0],[-18.00391,66.10403,0.0],[-18.00369,66.10402,0.0],[-18.00347,66.104,0.0],[-18.00318,66.10404,0.0],[-18.00297,66.10407,0.0],[-18.00276,66.1041,0.0],[-18.00255,66.10412,0.0],[-18.00234,66.10415,0.0],[-18.00213,66.10418,0.0],[-18.00192,66.10421,0.0],[-18.00171,66.10424,0.0],[-18.0015,66.10427,0.0],[-18.0013,66.1043,0.0],[-18.00109,66.10433,0.0],[-18.00089,66.10437,0.0],[-18.00069,66.10441,0.0],[-18.00048,66.10443,0.0],[-18.00026,66.10445,0.0],[-18.00004,66.10445,0.0],[-17.99982,66.10445,0.0],[-17.9996,66.10445,0.0],[-17.99938,66.10444,0.0],[-17.99916,66.10443,0.0],[-17.99894,66.10442,0.0],[-17.99872,66.10441,0.0],[-17.9985,66.10441,0.0],[-17.99828,66.1044,0.0],[-17.99806,66.10439,0.0],[-17.99784,66.10438,0.0],[-17.99762,66.10436,0.0],[-17.99741,66.10434,0.0],[-17.9972,66.10431,0.0],[-17.99699,66.10427,0.0],[-17.99679,66.10423,0.0],[-17.9966,66.10419,0.0],[-17.99642,66.10414,0.0],[-17.99624,66.10409,0.0],[-17.99608,66.10403,0.0],[-17.99593,66.10396,0.0],[-17.9958,66.10389,0.0],[-17.99568,66.10381,0.0],[-17.99557,66.10373,0.0],[-17.99547,66.10365,0.0],[-17.99538,66.10357,0.0],[-17.99531,66.10349,0.0],[-17.99524,66.1034,0.0],[-17.9952,66.10331,0.0],[-17.99517,66.10322,0.0],[-17.99516,66.10313,0.0],[-17.99516,66.10304,0.0],[-17.99517,66.10296,0.0],[-17.99519,66.10287,0.0],[-17.99523,66.10278,0.0],[-17.99527,66.10269,0.0],[-17.99533,66.1026,0.0],[-17.99539,66.10252,0.0],[-17.99546,66.10243,0.0],[-17.99554,66.10235,0.0],[-17.99562,66.10226,0.0],[-17.9957,66.10218,0.0],[-17.99578,66.1021,0.0],[-17.99585,66.10201,0.0],[-17.99592,66.10193,0.0],[-17.99599,66.10184,0.0],[-17.99606,66.10176,0.0],[-17.99614,66.10167,0.0],[-17.99621,66.10159,0.0],[-17.99629,66.1015,0.0],[-17.99637,66.10142,0.0],[-17.99646,66.10134,0.0],[-17.99655,66.10126,0.0],[-17.99665,66.10118,0.0],[-17.99676,66.1011,0.0],[-17.99687,66.10102,0.0],[-17.99699,66.10095,0.0],[-17.99706,66.10089,0.0],[-17.9971,66.10087,0.0]]]}},{"type":"Feature","properties":{"rgi_id":"RGI2000-v7.0-G-06-00553","o1region":"06"},"geometry":{"type":"Polygon","coordinates":[[[-17.99935,66.10966,0.0],[-17.99918,66.1096,0.0],[-17.99904,66.10954,0.0],[-17.99895,66.10946,0.0],[-17.99889,66.10937,0.0],[-17.99885,66.10928,0.0],[-17.99882,66.10919,0.0],[-17.9988,66.1091,0.0],[-17.99878,66.10901,0.0],[-17.99878,66.10892,0.0],[-17.99879,66.10883,0.0],[-17.99881,66.10874,0.0],[-17.99885,66.10865,0.0],[-17.99889,66.10857,0.0],[-17.99895,66.10848,0.0],[-17.99901,66.10839,0.0],[-17.99908,66.10831,0.0],[-17.99915,66.10822,0.0],[-17.99923,66.10814,0.0],[-17.99931,66.10806,0.0],[-17.99939,66.10797,0.0],[-17.99948,66.10789,0.0],[-17.99957,66.10781,0.0],[-17.99966,66.10773,0.0],[-17.99975,66.10764,0.0],[-17.99984,66.10756,0.0],[-17.99994,66.10748,0.0],[-18.00004,66.1074,0.0],[-18.00014,66.10732,0.0],[-18.00024,66.10724,0.0],[-18.00034,66.10716,0.0],[-18.00044,66.10708,0.0],[-18.00054,66.107,0.0],[-18.00063,66.10692,0.0],[-18.00073,66.10684,0.0],[-18.00082,66.10675,0.0],[-18.00093,66.10668,0.0],[-18.00105,66.1066,0.0],[-18.00118,66.10653,0.0],[-18.00133,66.10646,0.0],[-18.00149,66.1064,0.0],[-18.00166,66.10634,0.0],[-18.00185,66.10629,0.0],[-18.00204,66.10625,0.0],[-18.00224,66.10622,0.0],[-18.00246,66.1062,0.0],[-18.00268,66.10618,0.0],[-18.0029,66.10617,0.0],[-18.00313,66.10617,0.0],[-18.00335,66.10617,0.0],[-18.00357,66.10618,0.0],[-18.00378,66.1062,0.0],[-18.004,66.10622,0.0],[-18.00422,66.10624,0.0],[-18.00444,66.10625,0.0],[-18.00466,66.10627,0.0],[-18.00488,66.10629,0.0],[-18.00508,66.10632,0.0],[-18.00528,66.10636,0.0],[-18.00545,66.10643,0.0],[-18.00555,66.10651,0.0],[-18.00556,66.10659,0.0],[-18.00554,66.10668,0.0],[-18.00552,66.10677,0.0],[-18.00548,66.10686,0.0],[-18.00543,66.10695,0.0],[-18.00539,66.10704,0.0],[-18.00535,66.10713,0.0],[-18.0053,66.10722,0.0],[-18.00526,66.1073,0.0],[-18.00521,66.10739,0.0],[-18.00516,66.10748,0.0],[-18.00511,66.10757,0.0],[-18.00507,66.10766,0.0],[-18.00503,66.10774,0.0],[-18.005,66.10783,0.0],[-18.00496,66.10792,0.0],[-18.00493,66.10801,0.0],[-18.0049,66.1081,0.0],[-18.00488,66.10819,0.0],[-18.00488,66.10828,0.0],[-18.00491,66.10837,0.0],[-18.00496,66.10846,0.0],[-18.00503,66.10854,0.0],[-18.00513,66.10863,0.0],[-18.00524,66.10871,0.0],[-18.00536,66.10879,0.0],[-18.0055,66.10886,0.0],[-18.00566,66.10891,0.0],[-18.00588,66.10894,0.0],[-18.00612,66.10896,0.0],[-18.00635,66.10897,0.0],[-18.00655,66.10895,0.0],[-18.00672,66.1089,0.0],[-18.00687,66.10883,0.0],[-18.00701,66.10875,0.0],[-18.00714,66.10867,0.0],[-18.00726,66.1086,0.0],[-18.00738,66.10852,0.0],[-18.00749,66.10844,0.0],[-18.0076,66.10837,0.0],[-18.00771,66.10829,0.0],[-18.00782,66.10821,0.0],[-18.00793,66.10813,0.0],[-18.00804,66.10806,0.0],[-18.00815,66.10798,0.0],[-18.00826,66.1079,0.0],[-18.00837,66.10782,0.0],[-18.00848,66.10774,0.0],[-18.00859,66.10767,0.0],[-18.00871,66.10759,0.0],[-18.00883,66.10751,0.0],[-18.00895,66.10744,0.0],[-18.00908,66.10737,0.0],[-18.00921,66.10729,0.0],[-18.00935,66.10722,0.0],[-18.00949,66.10716,0.0],[-18.00964,66.10709,0.0],[-18.0098,66.10703,0.0],[-18.00997,66.10696,0.0],[-18.01015,66.1069,0.0],[-18.01033,66.10685,0.0],[-18.01052,66.10681,0.0],[-18.01072,66.10679,0.0],[-18.01094,66.10681,0.0],[-18.01117,66.10683,0.0],[-18.01139,66.10685,0.0],[-18.0116,66.10683,0.0],[-18.0118,66.1068,0.0],[-18.012,66.10677,0.0],[-18.0122,66.10672,0.0],[-18.01239,66.10668,0.0],[-18.01259,66.10663,0.0],[-18.01278,66.10659,0.0],[-18.01298,66.10655,0.0],[-18.01318,66.10651,0.0],[-18.01338,66.10646,0.0],[-18.01357,66.10641,0.0],[-18.01377,66.10637,0.0],[-18.01398,66.10635,0.0],[-18.01418,66.10635,0.0],[-18.01439,66.10637,0.0],[-18.0146,66.1064,0.0],[-18.01482,66.10644,0.0],[-18.01503,66.10648,0.0],[-18.01523,66.10651,0.0],[-18.01543,66.10655,0.0],[-18.01564,66.10658,0.0],[-18.01584,66.10662,0.0],[-18.01605,66.10665,0.0],[-18.01626,66.10668,0.0],[-18.01646,66.10671,0.0],[-18.01667,66.10674,0.0],[-18.01688,66.10677,0.0],[-18.01709,66.1068,0.0],[-18.01731,66.10682,0.0],[-18.01752,66.10684,0.0],[-18.01774,66.10685,0.0],[-18.01796,66.10685,0.0],[-18.01819,66.10686,0.0],[-18.01841,66.10686,0.0],[-18.01863,66.10687,0.0],[-18.01885,66.10688,0.0],[-18.01906,66.1069,0.0],[-18.01928,66.10692,0.0],[-18.01949,66.10695,0.0],[-18.01969,66.10699,0.0],[-18.01987,66.10704,0.0],[-18.02003,66.1071,0.0],[-18.02019,66.10717,0.0],[-18.02035,66.10723,0.0],[-18.02051,66.10729,0.0],[-18.02066,66.10736,0.0],[-18.02083,66.10742,0.0],[-18.02101,66.10747,0.0],[-18.0212,66.10751,0.0],[-18.02141,66.10754,0.0],[-18.02162,66.10758,0.0],[-18.02182,66.10761,0.0],[-18.02203,66.10764,0.0],[-18.02223,66.10768,0.0],[-18.02241,66.10773,0.0],[-18.0226,66.10778,0.0],[-18.02277,66.10784,0.0],[-18.02293,66.10791,0.0],[-18.02306,66.10798,0.0],[-18.02315,66.10806,0.0],[-18.0232,66.10814,0.0],[-18.02322,66.10823,0.0],[-18.02322,66.10833,0.0],[-18.02321,66.10842,0.0],[-18.02319,66.10851,0.0],[-18.02316,66.1086,0.0],[-18.02312,66.10869,0.0],[-18.02308,66.10877,0.0],[-18.02304,66.10886,0.0],[-18.02301,66.10895,0.0],[-18.02299,66.10904,0.0],[-18.02298,66.10913,0.0],[-18.02297,66.10922,0.0],[-18.02297,66.10932,0.0],[-18.02297,66.10941,0.0],[-18.02299,66.1095,0.0],[-18.02303,66.10959,0.0],[-18.02309,66.10967,0.0],[-18.02317,66.10975,0.0],[-18.02328,66.10982,0.0],[-18.02341,66.1099,0.0],[-18.02355,66.10997,0.0],[-18.0237,66.11004,0.0],[-18.02385,66.11011,0.0],[-18.02401,66.11017,0.0],[-18.02417,66.11023,0.0],[-18.02434,66.11029,0.0],[-18.02451,66.11035,0.0],[-18.0247,66.1104,0.0],[-18.02489,66.11045,0.0],[-18.02507,66.1105,0.0],[-18.02525,66.11055,0.0],[-18.02541,66.11061,0.0],[-18.02557,66.11067,0.0],[-18.02571,66.11074,0.0],[-18.02584,66.11082,0.0],[-18.02596,66.11089,0.0],[-18.02606,66.11097,0.0],[-18.02614,66.11105,0.0],[-18.0262,66.11114,0.0],[-18.02624,66.11123,0.0],[-18.02626,66.11132,0.0],[-18.02626,66.11141,0.0],[-18.02624,66.1115,0.0],[-18.02621,66.1116,0.0],[-18.02617,66.11169,0.0],[-18.02612,66.11177,0.0],[-18.02604,66.11185,0.0],[-18.0258,66.11184,0.0],[-18.0256,66.11181,0.0],[-18.02539,66.11177,0.0],[-18.02518,66.11174,0.0],[-18.02498,66.1117,0.0],[-18.02478,66.11166,0.0],[-18.02459,66.11162,0.0],[-18.02439,66.11158,0.0],[-18.02419,66.11154,0.0],[-18.024,66.1115,0.0],[-18.0238,66.11146,0.0],[-18.0236,66.11142,0.0],[-18.0234,66.11138,0.0],[-18.02319,66.11135,0.0],[-18.02299,66.11131,0.0],[-18.02278,66.11128,0.0],[-18.02258,66.11124,0.0],[-18.02238,66.1112,0.0],[-18.02219,66.11116,0.0],[-18.02201,66.11111,0.0],[-18.02183,66.11105,0.0],[-18.02165,66.111,0.0],[-18.02148,66.11094,0.0],[-18.02132,66.11088,0.0],[-18.02116,66.11082,0.0],[-18.02101,66.11075,0.0],[-18.02086,66.11069,0.0],[-18.02072,66.11062,0.0],[-18.02059,66.11054,0.0],[-18.02046,66.11047,0.0],[-18.02034,66.11039,0.0],[-18.02022,66.11032,0.0],[-18.02011,66.11024,0.0],[-18.02001,66.11016,0.0],[-18.01991,66.11008,0.0],[-18.01982,66.11,0.0],[-18.01975,66.10991,0.0],[-18.01969,66.10983,0.0],[-18.01964,66.10974,0.0],[-18.01958,66.10965,0.0],[-18.01951,66.10957,0.0],[-18.01943,66.10948,0.0],[-18.01935,66.1094,0.0],[-18.01926,66.10931,0.0],[-18.01917,66.10923,0.0],[-18.01906,66.10915,0.0],[-18.01894,66.10908,0.0],[-18.0188,66.10901,0.0],[-18.01864,66.10895,0.0],[-18.01847,66.10889,0.0],[-18.01829,66.10883,0.0],[-18.0181,66.10879,0.0],[-18.0179,66.10876,0.0],[-18.01769,66.10874,0.0],[-18.01747,66.10873,0.0],[-18.01724,66.10872,0.0],[-18.01701,66.10871,0.0],[-18.0168,66.1087,0.0],[-18.01658,66.10868,0.0],[-18.01636,66.10867,0.0],[-18.01614,66.10866,0.0],[-18.01592,66.10864,0.0],[-18.0157,66.10863,0.0],[-18.01548,66.10862,0.0],[-18.01526,66.10861,0.0],[-18.01504,66.10861,0.0],[-18.01482,66.10861,0.0],[-18.0146,66.10862,0.0],[-18.01439,66.10865,0.0],[-18.01418,66.10868,0.0],[-18.01398,66.10871,0.0],[-18.01377,66.10875,0.0],[-18.01357,66.10879,0.0],[-18.01338,66.10883,0.0],[-18.01318,66.10888,0.0],[-18.01299,66.10892,0.0],[-18.0128,66.10896,0.0],[-18.0126,66.109,0.0],[-18.01239,66.10903,0.0],[-18.01218,66.10906,0.0],[-18.01196,66.10908,0.0],[-18.01175,66.1091,0.0],[-18.01153,66.10912,0.0],[-18.01132,66.10914,0.0],[-18.01109,66.10915,0.0],[-18.01087,66.10916,0.0],[-18.01065,66.10917,0.0],[-18.01044,66.10919,0.0],[-18.01023,66.10922,0.0],[-18.01002,66.10925,0.0],[-18.00982,66.10928,0.0],[-18.00962,66.10932,0.0],[-18.00942,66.10936,0.0],[-18.00922,66.1094,0.0],[-18.00902,66.10944,0.0],[-18.00881,66.10947,0.0],[-18.00861,66.10951,0.0],[-18.00841,66.10955,0.0],[-18.00822,66.10959,0.0],[-18.00803,66.10963,0.0],[-18.00784,66.10968,0.0],[-18.00765,66.10973,0.0],[-18.00746,66.10977,0.0],[-18.00727,66.10982,0.0],[-18.00709,66.10987,0.0],[-18.0069,66.10992,0.0],[-18.00671,66.10997,0.0],[-18.00653,66.11002,0.0],[-18.00634,66.11006,0.0],[-18.00616,66.11011,0.0],[-18.00597,66.11017,0.0],[-18.00579,66.11022,0.0],[-18.0056,66.11026,0.0],[-18.00541,66.11031,0.0],[-18.00522,66.11035,0.0],[-18.00501,66.11039,0.0],[-18.0048,66.11042,0.0],[-18.00459,66.11044,0.0],[-18.00437,66.11046,0.0],[-18.00416,66.11048,0.0],[-18.00394,66.11048,0.0],[-18.00372,66.11048,0.0],[-18.00349,66.11047,0.0],[-18.00327,66.11046,0.0],[-18.00305,66.11044,0.0],[-18.00283,66.11043,0.0],[-18.00262,66.11041,0.0],[-18.0024,66.1104,0.0],[-18.00218,66.11038,0.0],[-18.00197,66.11035,0.0],[-18.00176,66.11032,0.0],[-18.00156,66.11029,0.0],[-18.00136,66.11025,0.0],[-18.00116,66.11021,0.0],[-18.00096,66.11017,0.0],[-18.00077,66.11012,0.0],[-18.00058,66.11008,0.0],[-18.0004,66.11003,0.0],[-18.00023,66.10997,0.0],[-18.00006,66.10991,0.0],[-17.99989,66.10985,0.0],[-17.99972,66.10979,0.0],[-17.99956,66.10973,0.0],[-17.99935,66.10966,0.0]]]}},{"type":"Feature","properties":{"rgi_id":"RGI2000-v7.0-G-06-00554","o1region":"06"},"geometry":{"type":"Polygon","coordinates":[[[-17.97543,66.06832,0.0],[-17.97545,66.06825,0.0],[-17.97551,66.06815,0.0],[-17.97559,66.06806,0.0],[-17.97569,66.06798,0.0],[-17.97582,66.06791,0.0],[-17.97599,66.06786,0.0],[-17.97619,66.06781,0.0],[-17.9764,66.06778,0.0],[-17.97661,66.06776,0.0],[-17.97683,66.06774,0.0],[-17.97705,66.06772,0.0],[-17.97727,66.06771,0.0],[-17.97749,66.0677,0.0],[-17.97771,66.0677,0.0],[-17.97793,66.06769,0.0],[-17.97815,66.06768,0.0],[-17.97837,66.06768,0.0],[-17.97859,66.06768,0.0],[-17.97881,66.06768,0.0],[-17.97903,66.06768,0.0],[-17.97925,66.06768,0.0],[-17.97947,66.06769,0.0],[-17.97969,66.0677,0.0],[-17.97991,66.06772,0.0],[-17.98013,66.06773,0.0],[-17.98034,66.06775,0.0],[-17.98056,66.06777,0.0],[-17.98078,66.06778,0.0],[-17.98099,66.0678,0.0],[-17.98121,66.06782,0.0],[-17.98142,66.06785,0.0],[-17.98164,66.06787,0.0],[-17.98185,66.06789,0.0],[-17.98207,66.06792,0.0],[-17.98228,66.06794,0.0],[-17.98249,66.06797,0.0],[-17.9827,66.068,0.0],[-17.9829,66.06803,0.0],[-17.9831,66.06807,0.0],[-17.9833,66.06811,0.0],[-17.98349,66.06815,0.0],[-17.98367,66.0682,0.0],[-17.98386,66.06825,0.0],[-17.98404,66.06831,0.0],[-17.98422,66.06836,0.0],[-17.98439,66.06841,0.0],[-17.98457,66.06847,0.0],[-17.98474,66.06852,0.0],[-17.98491,66.06858,0.0],[-17.98507,66.06864,0.0],[-17.98523,66.06871,0.0],[-17.98538,66.06878,0.0],[-17.98551,66.06885,0.0],[-17.98561,66.06893,0.0],[-17.9857,66.06901,0.0],[-17.98576,66.0691,0.0],[-17.9858,66.06919,0.0],[-17.98576,66.06927,0.0],[-17.98558,66.06933,0.0],[-17.98539,66.06938,0.0],[-17.9852,66.06942,0.0],[-17.985,66.06946,0.0],[-17.98481,66.06951,0.0],[-17.98461,66.06955,0.0],[-17.98441,66.06959,0.0],[-17.98422,66.06963,0.0],[-17.98402,66.06966,0.0],[-17.98382,66.0697,0.0],[-17.98362,66.06974,0.0],[-17.98342,66.06978,0.0],[-17.98321,66.06981,0.0],[-17.98301,66.06985,0.0],[-17.98281,66.06989,0.0],[-17.98261,66.06993,0.0],[-17.98242,66.06997,0.0],[-17.98222,66.07001,0.0],[-17.98203,66.07006,0.0],[-17.98184,66.0701,0.0],[-17.98165,66.07014,0.0],[-17.98145,66.07019,0.0],[-17.98126,66.07023,0.0],[-17.98107,66.07028,0.0],[-17.98088,66.07033,0.0],[-17.9807,66.07037,0.0],[-17.98051,66.07042,0.0],[-17.98032,66.07047,0.0],[-17.98014,66.07052,0.0],[-17.97995,66.07057,0.0],[-17.97977,66.07062,0.0],[-17.97959,66.07067,0.0],[-17.97941,66.07072,0.0],[-17.97923,66.07078,0.0],[-17.97905,66.07083,0.0],[-17.97887,66.07088,0.0],[-17.97869,66.07093,0.0],[-17.97851,66.07098,0.0],[-17.97833,66.07103,0.0],[-17.97815,66.07108,0.0],[-17.97796,66.07113,0.0],[-17.97777,66.07118,0.0],[-17.97757,66.07122,0.0],[-17.97736,66.07125,0.0],[-17.97715,66.07127,0.0],[-17.97693,66.07129,0.0],[-17.97671,66.0713,0.0],[-17.97649,66.07129,0.0],[-17.97628,66.07126,0.0],[-17.97607,66.07122,0.0],[-17.97589,66.07117,0.0],[-17.97575,66.0711,0.0],[-17.97564,66.07103,0.0],[-17.97556,66.07094,0.0],[-17.97551,66.07085,0.0],[-17.97549,66.07076,0.0],[-17.9755,66.07067,0.0],[-17.97554,66.07058,0.0],[-17.9756,66.07049,0.0],[-17.97567,66.07041,0.0],[-17.97575,66.07032,0.0],[-17.97583,66.07024,0.0],[-17.97593,66.07016,0.0],[-17.97603,66.07008,0.0],[-17.97615,66.07001,0.0],[-17.97629,66.06994,0.0],[-17.97645,66.06987,0.0],[-17.97661,66.06981,0.0],[-17.97678,66.06975,0.0],[-17.97695,66.0697,0.0],[-17.97713,66.06964,0.0],[-17.97731,66.06959,0.0],[-17.97748,66.06953,0.0],[-17.97764,66.06947,0.0],[-17.9778,66.0694,0.0],[-17.97792,66.06932,0.0],[-17.97791,66.06925,0.0],[-17.97775,66.06918,0.0],[-17.97758,66.06911,0.0],[-17.97741,66.06906,0.0],[-17.97724,66.069,0.0],[-17.97706,66.06895,0.0],[-17.97688,66.0689,0.0],[-17.9767,66.06885,0.0],[-17.97652,66.06879,0.0],[-17.97634,66.06874,0.0],[-17.97617,66.06868,0.0],[-17.976,66.06862,0.0],[-17.97584,66.06856,0.0],[-17.9757,66.06849,0.0],[-17.9756,66.06841,0.0],[-17.97557,66.06832,0.0],[-17.97554,66.06823,0.0],[-17.97543,66.06832,0.0]]]}}]}
