{"type":"FeatureCollection","features":[{"type":"Feature","properties":{"rgi_id":"RGI2000-v7.0-G-13-60084","o1region":"13"},"geometry":{"type":"Polygon","coordinates":[[[86.016281,34.555934,0.0],[86.016351,34.555934,0.0],[86.016706,34.55582,0.0],[86.01692,34.555589,0.0],[86.016994,34.555297,0.0],[86.017139,34.555007,0.0],[86.017071,34.554714,0.0],[86.017004,34.554422,0.0],[86.016795,34.554187,0.0],[86.016515,34.554009,0.0],[86.016163,34.553948,0.0],[86.01581,34.553945,0.0],[86.015457,34.554001,0.0],[86.015243,34.554232,0.0],[86.015169,34.554524,0.0],[86.015095,34.554815,0.0],[86.015021,34.555106,0.0],[86.01523,34.555342,0.0],[86.015438,34.555577,0.0],[86.016281,34.555934,0.0]]]}},{"type":"Feature","properties":{"rgi_id":"RGI2000-v7.0-G-13-60087","o1region":"13"},"geometry":{"type":"Polygon","coordinates":[[[86.590568,34.196944,0.0],[86.590553,34.197008,0.0],[86.590551,34.197334,0.0],[86.590549,34.197659,0.0],[86.590548,34.197985,0.0],[86.590468,34.19831,0.0],[86.590388,34.198635,0.0],[86.590308,34.198961,0.0],[86.590306,34.199286,0.0],[86.590305,34.199612,0.0],[86.590303,34.199937,0.0],[86.590302,34.200263,0.0],[86.590378,34.200589,0.0],[86.590613,34.200785,0.0],[86.590768,34.201046,0.0],[86.590821,34.201105,0.0],[86.591068,34.200983,0.0],[86.591497,34.200883,0.0],[86.591804,34.200782,0.0],[86.592173,34.200732,0.0],[86.592541,34.200682,0.0],[86.592848,34.200581,0.0],[86.593155,34.200481,0.0],[86.593297,34.200434,0.0],[86.593325,34.200388,0.0],[86.593477,34.200304,0.0],[86.593593,34.200209,0.0],[86.593908,34.200015,0.0],[86.594222,34.199885,0.0],[86.594458,34.199626,0.0],[86.594694,34.199431,0.0],[86.59493,34.199237,0.0],[86.595088,34.198977,0.0],[86.595324,34.198782,0.0],[86.595404,34.198457,0.0],[86.595562,34.198197,0.0],[86.595564,34.197871,0.0],[86.595565,34.197546,0.0],[86.595488,34.19722,0.0],[86.59549,34.196894,0.0],[86.595491,34.196569,0.0],[86.595336,34.196308,0.0],[86.595102,34.196112,0.0],[86.594789,34.195915,0.0],[86.594477,34.195719,0.0],[86.594398,34.195719,0.0],[86.594007,34.195717,0.0],[86.593615,34.195716,0.0],[86.593223,34.195715,0.0],[86.593065,34.195975,0.0],[86.592751,34.196104,0.0],[86.592749,34.196429,0.0],[86.592513,34.196624,0.0],[86.592123,34.196427,0.0],[86.592046,34.196102,0.0],[86.591733,34.195905,0.0],[86.591502,34.195866,0.0],[86.591336,34.196092,0.0],[86.591213,34.196347,0.0],[86.590966,34.19655,0.0],[86.590781,34.196804,0.0],[86.590568,34.196944,0.0]]]}},{"type":"Feature","properties":{"rgi_id":"RGI2000-v7.0-G-13-60088","o1region":"13"},"geometry":{"type":"Polygon","coordinates":[[[86.595756,34.202347,0.0],[86.595933,34.202496,0.0],[86.596246,34.202692,0.0],[86.596445,34.202859,0.0],[86.596795,34.202629,0.0],[86.596868,34.202583,0.0],[86.596886,34.202547,0.0],[86.597071,34.202242,0.0],[86.597257,34.201988,0.0],[86.597503,34.201734,0.0],[86.597689,34.201429,0.0],[86.597724,34.201399,0.0],[86.597773,34.201305,0.0],[86.597867,34.201038,0.0],[86.598006,34.200771,0.0],[86.598099,34.200465,0.0],[86.59813,34.200268,0.0],[86.59806,34.200224,0.0],[86.597669,34.200157,0.0],[86.597277,34.200156,0.0],[86.596885,34.200089,0.0],[86.596493,34.200088,0.0],[86.59626,34.20001,0.0],[86.596077,34.200191,0.0],[86.596046,34.20023,0.0],[86.595928,34.200577,0.0],[86.595877,34.200926,0.0],[86.595826,34.201233,0.0],[86.5958,34.201541,0.0],[86.595799,34.201829,0.0],[86.595797,34.202116,0.0],[86.595756,34.202347,0.0]]]}},{"type":"Feature","properties":{"rgi_id":"RGI2000-v7.0-G-13-60089","o1region":"13"},"geometry":{"type":"Polygon","coordinates":[[[86.601303,34.202253,0.0],[86.601301,34.202596,0.0],[86.6013,34.202953,0.0],[86.601298,34.203259,0.0],[86.601298,34.20336,0.0],[86.601414,34.203555,0.0],[86.60157,34.203816,0.0],[86.601725,34.204077,0.0],[86.602038,34.204274,0.0],[86.602272,34.204535,0.0],[86.602483,34.204664,0.0],[86.60273,34.20485,0.0],[86.602951,34.205076,0.0],[86.603148,34.205303,0.0],[86.603197,34.205386,0.0],[86.6036,34.205386,0.0],[86.603914,34.205191,0.0],[86.60415,34.204997,0.0],[86.604308,34.204867,0.0],[86.604309,34.204541,0.0],[86.604311,34.204216,0.0],[86.604312,34.20389,0.0],[86.604314,34.203565,0.0],[86.604315,34.203239,0.0],[86.604317,34.202914,0.0],[86.604342,34.202812,0.0],[86.604183,34.202759,0.0],[86.603877,34.202605,0.0],[86.603724,34.202391,0.0],[86.603692,34.202391,0.0],[86.603301,34.202324,0.0],[86.602909,34.202323,0.0],[86.602439,34.202321,0.0],[86.602047,34.20232,0.0],[86.601655,34.202254,0.0],[86.601303,34.202253,0.0]]]}},{"type":"Feature","properties":{"rgi_id":"RGI2000-v7.0-G-13-60090","o1region":"13"},"geometry":{"type":"Polygon","coordinates":[[[86.610283,34.199457,0.0],[86.610132,34.199481,0.0],[86.60974,34.19948,0.0],[86.609348,34.199544,0.0],[86.609034,34.199673,0.0],[86.60872,34.199802,0.0],[86.608406,34.199931,0.0],[86.608092,34.200061,0.0],[86.608064,34.200083,0.0],[86.607856,34.200255,0.0],[86.607463,34.200319,0.0],[86.607227,34.200514,0.0],[86.606913,34.200643,0.0],[86.606677,34.200838,0.0],[86.606598,34.201163,0.0],[86.606596,34.201488,0.0],[86.606595,34.201814,0.0],[86.606593,34.202139,0.0],[86.60667,34.202465,0.0],[86.606825,34.202726,0.0],[86.606981,34.202987,0.0],[86.607136,34.203248,0.0],[86.607213,34.203574,0.0],[86.607526,34.203705,0.0],[86.607684,34.20338,0.0],[86.607764,34.203055,0.0],[86.607922,34.202795,0.0],[86.608046,34.202744,0.0],[86.608236,34.202666,0.0],[86.60847,34.202862,0.0],[86.608547,34.203188,0.0],[86.608624,34.203513,0.0],[86.608705,34.203649,0.0],[86.608783,34.203767,0.0],[86.60892,34.204026,0.0],[86.609057,34.204284,0.0],[86.609297,34.204485,0.0],[86.609607,34.20463,0.0],[86.609848,34.204831,0.0],[86.609985,34.205089,0.0],[86.610051,34.205189,0.0],[86.610059,34.205172,0.0],[86.610183,34.204918,0.0],[86.610246,34.204612,0.0],[86.610517,34.204433,0.0],[86.610553,34.204409,0.0],[86.610797,34.204614,0.0],[86.611103,34.204819,0.0],[86.611283,34.204694,0.0],[86.611519,34.204499,0.0],[86.611833,34.20437,0.0],[86.612069,34.204175,0.0],[86.612305,34.203981,0.0],[86.61236,34.203936,0.0],[86.612463,34.203851,0.0],[86.612541,34.203786,0.0],[86.612933,34.203918,0.0],[86.613089,34.203983,0.0],[86.613403,34.203984,0.0],[86.61365,34.203985,0.0],[86.613682,34.203725,0.0],[86.613787,34.203468,0.0],[86.614029,34.203268,0.0],[86.614228,34.203195,0.0],[86.6143,34.203097,0.0],[86.614314,34.203068,0.0],[86.61427,34.20288,0.0],[86.614271,34.202555,0.0],[86.614273,34.202229,0.0],[86.614196,34.201903,0.0],[86.61404,34.201642,0.0],[86.613885,34.201381,0.0],[86.613729,34.20112,0.0],[86.613495,34.200924,0.0],[86.613182,34.200793,0.0],[86.61279,34.200727,0.0],[86.612478,34.200596,0.0],[86.612322,34.200335,0.0],[86.612088,34.200138,0.0],[86.611775,34.200007,0.0],[86.611384,34.199941,0.0],[86.611071,34.19981,0.0],[86.610758,34.199678,0.0],[86.610445,34.199547,0.0],[86.610283,34.199457,0.0]]]}},{"type":"Feature","properties":{"rgi_id":"RGI2000-v7.0-G-13-60091","o1region":"13"},"geometry":{"type":"Polygon","coordinates":[[[86.627616,34.197517,0.0],[86.627771,34.197843,0.0],[86.62777,34.198169,0.0],[86.627768,34.198494,0.0],[86.627767,34.19882,0.0],[86.628001,34.199081,0.0],[86.628156,34.199342,0.0],[86.628391,34.199538,0.0],[86.628677,34.199539,0.0],[86.628705,34.199357,0.0],[86.628706,34.199051,0.0],[86.628754,34.198745,0.0],[86.628801,34.19844,0.0],[86.62894,34.198173,0.0],[86.629034,34.197867,0.0],[86.629173,34.1976,0.0],[86.629312,34.197333,0.0],[86.629405,34.197066,0.0],[86.629544,34.19676,0.0],[86.629637,34.196493,0.0],[86.629731,34.196188,0.0],[86.629824,34.195921,0.0],[86.629977,34.195769,0.0],[86.62974,34.19557,0.0],[86.629349,34.195504,0.0],[86.628957,34.195437,0.0],[86.628565,34.195436,0.0],[86.628095,34.195435,0.0],[86.62798,34.195434,0.0],[86.62794,34.195456,0.0],[86.627709,34.195685,0.0],[86.627433,34.195837,0.0],[86.627345,34.19609,0.0],[86.627543,34.196214,0.0],[86.627777,34.196411,0.0],[86.627854,34.196736,0.0],[86.627775,34.197062,0.0],[86.627695,34.197387,0.0],[86.627616,34.197517,0.0]]]}},{"type":"Feature","properties":{"rgi_id":"RGI2000-v7.0-G-13-60092","o1region":"13"},"geometry":{"type":"Polygon","coordinates":[[[86.62668,34.183027,0.0],[86.626644,34.182967,0.0],[86.626578,34.182911,0.0],[86.626512,34.1828,0.0],[86.626445,34.182689,0.0],[86.626379,34.182634,0.0],[86.626379,34.182523,0.0],[86.626246,34.182522,0.0],[86.62618,34.182411,0.0],[86.62618,34.182356,0.0],[86.62618,34.182301,0.0],[86.626047,34.1823,0.0],[86.626047,34.182189,0.0],[86.625981,34.182189,0.0],[86.625981,34.182078,0.0],[86.625915,34.182023,0.0],[86.625848,34.182022,0.0],[86.625849,34.181912,0.0],[86.625782,34.181911,0.0],[86.625716,34.1818,0.0],[86.625716,34.181745,0.0],[86.625649,34.181745,0.0],[86.62565,34.181689,0.0],[86.62565,34.181634,0.0],[86.625583,34.181634,0.0],[86.625583,34.181578,0.0],[86.625517,34.181578,0.0],[86.625517,34.181523,0.0],[86.62545,34.181523,0.0],[86.625451,34.181467,0.0],[86.625384,34.181411,0.0],[86.625384,34.181356,0.0],[86.625318,34.181356,0.0],[86.625251,34.1813,0.0],[86.625185,34.181245,0.0],[86.625118,34.181189,0.0],[86.625052,34.181189,0.0],[86.624985,34.181133,0.0],[86.624919,34.181078,0.0],[86.624852,34.181077,0.0],[86.624786,34.181022,0.0],[86.624719,34.181022,0.0],[86.624719,34.180966,0.0],[86.624653,34.180966,0.0],[86.624586,34.18091,0.0],[86.62452,34.180855,0.0],[86.624453,34.180854,0.0],[86.624386,34.180854,0.0],[86.624387,34.180799,0.0],[86.62432,34.180799,0.0],[86.624253,34.180798,0.0],[86.624254,34.180743,0.0],[86.624187,34.180743,0.0],[86.62412,34.180743,0.0],[86.62412,34.180687,0.0],[86.624054,34.180687,0.0],[86.623987,34.180687,0.0],[86.623987,34.180631,0.0],[86.623921,34.180631,0.0],[86.623854,34.180576,0.0],[86.623787,34.180575,0.0],[86.623788,34.18052,0.0],[86.623788,34.180465,0.0],[86.623655,34.180409,0.0],[86.623655,34.180353,0.0],[86.623522,34.180297,0.0],[86.623455,34.180297,0.0],[86.623389,34.180242,0.0],[86.623389,34.180186,0.0],[86.623322,34.180186,0.0],[86.623189,34.18013,0.0],[86.623123,34.180075,0.0],[86.623123,34.180019,0.0],[86.623056,34.180019,0.0],[86.623057,34.179964,0.0],[86.62299,34.179963,0.0],[86.622923,34.179963,0.0],[86.622924,34.179908,0.0],[86.622857,34.179907,0.0],[86.622857,34.179852,0.0],[86.622791,34.179796,0.0],[86.622724,34.179796,0.0],[86.622724,34.179741,0.0],[86.622658,34.179741,0.0],[86.622658,34.179685,0.0],[86.622658,34.17963,0.0],[86.622591,34.17963,0.0],[86.622592,34.179574,0.0],[86.622525,34.179574,0.0],[86.622392,34.179518,0.0],[86.622325,34.179463,0.0],[86.622259,34.179407,0.0],[86.622193,34.179351,0.0],[86.622126,34.179296,0.0],[86.62206,34.17924,0.0],[86.621927,34.179184,0.0],[86.621927,34.179129,0.0],[86.621794,34.179073,0.0],[86.621727,34.179017,0.0],[86.621594,34.178962,0.0],[86.621595,34.178906,0.0],[86.621461,34.17885,0.0],[86.621395,34.178795,0.0],[86.621328,34.178794,0.0],[86.621262,34.178794,0.0],[86.621262,34.178739,0.0],[86.621129,34.178683,0.0],[86.621062,34.178627,0.0],[86.620996,34.178627,0.0],[86.620929,34.178572,0.0],[86.620863,34.178516,0.0],[86.620796,34.178516,0.0],[86.620729,34.178516,0.0],[86.620597,34.178404,0.0],[86.62053,34.178404,0.0],[86.620463,34.178404,0.0],[86.620397,34.178404,0.0],[86.620263,34.178348,0.0],[86.620197,34.178348,0.0],[86.620197,34.178292,0.0],[86.62013,34.178292,0.0],[86.620131,34.178237,0.0],[86.620064,34.178181,0.0],[86.620008,34.178218,0.0],[86.619919,34.178291,0.0],[86.619919,34.178365,0.0],[86.619741,34.178365,0.0],[86.619652,34.178438,0.0],[86.619563,34.178438,0.0],[86.619474,34.178512,0.0],[86.619385,34.178511,0.0],[86.619296,34.178511,0.0],[86.619296,34.178585,0.0],[86.619207,34.178585,0.0],[86.619118,34.178584,0.0],[86.619117,34.178658,0.0],[86.619029,34.178658,0.0],[86.619028,34.178732,0.0],[86.618939,34.178732,0.0],[86.618939,34.178806,0.0],[86.61885,34.178879,0.0],[86.618761,34.178879,0.0],[86.61876,34.178953,0.0],[86.618672,34.178952,0.0],[86.618583,34.178952,0.0],[86.618493,34.179026,0.0],[86.618405,34.179026,0.0],[86.618316,34.179025,0.0],[86.618315,34.179099,0.0],[86.618226,34.179173,0.0],[86.618137,34.179172,0.0],[86.618137,34.179246,0.0],[86.618048,34.179246,0.0],[86.617959,34.179246,0.0],[86.61787,34.179319,0.0],[86.617781,34.179319,0.0],[86.617781,34.179393,0.0],[86.617692,34.179393,0.0],[86.617603,34.179392,0.0],[86.617514,34.179392,0.0],[86.617513,34.179466,0.0],[86.617425,34.179466,0.0],[86.617247,34.179465,0.0],[86.617158,34.179539,0.0],[86.617069,34.179539,0.0],[86.61698,34.179538,0.0],[86.616979,34.179612,0.0],[86.61689,34.179612,0.0],[86.616713,34.179611,0.0],[86.616624,34.179611,0.0],[86.616535,34.179611,0.0],[86.616446,34.179611,0.0],[86.616357,34.17961,0.0],[86.616268,34.17961,0.0],[86.616179,34.17961,0.0],[86.61609,34.179609,0.0],[86.616001,34.179609,0.0],[86.615913,34.179609,0.0],[86.615824,34.179609,0.0],[86.615735,34.179608,0.0],[86.615699,34.179608,0.0],[86.615646,34.179608,0.0],[86.615557,34.179608,0.0],[86.615468,34.179607,0.0],[86.615379,34.179607,0.0],[86.615322,34.179607,0.0],[86.61533,34.179642,0.0],[86.615457,34.179963,0.0],[86.615584,34.180283,0.0],[86.615711,34.180549,0.0],[86.615838,34.180816,0.0],[86.615965,34.181083,0.0],[86.616156,34.18135,0.0],[86.616283,34.181617,0.0],[86.61641,34.181883,0.0],[86.616601,34.18215,0.0],[86.616728,34.182417,0.0],[86.616791,34.182684,0.0],[86.616982,34.182951,0.0],[86.617045,34.183217,0.0],[86.617236,34.183484,0.0],[86.617363,34.183751,0.0],[86.61749,34.184018,0.0],[86.617681,34.184338,0.0],[86.617808,34.184658,0.0],[86.617871,34.184925,0.0],[86.617934,34.185191,0.0],[86.618061,34.185458,0.0],[86.618123,34.185724,0.0],[86.618186,34.185991,0.0],[86.618313,34.186311,0.0],[86.61844,34.186578,0.0],[86.618503,34.186844,0.0],[86.618566,34.187111,0.0],[86.618629,34.187378,0.0],[86.618627,34.18775,0.0],[86.618626,34.18807,0.0],[86.618624,34.18839,0.0],[86.618623,34.188763,0.0],[86.618621,34.189082,0.0],[86.61862,34.189402,0.0],[86.618618,34.189722,0.0],[86.618617,34.190041,0.0],[86.618615,34.190361,0.0],[86.618614,34.190681,0.0],[86.618613,34.191,0.0],[86.618547,34.191266,0.0],[86.618546,34.191586,0.0],[86.618544,34.191906,0.0],[86.618515,34.191967,0.0],[86.618823,34.191968,0.0],[86.618333,34.192935,0.0],[86.618329,34.193824,0.0],[86.617741,34.194791,0.0],[86.617315,34.195686,0.0],[86.616382,34.196455,0.0],[86.616543,34.197183,0.0],[86.617141,34.197911,0.0],[86.617667,34.198242,0.0],[86.61788,34.198023,0.0],[86.618126,34.197819,0.0],[86.618495,34.197668,0.0],[86.618802,34.197567,0.0],[86.619109,34.197415,0.0],[86.619477,34.197314,0.0],[86.619653,34.197402,0.0],[86.620096,34.197194,0.0],[86.621251,34.196732,0.0],[86.62132,34.19659,0.0],[86.621567,34.196336,0.0],[86.621813,34.196133,0.0],[86.621998,34.195879,0.0],[86.622305,34.195727,0.0],[86.622552,34.195473,0.0],[86.622764,34.195254,0.0],[86.622798,34.195235,0.0],[86.623106,34.194981,0.0],[86.623352,34.194778,0.0],[86.623659,34.194576,0.0],[86.623967,34.194475,0.0],[86.624335,34.194425,0.0],[86.624642,34.194222,0.0],[86.624949,34.19407,0.0],[86.625073,34.193816,0.0],[86.625073,34.193762,0.0],[86.625279,34.19362,0.0],[86.625382,34.193409,0.0],[86.625505,34.193154,0.0],[86.62569,34.1929,0.0],[86.625937,34.192697,0.0],[86.626244,34.192494,0.0],[86.626522,34.192403,0.0],[86.62668,34.192217,0.0],[86.626848,34.191218,0.0],[86.625757,34.19076,0.0],[86.626199,34.189716,0.0],[86.626365,34.189126,0.0],[86.625767,34.188488,0.0],[86.625716,34.187625,0.0],[86.626484,34.1869,0.0],[86.626776,34.186731,0.0],[86.626724,34.18651,0.0],[86.62649,34.186314,0.0],[86.626334,34.186053,0.0],[86.626179,34.185792,0.0],[86.62618,34.185467,0.0],[86.626181,34.185264,0.0],[86.626059,34.184128,0.0],[86.626336,34.183311,0.0],[86.62668,34.183027,0.0]]]}},{"type":"Feature","properties":{"rgi_id":"RGI2000-v7.0-G-13-60093","o1region":"13"},"geometry":{"type":"Polygon","coordinates":[[[86.618515,34.191967,0.0],[86.618544,34.191906,0.0],[86.618546,34.191586,0.0],[86.618547,34.191266,0.0],[86.618613,34.191,0.0],[86.618614,34.190681,0.0],[86.618615,34.190361,0.0],[86.618617,34.190041,0.0],[86.618618,34.189722,0.0],[86.61862,34.189402,0.0],[86.618621,34.189082,0.0],[86.618623,34.188763,0.0],[86.618624,34.18839,0.0],[86.618626,34.18807,0.0],[86.618627,34.18775,0.0],[86.618629,34.187378,0.0],[86.618566,34.187111,0.0],[86.618503,34.186844,0.0],[86.61844,34.186578,0.0],[86.618313,34.186311,0.0],[86.618186,34.185991,0.0],[86.618123,34.185724,0.0],[86.618061,34.185458,0.0],[86.617934,34.185191,0.0],[86.617871,34.184925,0.0],[86.617808,34.184658,0.0],[86.617681,34.184338,0.0],[86.61749,34.184018,0.0],[86.617363,34.183751,0.0],[86.617236,34.183484,0.0],[86.617045,34.183217,0.0],[86.616982,34.182951,0.0],[86.616791,34.182684,0.0],[86.616728,34.182417,0.0],[86.616601,34.18215,0.0],[86.61641,34.181883,0.0],[86.616283,34.181617,0.0],[86.616156,34.18135,0.0],[86.615965,34.181083,0.0],[86.615838,34.180816,0.0],[86.615711,34.180549,0.0],[86.615584,34.180283,0.0],[86.615457,34.179963,0.0],[86.61533,34.179642,0.0],[86.615322,34.179607,0.0],[86.61529,34.179607,0.0],[86.615201,34.179607,0.0],[86.615112,34.179606,0.0],[86.615024,34.179606,0.0],[86.614935,34.179606,0.0],[86.614846,34.179606,0.0],[86.614757,34.179605,0.0],[86.614668,34.179605,0.0],[86.614617,34.179605,0.0],[86.614602,34.179839,0.0],[86.614012,34.181211,0.0],[86.613719,34.181489,0.0],[86.613662,34.181521,0.0],[86.613347,34.181715,0.0],[86.613112,34.18191,0.0],[86.612954,34.18217,0.0],[86.612795,34.182495,0.0],[86.612637,34.18282,0.0],[86.612636,34.183146,0.0],[86.612713,34.183471,0.0],[86.612947,34.183733,0.0],[86.613023,34.184058,0.0],[86.613257,34.18432,0.0],[86.613413,34.184581,0.0],[86.613726,34.184712,0.0],[86.614003,34.184713,0.0],[86.614117,34.184713,0.0],[86.614509,34.184714,0.0],[86.614901,34.184781,0.0],[86.614977,34.185106,0.0],[86.614976,34.185432,0.0],[86.614974,34.185758,0.0],[86.614738,34.186017,0.0],[86.614502,34.186212,0.0],[86.614266,34.186406,0.0],[86.61403,34.186666,0.0],[86.613794,34.186861,0.0],[86.613558,34.187055,0.0],[86.613322,34.18725,0.0],[86.613164,34.18751,0.0],[86.612928,34.187704,0.0],[86.612692,34.187964,0.0],[86.612534,34.188289,0.0],[86.612532,34.188615,0.0],[86.612531,34.18894,0.0],[86.612451,34.189266,0.0],[86.61245,34.189591,0.0],[86.612448,34.189917,0.0],[86.612447,34.190242,0.0],[86.612445,34.190568,0.0],[86.612679,34.190764,0.0],[86.612801,34.190815,0.0],[86.612824,34.190669,0.0],[86.612886,34.190551,0.0],[86.613193,34.19045,0.0],[86.61356,34.190502,0.0],[86.613928,34.190555,0.0],[86.614172,34.19081,0.0],[86.614232,34.191116,0.0],[86.614744,34.191228,0.0],[86.616205,34.190506,0.0],[86.61679,34.190185,0.0],[86.617663,34.190591,0.0],[86.617492,34.190685,0.0],[86.617605,34.190923,0.0],[86.617727,34.191178,0.0],[86.617848,34.191484,0.0],[86.617908,34.19179,0.0],[86.617907,34.191989,0.0],[86.618143,34.191966,0.0],[86.618515,34.191967,0.0]]]}},{"type":"Feature","properties":{"rgi_id":"RGI2000-v7.0-G-13-60094","o1region":"13"},"geometry":{"type":"Polygon","coordinates":[[[86.609188,34.187788,0.0],[86.609526,34.187789,0.0],[86.609955,34.18779,0.0],[86.610262,34.18769,0.0],[86.61057,34.187487,0.0],[86.610877,34.187335,0.0],[86.611184,34.187132,0.0],[86.611431,34.186929,0.0],[86.611738,34.186777,0.0],[86.612106,34.186625,0.0],[86.612353,34.186422,0.0],[86.61266,34.186219,0.0],[86.612858,34.186057,0.0],[86.612858,34.186011,0.0],[86.612938,34.185621,0.0],[86.613018,34.18523,0.0],[86.613019,34.18497,0.0],[86.612706,34.184969,0.0],[86.612392,34.185098,0.0],[86.612,34.185162,0.0],[86.611608,34.185161,0.0],[86.611294,34.18529,0.0],[86.611,34.185387,0.0],[86.610901,34.185549,0.0],[86.610665,34.185744,0.0],[86.610429,34.185939,0.0],[86.610193,34.186133,0.0],[86.609957,34.186328,0.0],[86.609799,34.186588,0.0],[86.609719,34.186913,0.0],[86.609562,34.187173,0.0],[86.609326,34.187367,0.0],[86.609246,34.187693,0.0],[86.609188,34.187788,0.0]]]}},{"type":"Feature","properties":{"rgi_id":"RGI2000-v7.0-G-13-60095","o1region":"13"},"geometry":{"type":"Polygon","coordinates":[[[86.618132,34.179246,0.0],[86.617982,34.178995,0.0],[86.617984,34.17867,0.0],[86.618298,34.178475,0.0],[86.61869,34.178346,0.0],[86.618926,34.178152,0.0],[86.619084,34.177826,0.0],[86.619242,34.177567,0.0],[86.619479,34.177242,0.0],[86.619737,34.17687,0.0],[86.619737,34.17685,0.0],[86.619671,34.176739,0.0],[86.619671,34.176628,0.0],[86.619605,34.176517,0.0],[86.619539,34.176406,0.0],[86.619539,34.176351,0.0],[86.61954,34.176184,0.0],[86.61954,34.176129,0.0],[86.61954,34.176073,0.0],[86.619541,34.175963,0.0],[86.619541,34.175907,0.0],[86.619541,34.175852,0.0],[86.619541,34.175796,0.0],[86.619542,34.175741,0.0],[86.619542,34.175686,0.0],[86.619542,34.175575,0.0],[86.619543,34.175519,0.0],[86.619543,34.175464,0.0],[86.619543,34.175409,0.0],[86.619544,34.175298,0.0],[86.619544,34.175187,0.0],[86.619544,34.175131,0.0],[86.619545,34.175076,0.0],[86.619545,34.175021,0.0],[86.619545,34.174965,0.0],[86.619545,34.17491,0.0],[86.619546,34.174854,0.0],[86.619546,34.174799,0.0],[86.619546,34.174744,0.0],[86.619547,34.174633,0.0],[86.619547,34.174577,0.0],[86.619547,34.174466,0.0],[86.619548,34.174411,0.0],[86.619548,34.1743,0.0],[86.619549,34.174189,0.0],[86.619549,34.174134,0.0],[86.61955,34.173968,0.0],[86.61955,34.173912,0.0],[86.61955,34.173801,0.0],[86.619551,34.173635,0.0],[86.619551,34.17358,0.0],[86.619552,34.173524,0.0],[86.619552,34.173469,0.0],[86.619092,34.172697,0.0],[86.618824,34.172248,0.0],[86.618757,34.172247,0.0],[86.618691,34.172247,0.0],[86.618691,34.172192,0.0],[86.618624,34.172191,0.0],[86.618558,34.172136,0.0],[86.618491,34.172136,0.0],[86.618491,34.17208,0.0],[86.618425,34.17208,0.0],[86.618313,34.172087,0.0],[86.617992,34.172192,0.0],[86.617671,34.172245,0.0],[86.61735,34.17235,0.0],[86.616837,34.172455,0.0],[86.616517,34.172507,0.0],[86.616004,34.172559,0.0],[86.61549,34.172611,0.0],[86.615106,34.17261,0.0],[86.614721,34.172662,0.0],[86.6144,34.172714,0.0],[86.614016,34.172766,0.0],[86.613695,34.172818,0.0],[86.613246,34.17287,0.0],[86.612925,34.172922,0.0],[86.612605,34.172975,0.0],[86.612284,34.173027,0.0],[86.611899,34.173026,0.0],[86.611578,34.173078,0.0],[86.611258,34.17313,0.0],[86.610937,34.173182,0.0],[86.610552,34.173181,0.0],[86.610168,34.173233,0.0],[86.609847,34.173285,0.0],[86.609526,34.173338,0.0],[86.609078,34.173336,0.0],[86.608757,34.173389,0.0],[86.608372,34.173387,0.0],[86.608052,34.17344,0.0],[86.607667,34.173438,0.0],[86.607282,34.173437,0.0],[86.606898,34.173436,0.0],[86.606449,34.173434,0.0],[86.606,34.173433,0.0],[86.605488,34.173378,0.0],[86.605103,34.173377,0.0],[86.604719,34.173322,0.0],[86.604334,34.173321,0.0],[86.60395,34.17332,0.0],[86.603565,34.173319,0.0],[86.603181,34.173317,0.0],[86.603112,34.173317,0.0],[86.603097,34.173337,0.0],[86.602961,34.173617,0.0],[86.602758,34.173896,0.0],[86.602554,34.17412,0.0],[86.602418,34.174399,0.0],[86.602389,34.174459,0.0],[86.601942,34.174582,0.0],[86.601628,34.174711,0.0],[86.60147,34.174971,0.0],[86.601469,34.175296,0.0],[86.601467,34.175622,0.0],[86.601465,34.176012,0.0],[86.601542,34.176338,0.0],[86.601671,34.176554,0.0],[86.601698,34.176599,0.0],[86.60179,34.176755,0.0],[86.601853,34.17686,0.0],[86.602087,34.177056,0.0],[86.602321,34.177252,0.0],[86.602477,34.177513,0.0],[86.602554,34.177839,0.0],[86.60263,34.178165,0.0],[86.602707,34.178491,0.0],[86.602627,34.178881,0.0],[86.602547,34.179207,0.0],[86.602311,34.179466,0.0],[86.602231,34.179792,0.0],[86.602073,34.180051,0.0],[86.601837,34.180246,0.0],[86.601655,34.180359,0.0],[86.601574,34.180985,0.0],[86.600205,34.182677,0.0],[86.600203,34.183072,0.0],[86.600105,34.183275,0.0],[86.599981,34.18358,0.0],[86.599979,34.183886,0.0],[86.599977,34.184242,0.0],[86.600037,34.184548,0.0],[86.600036,34.184854,0.0],[86.600034,34.18516,0.0],[86.600033,34.185466,0.0],[86.600031,34.185771,0.0],[86.60003,34.186077,0.0],[86.60009,34.186383,0.0],[86.600334,34.186588,0.0],[86.60064,34.186741,0.0],[86.600946,34.186844,0.0],[86.601252,34.186998,0.0],[86.601496,34.187203,0.0],[86.601741,34.187407,0.0],[86.601985,34.187612,0.0],[86.602291,34.187766,0.0],[86.602597,34.18792,0.0],[86.602902,34.188074,0.0],[86.60327,34.188075,0.0],[86.603638,34.188076,0.0],[86.603672,34.18791,0.0],[86.603874,34.187939,0.0],[86.604266,34.187132,0.0],[86.605539,34.185198,0.0],[86.605554,34.18518,0.0],[86.605561,34.185152,0.0],[86.605691,34.184886,0.0],[86.60582,34.184567,0.0],[86.60595,34.184301,0.0],[86.60608,34.183982,0.0],[86.606209,34.183716,0.0],[86.606466,34.183503,0.0],[86.606788,34.183291,0.0],[86.607109,34.183186,0.0],[86.60743,34.18308,0.0],[86.607751,34.182921,0.0],[86.608072,34.182763,0.0],[86.608394,34.182604,0.0],[86.608468,34.182604,0.0],[86.608569,34.182538,0.0],[86.608815,34.182335,0.0],[86.609122,34.182234,0.0],[86.609429,34.182082,0.0],[86.609737,34.18193,0.0],[86.610044,34.181829,0.0],[86.610318,34.181792,0.0],[86.610371,34.181576,0.0],[86.610607,34.181381,0.0],[86.610921,34.181252,0.0],[86.611235,34.181123,0.0],[86.611627,34.181059,0.0],[86.611863,34.180864,0.0],[86.612254,34.180865,0.0],[86.612803,34.180737,0.0],[86.613024,34.180738,0.0],[86.613053,34.180667,0.0],[86.613135,34.1805,0.0],[86.613177,34.180412,0.0],[86.613265,34.180231,0.0],[86.613301,34.180158,0.0],[86.613425,34.179904,0.0],[86.613486,34.179751,0.0],[86.613357,34.179697,0.0],[86.61328,34.179371,0.0],[86.613203,34.179045,0.0],[86.613439,34.178851,0.0],[86.613831,34.178852,0.0],[86.613859,34.178852,0.0],[86.614222,34.178853,0.0],[86.614614,34.178854,0.0],[86.614656,34.178868,0.0],[86.615005,34.178986,0.0],[86.615318,34.179117,0.0],[86.615552,34.179443,0.0],[86.615699,34.179608,0.0],[86.615735,34.179608,0.0],[86.615824,34.179609,0.0],[86.615913,34.179609,0.0],[86.616001,34.179609,0.0],[86.61609,34.179609,0.0],[86.616179,34.17961,0.0],[86.616268,34.17961,0.0],[86.616357,34.17961,0.0],[86.616446,34.179611,0.0],[86.616535,34.179611,0.0],[86.616624,34.179611,0.0],[86.616713,34.179611,0.0],[86.61689,34.179612,0.0],[86.616979,34.179612,0.0],[86.61698,34.179538,0.0],[86.617069,34.179539,0.0],[86.617158,34.179539,0.0],[86.617247,34.179465,0.0],[86.617425,34.179466,0.0],[86.617513,34.179466,0.0],[86.617514,34.179392,0.0],[86.617603,34.179392,0.0],[86.617692,34.179393,0.0],[86.617781,34.179393,0.0],[86.617781,34.179319,0.0],[86.61787,34.179319,0.0],[86.617959,34.179246,0.0],[86.618048,34.179246,0.0],[86.618132,34.179246,0.0]],[[86.612031,34.17839,0.0],[86.612422,34.178457,0.0],[86.612421,34.178782,0.0],[86.612419,34.179108,0.0],[86.612418,34.179433,0.0],[86.612104,34.179432,0.0],[86.611713,34.179366,0.0],[86.611321,34.179365,0.0],[86.610929,34.179364,0.0],[86.610931,34.179038,0.0],[86.611089,34.178713,0.0],[86.611325,34.178518,0.0],[86.611639,34.178389,0.0],[86.612031,34.17839,0.0]]]}},{"type":"Feature","properties":{"rgi_id":"RGI2000-v7.0-G-13-60096","o1region":"13"},"geometry":{"type":"Polygon","coordinates":[[[86.606843,34.167954,0.0],[86.60671,34.167887,0.0],[86.606618,34.167848,0.0],[86.606517,34.16789,0.0],[86.605967,34.168148,0.0],[86.60581,34.168408,0.0],[86.605574,34.168603,0.0],[86.60526,34.168689,0.0],[86.60542,34.168882,0.0],[86.603183,34.169279,0.0],[86.601717,34.169221,0.0],[86.60152,34.169155,0.0],[86.601275,34.169086,0.0],[86.601027,34.169239,0.0],[86.600399,34.169498,0.0],[86.600007,34.169692,0.0],[86.599693,34.169821,0.0],[86.599579,34.169915,0.0],[86.599677,34.169964,0.0],[86.599675,34.17027,0.0],[86.59992,34.170475,0.0],[86.600287,34.17068,0.0],[86.600593,34.170782,0.0],[86.600652,34.170783,0.0],[86.602491,34.171861,0.0],[86.602683,34.172347,0.0],[86.602545,34.172472,0.0],[86.602657,34.172565,0.0],[86.602812,34.172826,0.0],[86.602732,34.173152,0.0],[86.602692,34.173316,0.0],[86.602796,34.173316,0.0],[86.603112,34.173317,0.0],[86.603181,34.173317,0.0],[86.603565,34.173319,0.0],[86.60395,34.17332,0.0],[86.604334,34.173321,0.0],[86.604719,34.173322,0.0],[86.605103,34.173377,0.0],[86.605488,34.173378,0.0],[86.606,34.173433,0.0],[86.606449,34.173434,0.0],[86.606898,34.173436,0.0],[86.607282,34.173437,0.0],[86.607667,34.173438,0.0],[86.608052,34.17344,0.0],[86.608372,34.173387,0.0],[86.608757,34.173389,0.0],[86.609078,34.173336,0.0],[86.609526,34.173338,0.0],[86.609847,34.173285,0.0],[86.610168,34.173233,0.0],[86.610552,34.173181,0.0],[86.610937,34.173182,0.0],[86.611258,34.17313,0.0],[86.611578,34.173078,0.0],[86.611899,34.173026,0.0],[86.612284,34.173027,0.0],[86.612605,34.172975,0.0],[86.612925,34.172922,0.0],[86.613246,34.17287,0.0],[86.613695,34.172818,0.0],[86.614016,34.172766,0.0],[86.6144,34.172714,0.0],[86.614721,34.172662,0.0],[86.615106,34.17261,0.0],[86.61549,34.172611,0.0],[86.616004,34.172559,0.0],[86.616517,34.172507,0.0],[86.616837,34.172455,0.0],[86.61735,34.17235,0.0],[86.617671,34.172245,0.0],[86.617992,34.172192,0.0],[86.618313,34.172087,0.0],[86.618413,34.17207,0.0],[86.618358,34.172024,0.0],[86.618292,34.172024,0.0],[86.618158,34.171968,0.0],[86.618092,34.171913,0.0],[86.617893,34.171801,0.0],[86.617826,34.171801,0.0],[86.617759,34.171745,0.0],[86.617693,34.17169,0.0],[86.617627,34.171634,0.0],[86.61756,34.171634,0.0],[86.617493,34.171634,0.0],[86.617494,34.171578,0.0],[86.61736,34.171523,0.0],[86.617294,34.171467,0.0],[86.617227,34.171467,0.0],[86.617161,34.171411,0.0],[86.617094,34.171411,0.0],[86.617028,34.171355,0.0],[86.617028,34.1713,0.0],[86.616895,34.171299,0.0],[86.616895,34.171244,0.0],[86.616828,34.171244,0.0],[86.616762,34.171188,0.0],[86.616695,34.171188,0.0],[86.616695,34.171133,0.0],[86.616562,34.171132,0.0],[86.616562,34.171077,0.0],[86.616496,34.171077,0.0],[86.616496,34.171021,0.0],[86.616296,34.170965,0.0],[86.61623,34.170909,0.0],[86.616097,34.170854,0.0],[86.615964,34.170798,0.0],[86.61583,34.170742,0.0],[86.615697,34.170686,0.0],[86.615631,34.17063,0.0],[86.615365,34.170519,0.0],[86.615298,34.170463,0.0],[86.615165,34.170463,0.0],[86.614966,34.170351,0.0],[86.614899,34.170296,0.0],[86.614766,34.170295,0.0],[86.614632,34.170295,0.0],[86.614566,34.170239,0.0],[86.614499,34.170239,0.0],[86.614433,34.170183,0.0],[86.614366,34.170183,0.0],[86.6143,34.170128,0.0],[86.614167,34.170072,0.0],[86.613967,34.170071,0.0],[86.6139,34.170071,0.0],[86.613767,34.170015,0.0],[86.613634,34.169959,0.0],[86.613567,34.169959,0.0],[86.613501,34.169959,0.0],[86.613367,34.169958,0.0],[86.613367,34.169903,0.0],[86.613168,34.169847,0.0],[86.613101,34.169847,0.0],[86.612901,34.169791,0.0],[86.612835,34.16979,0.0],[86.612635,34.169734,0.0],[86.612568,34.169679,0.0],[86.612502,34.169679,0.0],[86.612368,34.169678,0.0],[86.612235,34.169678,0.0],[86.612169,34.169622,0.0],[86.612102,34.169566,0.0],[86.611969,34.169566,0.0],[86.611836,34.16951,0.0],[86.611769,34.16951,0.0],[86.611636,34.16951,0.0],[86.611436,34.169454,0.0],[86.611303,34.169398,0.0],[86.61117,34.169397,0.0],[86.611103,34.169397,0.0],[86.611037,34.169341,0.0],[86.61097,34.169341,0.0],[86.610837,34.169285,0.0],[86.610703,34.169285,0.0],[86.610637,34.169229,0.0],[86.61057,34.169229,0.0],[86.610437,34.169173,0.0],[86.610371,34.169173,0.0],[86.610304,34.169117,0.0],[86.610104,34.169061,0.0],[86.610038,34.169006,0.0],[86.609905,34.169005,0.0],[86.609639,34.168894,0.0],[86.609505,34.168838,0.0],[86.609372,34.168782,0.0],[86.609172,34.168781,0.0],[86.608973,34.168725,0.0],[86.608839,34.168669,0.0],[86.608706,34.168614,0.0],[86.608573,34.168613,0.0],[86.60844,34.168557,0.0],[86.608373,34.168557,0.0],[86.608307,34.168501,0.0],[86.60824,34.168501,0.0],[86.608174,34.168501,0.0],[86.60804,34.168445,0.0],[86.607974,34.16839,0.0],[86.607841,34.168389,0.0],[86.607708,34.168278,0.0],[86.607575,34.168222,0.0],[86.607441,34.168222,0.0],[86.607308,34.168166,0.0],[86.607242,34.16811,0.0],[86.607109,34.16811,0.0],[86.607042,34.168054,0.0],[86.606976,34.168054,0.0],[86.606909,34.167998,0.0],[86.606842,34.167998,0.0],[86.606843,34.167954,0.0]]]}},{"type":"Feature","properties":{"rgi_id":"RGI2000-v7.0-G-13-60097","o1region":"13"},"geometry":{"type":"Polygon","coordinates":[[[86.619092,34.172697,0.0],[86.619795,34.172247,0.0],[86.619815,34.172164,0.0],[86.620051,34.171904,0.0],[86.620131,34.171579,0.0],[86.620289,34.171319,0.0],[86.620447,34.171059,0.0],[86.620604,34.170799,0.0],[86.620762,34.170539,0.0],[86.620966,34.170315,0.0],[86.620921,34.170084,0.0],[86.620844,34.169693,0.0],[86.620689,34.169432,0.0],[86.620533,34.169171,0.0],[86.620378,34.16891,0.0],[86.620144,34.168649,0.0],[86.619988,34.168388,0.0],[86.619833,34.168127,0.0],[86.619677,34.167866,0.0],[86.619443,34.16767,0.0],[86.619209,34.167474,0.0],[86.618975,34.167278,0.0],[86.618663,34.167081,0.0],[86.618542,34.167031,0.0],[86.61835,34.16695,0.0],[86.618037,34.166819,0.0],[86.617646,34.166688,0.0],[86.617333,34.166556,0.0],[86.616864,34.16649,0.0],[86.616796,34.166478,0.0],[86.616472,34.166423,0.0],[86.616081,34.166292,0.0],[86.61569,34.166161,0.0],[86.615299,34.166029,0.0],[86.614908,34.165963,0.0],[86.614605,34.165836,0.0],[86.614407,34.16578,0.0],[86.614062,34.16575,0.0],[86.613867,34.165706,0.0],[86.613655,34.165763,0.0],[86.612871,34.165891,0.0],[86.612322,34.16602,0.0],[86.61193,34.166084,0.0],[86.611616,34.166213,0.0],[86.611224,34.166342,0.0],[86.61091,34.166471,0.0],[86.610596,34.1666,0.0],[86.61036,34.166795,0.0],[86.610125,34.166989,0.0],[86.60981,34.167184,0.0],[86.609496,34.167378,0.0],[86.609182,34.167507,0.0],[86.608868,34.167637,0.0],[86.60832,34.167635,0.0],[86.607928,34.167764,0.0],[86.607614,34.167893,0.0],[86.607222,34.167892,0.0],[86.606843,34.167954,0.0],[86.606842,34.167998,0.0],[86.606909,34.167998,0.0],[86.606976,34.168054,0.0],[86.607042,34.168054,0.0],[86.607109,34.16811,0.0],[86.607242,34.16811,0.0],[86.607308,34.168166,0.0],[86.607441,34.168222,0.0],[86.607575,34.168222,0.0],[86.607708,34.168278,0.0],[86.607841,34.168389,0.0],[86.607974,34.16839,0.0],[86.60804,34.168445,0.0],[86.608174,34.168501,0.0],[86.60824,34.168501,0.0],[86.608307,34.168501,0.0],[86.608373,34.168557,0.0],[86.60844,34.168557,0.0],[86.608573,34.168613,0.0],[86.608706,34.168614,0.0],[86.608839,34.168669,0.0],[86.608973,34.168725,0.0],[86.609172,34.168781,0.0],[86.609372,34.168782,0.0],[86.609505,34.168838,0.0],[86.609639,34.168894,0.0],[86.609905,34.169005,0.0],[86.610038,34.169006,0.0],[86.610104,34.169061,0.0],[86.610304,34.169117,0.0],[86.610371,34.169173,0.0],[86.610437,34.169173,0.0],[86.61057,34.169229,0.0],[86.610637,34.169229,0.0],[86.610703,34.169285,0.0],[86.610837,34.169285,0.0],[86.61097,34.169341,0.0],[86.611037,34.169341,0.0],[86.611103,34.169397,0.0],[86.61117,34.169397,0.0],[86.611303,34.169398,0.0],[86.611436,34.169454,0.0],[86.611636,34.16951,0.0],[86.611769,34.16951,0.0],[86.611836,34.16951,0.0],[86.611969,34.169566,0.0],[86.612102,34.169566,0.0],[86.612169,34.169622,0.0],[86.612235,34.169678,0.0],[86.612368,34.169678,0.0],[86.612502,34.169679,0.0],[86.612568,34.169679,0.0],[86.612635,34.169734,0.0],[86.612835,34.16979,0.0],[86.612901,34.169791,0.0],[86.613101,34.169847,0.0],[86.613168,34.169847,0.0],[86.613367,34.169903,0.0],[86.613367,34.169958,0.0],[86.613501,34.169959,0.0],[86.613567,34.169959,0.0],[86.613634,34.169959,0.0],[86.613767,34.170015,0.0],[86.6139,34.170071,0.0],[86.613967,34.170071,0.0],[86.614167,34.170072,0.0],[86.6143,34.170128,0.0],[86.614366,34.170183,0.0],[86.614433,34.170183,0.0],[86.614499,34.170239,0.0],[86.614566,34.170239,0.0],[86.614632,34.170295,0.0],[86.614766,34.170295,0.0],[86.614899,34.170296,0.0],[86.614966,34.170351,0.0],[86.615165,34.170463,0.0],[86.615298,34.170463,0.0],[86.615365,34.170519,0.0],[86.615631,34.17063,0.0],[86.615697,34.170686,0.0],[86.61583,34.170742,0.0],[86.615964,34.170798,0.0],[86.616097,34.170854,0.0],[86.61623,34.170909,0.0],[86.616296,34.170965,0.0],[86.616496,34.171021,0.0],[86.616496,34.171077,0.0],[86.616562,34.171077,0.0],[86.616562,34.171132,0.0],[86.616695,34.171133,0.0],[86.616695,34.171188,0.0],[86.616762,34.171188,0.0],[86.616828,34.171244,0.0],[86.616895,34.171244,0.0],[86.616895,34.171299,0.0],[86.617028,34.1713,0.0],[86.617028,34.171355,0.0],[86.617094,34.171411,0.0],[86.617161,34.171411,0.0],[86.617227,34.171467,0.0],[86.617294,34.171467,0.0],[86.61736,34.171523,0.0],[86.617494,34.171578,0.0],[86.617493,34.171634,0.0],[86.61756,34.171634,0.0],[86.617627,34.171634,0.0],[86.617693,34.17169,0.0],[86.617759,34.171745,0.0],[86.617826,34.171801,0.0],[86.617893,34.171801,0.0],[86.618092,34.171913,0.0],[86.618158,34.171968,0.0],[86.618292,34.172024,0.0],[86.618358,34.172024,0.0],[86.618413,34.17207,0.0],[86.618491,34.17208,0.0],[86.618491,34.172136,0.0],[86.618558,34.172136,0.0],[86.618624,34.172191,0.0],[86.618691,34.172192,0.0],[86.618691,34.172247,0.0],[86.618757,34.172247,0.0],[86.618824,34.172248,0.0],[86.619092,34.172697,0.0]]]}},{"type":"Feature","properties":{"rgi_id":"RGI2000-v7.0-G-13-60098","o1region":"13"},"geometry":{"type":"Polygon","coordinates":[[[86.622109,34.153512,0.0],[86.622116,34.153576,0.0],[86.621806,34.154228,0.0],[86.621631,34.154468,0.0],[86.621568,34.154774,0.0],[86.621506,34.15508,0.0],[86.621382,34.155385,0.0],[86.621258,34.155639,0.0],[86.621195,34.155945,0.0],[86.621072,34.156199,0.0],[86.621009,34.156505,0.0],[86.620946,34.15681,0.0],[86.620945,34.157033,0.0],[86.621135,34.157192,0.0],[86.621369,34.157388,0.0],[86.621761,34.157389,0.0],[86.622153,34.157325,0.0],[86.622389,34.157,0.0],[86.622703,34.156806,0.0],[86.622939,34.156611,0.0],[86.623097,34.156351,0.0],[86.623255,34.156091,0.0],[86.623491,34.155832,0.0],[86.623805,34.155572,0.0],[86.624023,34.155482,0.0],[86.623999,34.155378,0.0],[86.623766,34.155118,0.0],[86.623689,34.154793,0.0],[86.623534,34.154533,0.0],[86.623379,34.154273,0.0],[86.623224,34.153948,0.0],[86.623153,34.153798,0.0],[86.62303,34.153747,0.0],[86.622639,34.15368,0.0],[86.622326,34.153549,0.0],[86.622109,34.153512,0.0]]]}},{"type":"Feature","properties":{"rgi_id":"RGI2000-v7.0-G-13-60099","o1region":"13"},"geometry":{"type":"Polygon","coordinates":[[[86.633877,34.160161,0.0],[86.633834,34.159982,0.0],[86.633768,34.159702,0.0],[86.633567,34.159477,0.0],[86.633366,34.159252,0.0],[86.633097,34.159027,0.0],[86.632761,34.158858,0.0],[86.632492,34.158633,0.0],[86.632223,34.158464,0.0],[86.631954,34.158239,0.0],[86.631685,34.15807,0.0],[86.631349,34.157901,0.0],[86.63108,34.157732,0.0],[86.630811,34.157563,0.0],[86.630475,34.157394,0.0],[86.630206,34.157225,0.0],[86.629937,34.157056,0.0],[86.629668,34.156887,0.0],[86.629399,34.156718,0.0],[86.629063,34.156549,0.0],[86.628794,34.15638,0.0],[86.628458,34.156211,0.0],[86.628189,34.156042,0.0],[86.62792,34.155817,0.0],[86.627651,34.155648,0.0],[86.627382,34.155479,0.0],[86.627113,34.15531,0.0],[86.626845,34.155085,0.0],[86.626508,34.154916,0.0],[86.62624,34.154691,0.0],[86.625903,34.154578,0.0],[86.625634,34.154409,0.0],[86.625365,34.15424,0.0],[86.625029,34.154071,0.0],[86.62476,34.153902,0.0],[86.624491,34.153733,0.0],[86.624464,34.153718,0.0],[86.62444,34.153705,0.0],[86.624439,34.153946,0.0],[86.624438,34.154272,0.0],[86.624436,34.154597,0.0],[86.624435,34.154923,0.0],[86.624433,34.155249,0.0],[86.62451,34.155574,0.0],[86.624509,34.1559,0.0],[86.624507,34.156225,0.0],[86.624506,34.156551,0.0],[86.624662,34.156812,0.0],[86.624738,34.157138,0.0],[86.624894,34.157399,0.0],[86.625049,34.157725,0.0],[86.625205,34.157986,0.0],[86.625204,34.158228,0.0],[86.625371,34.158268,0.0],[86.625554,34.158498,0.0],[86.62569,34.158766,0.0],[86.625707,34.15888,0.0],[86.626356,34.158882,0.0],[86.626494,34.159031,0.0],[86.626688,34.159032,0.0],[86.62708,34.159098,0.0],[86.627314,34.159294,0.0],[86.627705,34.159361,0.0],[86.628018,34.159492,0.0],[86.628409,34.159558,0.0],[86.6288,34.15969,0.0],[86.62927,34.159756,0.0],[86.62974,34.159823,0.0],[86.630131,34.159824,0.0],[86.630523,34.15989,0.0],[86.630914,34.159956,0.0],[86.631305,34.160023,0.0],[86.631775,34.160154,0.0],[86.632166,34.160155,0.0],[86.632558,34.160157,0.0],[86.63295,34.160158,0.0],[86.633341,34.160159,0.0],[86.633733,34.16016,0.0],[86.633877,34.160161,0.0]]]}},{"type":"Feature","properties":{"rgi_id":"RGI2000-v7.0-G-13-60100","o1region":"13"},"geometry":{"type":"Polygon","coordinates":[[[86.640387,34.150636,0.0],[86.64025,34.150434,0.0],[86.639892,34.150075,0.0],[86.639427,34.149836,0.0],[86.638962,34.149566,0.0],[86.63846,34.149326,0.0],[86.637959,34.149145,0.0],[86.637421,34.149084,0.0],[86.636847,34.149023,0.0],[86.63631,34.148872,0.0],[86.635736,34.14881,0.0],[86.635199,34.14866,0.0],[86.634661,34.148569,0.0],[86.634087,34.148477,0.0],[86.63355,34.148327,0.0],[86.633012,34.148206,0.0],[86.632438,34.148204,0.0],[86.6319,34.148143,0.0],[86.631399,34.147962,0.0],[86.630861,34.147871,0.0],[86.630571,34.147838,0.0],[86.630502,34.1479,0.0],[86.629927,34.148107,0.0],[86.629352,34.148284,0.0],[86.628885,34.148551,0.0],[86.628346,34.148759,0.0],[86.627878,34.149026,0.0],[86.627375,34.149233,0.0],[86.626908,34.14947,0.0],[86.62644,34.149707,0.0],[86.626401,34.149721,0.0],[86.626229,34.149782,0.0],[86.626101,34.150044,0.0],[86.625943,34.150304,0.0],[86.625863,34.150695,0.0],[86.625628,34.15089,0.0],[86.625392,34.151084,0.0],[86.625156,34.151279,0.0],[86.624998,34.151539,0.0],[86.62484,34.151864,0.0],[86.624604,34.152058,0.0],[86.624524,34.152384,0.0],[86.624367,34.152644,0.0],[86.624365,34.152969,0.0],[86.624364,34.153295,0.0],[86.624441,34.153621,0.0],[86.624464,34.153718,0.0],[86.624491,34.153733,0.0],[86.62476,34.153902,0.0],[86.625029,34.154071,0.0],[86.625365,34.15424,0.0],[86.625634,34.154409,0.0],[86.625903,34.154578,0.0],[86.62624,34.154691,0.0],[86.626508,34.154916,0.0],[86.626845,34.155085,0.0],[86.627113,34.15531,0.0],[86.627382,34.155479,0.0],[86.627651,34.155648,0.0],[86.62792,34.155817,0.0],[86.628189,34.156042,0.0],[86.628458,34.156211,0.0],[86.628794,34.15638,0.0],[86.629063,34.156549,0.0],[86.629399,34.156718,0.0],[86.629668,34.156887,0.0],[86.629937,34.157056,0.0],[86.630206,34.157225,0.0],[86.630475,34.157394,0.0],[86.630811,34.157563,0.0],[86.63108,34.157732,0.0],[86.631349,34.157901,0.0],[86.631685,34.15807,0.0],[86.631954,34.158239,0.0],[86.632223,34.158464,0.0],[86.632492,34.158633,0.0],[86.632761,34.158858,0.0],[86.633097,34.159027,0.0],[86.633366,34.159252,0.0],[86.633567,34.159477,0.0],[86.633768,34.159702,0.0],[86.633834,34.159982,0.0],[86.633877,34.160161,0.0],[86.633901,34.160262,0.0],[86.633832,34.160542,0.0],[86.633808,34.160659,0.0],[86.634006,34.160732,0.0],[86.634047,34.161084,0.0],[86.634092,34.16139,0.0],[86.63409,34.161696,0.0],[86.634089,34.162001,0.0],[86.63418,34.162269,0.0],[86.634501,34.162423,0.0],[86.634776,34.162577,0.0],[86.635079,34.162649,0.0],[86.635327,34.162884,0.0],[86.635362,34.162989,0.0],[86.635417,34.163152,0.0],[86.635508,34.163458,0.0],[86.635599,34.163725,0.0],[86.635874,34.163917,0.0],[86.636195,34.164071,0.0],[86.636516,34.164225,0.0],[86.636791,34.164379,0.0],[86.637112,34.164532,0.0],[86.637248,34.164627,0.0],[86.637502,34.165054,0.0],[86.637497,34.166266,0.0],[86.638078,34.166913,0.0],[86.639045,34.167805,0.0],[86.64118,34.168538,0.0],[86.641969,34.168704,0.0],[86.642182,34.168694,0.0],[86.642685,34.168517,0.0],[86.642778,34.168469,0.0],[86.642834,34.167977,0.0],[86.643126,34.167817,0.0],[86.644971,34.168226,0.0],[86.645227,34.16844,0.0],[86.645291,34.168529,0.0],[86.645367,34.168854,0.0],[86.645759,34.168921,0.0],[86.646151,34.168922,0.0],[86.646542,34.168923,0.0],[86.647012,34.168924,0.0],[86.647483,34.168861,0.0],[86.647874,34.168927,0.0],[86.648266,34.168928,0.0],[86.648501,34.168733,0.0],[86.648649,34.168673,0.0],[86.648815,34.168604,0.0],[86.648973,34.168344,0.0],[86.649131,34.168084,0.0],[86.649211,34.167759,0.0],[86.649368,34.167499,0.0],[86.649604,34.167304,0.0],[86.649865,34.167142,0.0],[86.649883,34.167092,0.0],[86.650022,34.166786,0.0],[86.650207,34.166558,0.0],[86.650323,34.166303,0.0],[86.650313,34.166264,0.0],[86.650158,34.166003,0.0],[86.650159,34.165678,0.0],[86.650004,34.165352,0.0],[86.650005,34.165067,0.0],[86.649707,34.165066,0.0],[86.649524,34.164836,0.0],[86.649663,34.164569,0.0],[86.649848,34.16434,0.0],[86.650095,34.164136,0.0],[86.650125,34.164112,0.0],[86.65031,34.163883,0.0],[86.650403,34.163616,0.0],[86.650312,34.16331,0.0],[86.649991,34.163156,0.0],[86.649964,34.163146,0.0],[86.649966,34.162525,0.0],[86.650086,34.162468,0.0],[86.650124,34.162447,0.0],[86.650016,34.162356,0.0],[86.649861,34.162096,0.0],[86.649705,34.161835,0.0],[86.649628,34.161509,0.0],[86.649629,34.161359,0.0],[86.649603,34.161359,0.0],[86.649454,34.160983,0.0],[86.64907,34.160013,0.0],[86.649073,34.159332,0.0],[86.648733,34.158756,0.0],[86.648763,34.158732,0.0],[86.648601,34.158651,0.0],[86.648281,34.158543,0.0],[86.647962,34.158489,0.0],[86.647642,34.158435,0.0],[86.647322,34.158381,0.0],[86.647002,34.158327,0.0],[86.646683,34.158219,0.0],[86.646575,34.158165,0.0],[86.646489,34.158307,0.0],[86.646162,34.158374,0.0],[86.646034,34.158374,0.0],[86.646011,34.158329,0.0],[86.645875,34.158061,0.0],[86.645784,34.157794,0.0],[86.645509,34.157602,0.0],[86.645315,34.157581,0.0],[86.645283,34.15752,0.0],[86.645258,34.157524,0.0],[86.644944,34.157654,0.0],[86.644631,34.157783,0.0],[86.644239,34.157847,0.0],[86.643925,34.157976,0.0],[86.64361,34.158236,0.0],[86.64314,34.1583,0.0],[86.642826,34.158429,0.0],[86.642575,34.158532,0.0],[86.642512,34.158558,0.0],[86.642198,34.158753,0.0],[86.642,34.158851,0.0],[86.641911,34.158701,0.0],[86.641912,34.15843,0.0],[86.641913,34.158158,0.0],[86.642159,34.157887,0.0],[86.642324,34.157616,0.0],[86.642447,34.157412,0.0],[86.642243,34.157411,0.0],[86.642193,34.157422,0.0],[86.642297,34.157234,0.0],[86.642787,34.156185,0.0],[86.642888,34.155135,0.0],[86.6426,34.154408,0.0],[86.641825,34.15384,0.0],[86.641731,34.153032,0.0],[86.641498,34.152837,0.0],[86.641559,34.152541,0.0],[86.641253,34.152387,0.0],[86.640947,34.152234,0.0],[86.640457,34.152181,0.0],[86.640141,34.152136,0.0],[86.639894,34.151088,0.0],[86.639894,34.150927,0.0],[86.640387,34.150636,0.0]]]}},{"type":"Feature","properties":{"rgi_id":"RGI2000-v7.0-G-13-60101","o1region":"13"},"geometry":{"type":"Polygon","coordinates":[[[86.642618,34.150288,0.0],[86.643282,34.151248,0.0],[86.643525,34.15135,0.0],[86.643831,34.151453,0.0],[86.644075,34.151657,0.0],[86.644381,34.151811,0.0],[86.644687,34.151965,0.0],[86.64469,34.15198,0.0],[86.644956,34.152078,0.0],[86.645506,34.1523,0.0],[86.645546,34.152324,0.0],[86.645911,34.152325,0.0],[86.646279,34.152428,0.0],[86.646585,34.152531,0.0],[86.64689,34.152684,0.0],[86.647196,34.152838,0.0],[86.647502,34.152941,0.0],[86.647624,34.153196,0.0],[86.647624,34.153223,0.0],[86.64807,34.153494,0.0],[86.648497,34.15397,0.0],[86.648007,34.154121,0.0],[86.646579,34.154016,0.0],[86.645603,34.153453,0.0],[86.644464,34.152653,0.0],[86.644035,34.152186,0.0],[86.643829,34.152013,0.0],[86.6436,34.151822,0.0],[86.643402,34.151854,0.0],[86.643011,34.151788,0.0],[86.642619,34.151787,0.0],[86.642228,34.151786,0.0],[86.641758,34.151784,0.0],[86.641639,34.151858,0.0],[86.641944,34.152242,0.0],[86.642219,34.152549,0.0],[86.643088,34.153925,0.0],[86.643162,34.154128,0.0],[86.643454,34.154233,0.0],[86.643775,34.154387,0.0],[86.643774,34.154692,0.0],[86.643635,34.154959,0.0],[86.643634,34.155303,0.0],[86.643588,34.155595,0.0],[86.643699,34.155827,0.0],[86.643854,34.156088,0.0],[86.644167,34.156219,0.0],[86.644637,34.15622,0.0],[86.645185,34.156222,0.0],[86.645655,34.156223,0.0],[86.645975,34.156113,0.0],[86.646297,34.155999,0.0],[86.646619,34.155885,0.0],[86.646803,34.155924,0.0],[86.64717,34.155963,0.0],[86.647538,34.155964,0.0],[86.64786,34.156042,0.0],[86.648021,34.15623,0.0],[86.648475,34.156166,0.0],[86.649102,34.156103,0.0],[86.649285,34.15607,0.0],[86.649286,34.155778,0.0],[86.64933,34.155693,0.0],[86.649425,34.155511,0.0],[86.649747,34.155397,0.0],[86.650068,34.155513,0.0],[86.65048,34.155514,0.0],[86.650902,34.155449,0.0],[86.651416,34.155343,0.0],[86.651539,34.155042,0.0],[86.651662,34.154787,0.0],[86.651969,34.154635,0.0],[86.652276,34.154534,0.0],[86.652645,34.154382,0.0],[86.653012,34.154383,0.0],[86.653381,34.154283,0.0],[86.653748,34.154284,0.0],[86.654116,34.154285,0.0],[86.654484,34.154286,0.0],[86.65479,34.154439,0.0],[86.655109,34.154707,0.0],[86.655569,34.154708,0.0],[86.657639,34.155144,0.0],[86.659574,34.155226,0.0],[86.659907,34.155197,0.0],[86.660275,34.155159,0.0],[86.660689,34.155122,0.0],[86.661057,34.155085,0.0],[86.661379,34.15501,0.0],[86.661795,34.154841,0.0],[86.661954,34.154446,0.0],[86.662112,34.154186,0.0],[86.662192,34.153795,0.0],[86.662349,34.153535,0.0],[86.662057,34.151926,0.0],[86.661886,34.150687,0.0],[86.661994,34.150479,0.0],[86.662133,34.150212,0.0],[86.662272,34.149945,0.0],[86.662365,34.149677,0.0],[86.66209,34.149447,0.0],[86.661769,34.149255,0.0],[86.661737,34.149076,0.0],[86.661633,34.148873,0.0],[86.661496,34.148605,0.0],[86.661406,34.148299,0.0],[86.661315,34.147993,0.0],[86.66127,34.147649,0.0],[86.661134,34.147343,0.0],[86.661043,34.147075,0.0],[86.66081,34.146824,0.0],[86.660497,34.146693,0.0],[86.660263,34.146497,0.0],[86.660029,34.146301,0.0],[86.659777,34.146251,0.0],[86.65945,34.14625,0.0],[86.659123,34.146182,0.0],[86.658797,34.146113,0.0],[86.658471,34.145976,0.0],[86.658226,34.145772,0.0],[86.657982,34.145567,0.0],[86.657738,34.145363,0.0],[86.657494,34.14509,0.0],[86.657331,34.144818,0.0],[86.657087,34.144613,0.0],[86.656843,34.144341,0.0],[86.656599,34.144069,0.0],[86.656355,34.143796,0.0],[86.656029,34.143659,0.0],[86.655702,34.143522,0.0],[86.655419,34.143489,0.0],[86.655027,34.143618,0.0],[86.654479,34.143681,0.0],[86.654009,34.143745,0.0],[86.653617,34.143809,0.0],[86.653303,34.143939,0.0],[86.653067,34.144133,0.0],[86.652753,34.144328,0.0],[86.652544,34.144414,0.0],[86.652228,34.144566,0.0],[86.651953,34.144375,0.0],[86.651816,34.144107,0.0],[86.65147,34.143815,0.0],[86.650896,34.143814,0.0],[86.650426,34.143834,0.0],[86.65025,34.143842,0.0],[86.649712,34.1439,0.0],[86.649173,34.144047,0.0],[86.64867,34.144225,0.0],[86.648167,34.144432,0.0],[86.647937,34.144513,0.0],[86.64774,34.144704,0.0],[86.647582,34.144964,0.0],[86.647188,34.145419,0.0],[86.647031,34.145679,0.0],[86.646873,34.145939,0.0],[86.646637,34.146264,0.0],[86.646479,34.146524,0.0],[86.646243,34.146718,0.0],[86.646085,34.146978,0.0],[86.64585,34.147173,0.0],[86.645655,34.147333,0.0],[86.645525,34.147654,0.0],[86.645094,34.1479,0.0],[86.644995,34.148032,0.0],[86.644707,34.148419,0.0],[86.644454,34.148836,0.0],[86.644058,34.149163,0.0],[86.643769,34.14955,0.0],[86.643373,34.149877,0.0],[86.642941,34.150174,0.0],[86.642618,34.150288,0.0]]]}},{"type":"Feature","properties":{"rgi_id":"RGI2000-v7.0-G-13-60102","o1region":"13"},"geometry":{"type":"Polygon","coordinates":[[[86.650027,34.128272,0.0],[86.649919,34.12845,0.0],[86.649666,34.128867,0.0],[86.649342,34.129254,0.0],[86.649053,34.12967,0.0],[86.648872,34.130117,0.0],[86.647541,34.131217,0.0],[86.64754,34.131247,0.0],[86.647252,34.131664,0.0],[86.64707,34.13214,0.0],[86.646818,34.132557,0.0],[86.646601,34.132974,0.0],[86.646312,34.133421,0.0],[86.645156,34.135356,0.0],[86.645156,34.135386,0.0],[86.644795,34.135773,0.0],[86.644507,34.13616,0.0],[86.644326,34.136606,0.0],[86.644216,34.137083,0.0],[86.644035,34.13753,0.0],[86.643818,34.137947,0.0],[86.643163,34.140153,0.0],[86.643163,34.140182,0.0],[86.643304,34.14066,0.0],[86.643446,34.141108,0.0],[86.643695,34.141526,0.0],[86.643873,34.141974,0.0],[86.644122,34.142392,0.0],[86.644336,34.142811,0.0],[86.644657,34.143199,0.0],[86.644942,34.143588,0.0],[86.645227,34.143976,0.0],[86.645554,34.144072,0.0],[86.645989,34.143883,0.0],[86.646449,34.143598,0.0],[86.646939,34.143313,0.0],[86.647276,34.143479,0.0],[86.647431,34.143596,0.0],[86.647665,34.143792,0.0],[86.647742,34.144118,0.0],[86.647741,34.144444,0.0],[86.647763,34.144575,0.0],[86.647937,34.144513,0.0],[86.648167,34.144432,0.0],[86.64867,34.144225,0.0],[86.649173,34.144047,0.0],[86.649712,34.1439,0.0],[86.65025,34.143842,0.0],[86.650406,34.1438,0.0],[86.650407,34.143474,0.0],[86.65033,34.143149,0.0],[86.649982,34.143031,0.0],[86.649937,34.142726,0.0],[86.650122,34.142497,0.0],[86.650307,34.14223,0.0],[86.650606,34.141923,0.0],[86.650583,34.141581,0.0],[86.650297,34.140247,0.0],[86.650228,34.139278,0.0],[86.650666,34.139097,0.0],[86.65176,34.138797,0.0],[86.651838,34.137525,0.0],[86.651915,34.136496,0.0],[86.652283,34.135588,0.0],[86.652651,34.13456,0.0],[86.653383,34.133714,0.0],[86.653824,34.132867,0.0],[86.654289,34.132623,0.0],[86.654055,34.132415,0.0],[86.653899,34.132155,0.0],[86.653822,34.131829,0.0],[86.653667,34.131568,0.0],[86.653511,34.131307,0.0],[86.653356,34.130916,0.0],[86.653201,34.130655,0.0],[86.653124,34.130329,0.0],[86.652968,34.130068,0.0],[86.652813,34.129742,0.0],[86.652736,34.129416,0.0],[86.652581,34.12909,0.0],[86.65233,34.12896,0.0],[86.652004,34.128892,0.0],[86.651677,34.128823,0.0],[86.651351,34.128618,0.0],[86.651326,34.128597,0.0],[86.651252,34.128597,0.0],[86.650884,34.128596,0.0],[86.650737,34.128612,0.0],[86.650615,34.128561,0.0],[86.650285,34.128423,0.0],[86.650027,34.128272,0.0]]]}},{"type":"Feature","properties":{"rgi_id":"RGI2000-v7.0-G-13-60103","o1region":"13"},"geometry":{"type":"Polygon","coordinates":[[[86.640387,34.150636,0.0],[86.640576,34.150525,0.0],[86.640786,34.150303,0.0],[86.640862,34.150221,0.0],[86.641179,34.150537,0.0],[86.641326,34.150497,0.0],[86.641679,34.15042,0.0],[86.641864,34.15038,0.0],[86.642438,34.150351,0.0],[86.642941,34.150174,0.0],[86.643373,34.149877,0.0],[86.643769,34.14955,0.0],[86.644058,34.149163,0.0],[86.644454,34.148836,0.0],[86.644707,34.148419,0.0],[86.644995,34.148032,0.0],[86.645284,34.147645,0.0],[86.64532,34.147645,0.0],[86.645341,34.147536,0.0],[86.645613,34.146155,0.0],[86.645664,34.146057,0.0],[86.645664,34.146007,0.0],[86.645604,34.145701,0.0],[86.645606,34.145395,0.0],[86.645607,34.14509,0.0],[86.64567,34.144784,0.0],[86.64567,34.144653,0.0],[86.64565,34.144612,0.0],[86.645651,34.14457,0.0],[86.645651,34.144529,0.0],[86.645601,34.144487,0.0],[86.645601,34.144445,0.0],[86.645601,34.144404,0.0],[86.645602,34.144321,0.0],[86.645602,34.144279,0.0],[86.645602,34.144238,0.0],[86.645227,34.143976,0.0],[86.644942,34.143588,0.0],[86.644657,34.143199,0.0],[86.644336,34.142811,0.0],[86.644122,34.142392,0.0],[86.643873,34.141974,0.0],[86.643695,34.141526,0.0],[86.643446,34.141108,0.0],[86.643304,34.14066,0.0],[86.643163,34.140182,0.0],[86.643163,34.140153,0.0],[86.643818,34.137947,0.0],[86.644035,34.13753,0.0],[86.644216,34.137083,0.0],[86.644326,34.136606,0.0],[86.644507,34.13616,0.0],[86.644795,34.135773,0.0],[86.645156,34.135386,0.0],[86.645156,34.135356,0.0],[86.646312,34.133421,0.0],[86.646601,34.132974,0.0],[86.646818,34.132557,0.0],[86.64707,34.13214,0.0],[86.647252,34.131664,0.0],[86.64754,34.131247,0.0],[86.647541,34.131217,0.0],[86.648872,34.130117,0.0],[86.649053,34.12967,0.0],[86.649342,34.129254,0.0],[86.649666,34.128867,0.0],[86.649919,34.12845,0.0],[86.650027,34.128272,0.0],[86.649316,34.127854,0.0],[86.648444,34.127448,0.0],[86.648252,34.126721,0.0],[86.648285,34.126549,0.0],[86.648174,34.126503,0.0],[86.648093,34.126231,0.0],[86.648094,34.125959,0.0],[86.648095,34.125687,0.0],[86.648096,34.125416,0.0],[86.648098,34.125076,0.0],[86.648262,34.124805,0.0],[86.648427,34.124465,0.0],[86.648456,34.124441,0.0],[86.648456,34.124379,0.0],[86.647879,34.123085,0.0],[86.647701,34.122024,0.0],[86.647756,34.121979,0.0],[86.647992,34.121654,0.0],[86.648227,34.12146,0.0],[86.648463,34.1212,0.0],[86.648543,34.120875,0.0],[86.648544,34.120549,0.0],[86.648546,34.120223,0.0],[86.648703,34.119963,0.0],[86.648783,34.119638,0.0],[86.648863,34.119313,0.0],[86.648864,34.118987,0.0],[86.648864,34.118893,0.0],[86.648865,34.118662,0.0],[86.648997,34.11839,0.0],[86.649023,34.118336,0.0],[86.649025,34.118011,0.0],[86.649104,34.117686,0.0],[86.649184,34.11736,0.0],[86.649185,34.117035,0.0],[86.64903,34.116774,0.0],[86.648638,34.116773,0.0],[86.648247,34.116837,0.0],[86.647933,34.116966,0.0],[86.647619,34.11716,0.0],[86.647461,34.11742,0.0],[86.647226,34.117615,0.0],[86.646912,34.117744,0.0],[86.646676,34.117939,0.0],[86.646519,34.118199,0.0],[86.646283,34.118394,0.0],[86.646125,34.118654,0.0],[86.645968,34.118914,0.0],[86.64581,34.119174,0.0],[86.645574,34.119434,0.0],[86.645338,34.119693,0.0],[86.645216,34.119945,0.0],[86.644489,34.120894,0.0],[86.643224,34.121618,0.0],[86.642731,34.123151,0.0],[86.641657,34.124682,0.0],[86.640783,34.124812,0.0],[86.640461,34.125018,0.0],[86.640148,34.125148,0.0],[86.639756,34.125147,0.0],[86.639365,34.125145,0.0],[86.638895,34.125144,0.0],[86.638503,34.125143,0.0],[86.638034,34.125142,0.0],[86.637721,34.12501,0.0],[86.63733,34.124879,0.0],[86.637017,34.124748,0.0],[86.636783,34.124552,0.0],[86.636549,34.124356,0.0],[86.636237,34.124225,0.0],[86.636003,34.124029,0.0],[86.63569,34.123897,0.0],[86.635378,34.123701,0.0],[86.634987,34.123635,0.0],[86.634595,34.123569,0.0],[86.634204,34.123567,0.0],[86.633813,34.123436,0.0],[86.633422,34.123435,0.0],[86.63303,34.123434,0.0],[86.632639,34.123433,0.0],[86.632247,34.123431,0.0],[86.631856,34.12343,0.0],[86.631385,34.123559,0.0],[86.631072,34.123688,0.0],[86.630602,34.123687,0.0],[86.630132,34.123686,0.0],[86.629896,34.12388,0.0],[86.629661,34.124075,0.0],[86.629425,34.124269,0.0],[86.629189,34.124464,0.0],[86.628797,34.124593,0.0],[86.628406,34.124592,0.0],[86.628014,34.124721,0.0],[86.627622,34.124785,0.0],[86.627308,34.124914,0.0],[86.626994,34.125043,0.0],[86.626681,34.125173,0.0],[86.626367,34.125302,0.0],[86.626131,34.125497,0.0],[86.62613,34.125822,0.0],[86.625816,34.126017,0.0],[86.625658,34.126277,0.0],[86.625422,34.126471,0.0],[86.625186,34.126666,0.0],[86.624951,34.12686,0.0],[86.624637,34.12699,0.0],[86.624401,34.127184,0.0],[86.624165,34.127379,0.0],[86.62393,34.127574,0.0],[86.623694,34.127768,0.0],[86.623597,34.127927,0.0],[86.623536,34.128028,0.0],[86.623378,34.128288,0.0],[86.623095,34.128405,0.0],[86.623065,34.128417,0.0],[86.622829,34.128612,0.0],[86.622359,34.128676,0.0],[86.621967,34.128674,0.0],[86.621575,34.128738,0.0],[86.621184,34.128737,0.0],[86.621079,34.128737,0.0],[86.620705,34.129101,0.0],[86.620264,34.129963,0.0],[86.620097,34.13069,0.0],[86.620038,34.131598,0.0],[86.61998,34.131662,0.0],[86.619996,34.131729,0.0],[86.619995,34.132054,0.0],[86.619993,34.13238,0.0],[86.619992,34.132705,0.0],[86.619756,34.1329,0.0],[86.61952,34.13316,0.0],[86.619362,34.13342,0.0],[86.619352,34.133437,0.0],[86.619386,34.133551,0.0],[86.619384,34.133822,0.0],[86.619383,34.134094,0.0],[86.619382,34.134366,0.0],[86.619217,34.134637,0.0],[86.619053,34.134908,0.0],[86.618806,34.135179,0.0],[86.618642,34.13545,0.0],[86.618314,34.135653,0.0],[86.618068,34.135856,0.0],[86.61774,34.136059,0.0],[86.617413,34.136126,0.0],[86.617314,34.136126,0.0],[86.617314,34.136148,0.0],[86.617156,34.136408,0.0],[86.616998,34.136668,0.0],[86.616762,34.136928,0.0],[86.616604,34.137188,0.0],[86.61629,34.137382,0.0],[86.616132,34.137642,0.0],[86.615741,34.137641,0.0],[86.615349,34.137705,0.0],[86.614899,34.13789,0.0],[86.614874,34.137942,0.0],[86.614871,34.138624,0.0],[86.614927,34.138862,0.0],[86.615086,34.138915,0.0],[86.615405,34.139022,0.0],[86.615724,34.139183,0.0],[86.615979,34.139397,0.0],[86.616234,34.13961,0.0],[86.616425,34.139877,0.0],[86.616552,34.140143,0.0],[86.616615,34.14041,0.0],[86.616742,34.140676,0.0],[86.616804,34.140942,0.0],[86.616864,34.141067,0.0],[86.617044,34.141088,0.0],[86.617581,34.141149,0.0],[86.618119,34.1413,0.0],[86.618656,34.141481,0.0],[86.619193,34.141661,0.0],[86.619767,34.141812,0.0],[86.620304,34.141963,0.0],[86.620841,34.142144,0.0],[86.621379,34.142205,0.0],[86.621917,34.142386,0.0],[86.622454,34.142566,0.0],[86.622955,34.142777,0.0],[86.623492,34.142987,0.0],[86.62403,34.143138,0.0],[86.625675,34.144306,0.0],[86.625746,34.144336,0.0],[86.626139,34.144695,0.0],[86.626569,34.144995,0.0],[86.626998,34.145294,0.0],[86.627533,34.145893,0.0],[86.627962,34.146192,0.0],[86.629431,34.146763,0.0],[86.629467,34.146793,0.0],[86.629824,34.147152,0.0],[86.630145,34.147541,0.0],[86.630586,34.147825,0.0],[86.630571,34.147838,0.0],[86.630861,34.147871,0.0],[86.631399,34.147962,0.0],[86.6319,34.148143,0.0],[86.632438,34.148204,0.0],[86.633012,34.148206,0.0],[86.63355,34.148327,0.0],[86.634087,34.148477,0.0],[86.634661,34.148569,0.0],[86.635199,34.14866,0.0],[86.635736,34.14881,0.0],[86.63631,34.148872,0.0],[86.636847,34.149023,0.0],[86.637421,34.149084,0.0],[86.637959,34.149145,0.0],[86.63846,34.149326,0.0],[86.638962,34.149566,0.0],[86.639427,34.149836,0.0],[86.639892,34.150075,0.0],[86.64025,34.150434,0.0],[86.640387,34.150636,0.0]]]}},{"type":"Feature","properties":{"rgi_id":"RGI2000-v7.0-G-13-60104","o1region":"13"},"geometry":{"type":"Polygon","coordinates":[[[86.617133,34.141487,0.0],[86.617132,34.141813,0.0],[86.617052,34.142138,0.0],[86.616894,34.142398,0.0],[86.616736,34.142658,0.0],[86.616578,34.142918,0.0],[86.616421,34.143178,0.0],[86.616281,34.143407,0.0],[86.616281,34.143495,0.0],[86.616216,34.143761,0.0],[86.616214,34.14408,0.0],[86.616213,34.144399,0.0],[86.616112,34.144607,0.0],[86.616257,34.144675,0.0],[86.61657,34.144806,0.0],[86.616961,34.144937,0.0],[86.617274,34.145069,0.0],[86.617665,34.145135,0.0],[86.61782,34.145396,0.0],[86.617662,34.145721,0.0],[86.617504,34.145981,0.0],[86.617503,34.146372,0.0],[86.617516,34.14643,0.0],[86.61758,34.146697,0.0],[86.617735,34.146958,0.0],[86.617655,34.147284,0.0],[86.617575,34.147609,0.0],[86.617418,34.147869,0.0],[86.617416,34.148195,0.0],[86.617473,34.148289,0.0],[86.617572,34.148455,0.0],[86.617806,34.148652,0.0],[86.618197,34.148653,0.0],[86.618529,34.148599,0.0],[86.618823,34.148763,0.0],[86.62067,34.148527,0.0],[86.621645,34.147641,0.0],[86.6232,34.147565,0.0],[86.623445,34.147629,0.0],[86.623841,34.147628,0.0],[86.62431,34.147695,0.0],[86.624702,34.147696,0.0],[86.624737,34.147708,0.0],[86.625015,34.147632,0.0],[86.625408,34.147503,0.0],[86.625799,34.147504,0.0],[86.626112,34.147635,0.0],[86.626346,34.147831,0.0],[86.626423,34.148157,0.0],[86.626421,34.148483,0.0],[86.626342,34.148808,0.0],[86.626262,34.149133,0.0],[86.626339,34.149459,0.0],[86.626401,34.149721,0.0],[86.62644,34.149707,0.0],[86.626908,34.14947,0.0],[86.627375,34.149233,0.0],[86.627878,34.149026,0.0],[86.628346,34.148759,0.0],[86.628885,34.148551,0.0],[86.629352,34.148284,0.0],[86.629927,34.148107,0.0],[86.630502,34.1479,0.0],[86.630571,34.147838,0.0],[86.630586,34.147825,0.0],[86.630145,34.147541,0.0],[86.629824,34.147152,0.0],[86.629467,34.146793,0.0],[86.629431,34.146763,0.0],[86.627962,34.146192,0.0],[86.627533,34.145893,0.0],[86.626998,34.145294,0.0],[86.626569,34.144995,0.0],[86.626139,34.144695,0.0],[86.625746,34.144336,0.0],[86.625675,34.144306,0.0],[86.62403,34.143138,0.0],[86.623492,34.142987,0.0],[86.622955,34.142777,0.0],[86.622454,34.142566,0.0],[86.621917,34.142386,0.0],[86.621379,34.142205,0.0],[86.620841,34.142144,0.0],[86.620304,34.141963,0.0],[86.619767,34.141812,0.0],[86.619193,34.141661,0.0],[86.618656,34.141481,0.0],[86.618119,34.1413,0.0],[86.617581,34.141149,0.0],[86.61705709305085,34.141089487292554,0.0],[86.617057,34.141089,0.0],[86.617133,34.141487,0.0]]]}},{"type":"Feature","properties":{"rgi_id":"RGI2000-v7.0-G-13-60105","o1region":"13"},"geometry":{"type":"Polygon","coordinates":[[[86.620064,34.178172,0.0],[86.620131,34.178237,0.0],[86.62013,34.178292,0.0],[86.620197,34.178292,0.0],[86.620197,34.178348,0.0],[86.620263,34.178348,0.0],[86.620397,34.178404,0.0],[86.620463,34.178404,0.0],[86.62053,34.178404,0.0],[86.620597,34.178404,0.0],[86.620729,34.178516,0.0],[86.620796,34.178516,0.0],[86.620863,34.178516,0.0],[86.620929,34.178572,0.0],[86.620996,34.178627,0.0],[86.621062,34.178627,0.0],[86.621129,34.178683,0.0],[86.621262,34.178739,0.0],[86.621262,34.178794,0.0],[86.621328,34.178794,0.0],[86.621395,34.178795,0.0],[86.621461,34.17885,0.0],[86.621595,34.178906,0.0],[86.621594,34.178962,0.0],[86.621727,34.179017,0.0],[86.621794,34.179073,0.0],[86.621927,34.179129,0.0],[86.621927,34.179184,0.0],[86.62206,34.17924,0.0],[86.622126,34.179296,0.0],[86.622193,34.179351,0.0],[86.622259,34.179407,0.0],[86.622325,34.179463,0.0],[86.622392,34.179518,0.0],[86.622525,34.179574,0.0],[86.622592,34.179574,0.0],[86.622591,34.17963,0.0],[86.622658,34.17963,0.0],[86.622658,34.179685,0.0],[86.622658,34.179741,0.0],[86.622724,34.179741,0.0],[86.622724,34.179796,0.0],[86.622791,34.179796,0.0],[86.622857,34.179852,0.0],[86.622857,34.179907,0.0],[86.622924,34.179908,0.0],[86.622923,34.179963,0.0],[86.62299,34.179963,0.0],[86.623057,34.179964,0.0],[86.623056,34.180019,0.0],[86.623123,34.180019,0.0],[86.623123,34.180075,0.0],[86.623189,34.18013,0.0],[86.623322,34.180186,0.0],[86.623389,34.180186,0.0],[86.623389,34.180242,0.0],[86.623455,34.180297,0.0],[86.623522,34.180297,0.0],[86.623655,34.180353,0.0],[86.623655,34.180409,0.0],[86.623788,34.180465,0.0],[86.623788,34.18052,0.0],[86.623787,34.180575,0.0],[86.623854,34.180576,0.0],[86.623921,34.180631,0.0],[86.623987,34.180631,0.0],[86.623987,34.180687,0.0],[86.624054,34.180687,0.0],[86.62412,34.180687,0.0],[86.62412,34.180743,0.0],[86.624187,34.180743,0.0],[86.624254,34.180743,0.0],[86.624253,34.180798,0.0],[86.62432,34.180799,0.0],[86.624387,34.180799,0.0],[86.624386,34.180854,0.0],[86.624453,34.180854,0.0],[86.62452,34.180855,0.0],[86.624586,34.18091,0.0],[86.624653,34.180966,0.0],[86.624719,34.180966,0.0],[86.624719,34.181022,0.0],[86.624786,34.181022,0.0],[86.624852,34.181077,0.0],[86.624919,34.181078,0.0],[86.624985,34.181133,0.0],[86.625052,34.181189,0.0],[86.625118,34.181189,0.0],[86.625185,34.181245,0.0],[86.625251,34.1813,0.0],[86.625318,34.181356,0.0],[86.625384,34.181356,0.0],[86.625384,34.181411,0.0],[86.625451,34.181467,0.0],[86.62545,34.181523,0.0],[86.625517,34.181523,0.0],[86.625517,34.181578,0.0],[86.625583,34.181578,0.0],[86.625583,34.181634,0.0],[86.62565,34.181634,0.0],[86.62565,34.181689,0.0],[86.625649,34.181745,0.0],[86.625716,34.181745,0.0],[86.625716,34.1818,0.0],[86.625782,34.181911,0.0],[86.625849,34.181912,0.0],[86.625848,34.182022,0.0],[86.625915,34.182023,0.0],[86.625981,34.182078,0.0],[86.625981,34.182189,0.0],[86.626047,34.182189,0.0],[86.626047,34.1823,0.0],[86.62618,34.182301,0.0],[86.62618,34.182356,0.0],[86.62618,34.182411,0.0],[86.626246,34.182522,0.0],[86.626379,34.182523,0.0],[86.626379,34.182634,0.0],[86.626445,34.182689,0.0],[86.626512,34.1828,0.0],[86.626578,34.182911,0.0],[86.626644,34.182967,0.0],[86.62668,34.183027,0.0],[86.62683,34.182903,0.0],[86.626867,34.182851,0.0],[86.626922,34.182906,0.0],[86.627956,34.182429,0.0],[86.63009,34.181845,0.0],[86.632497,34.181444,0.0],[86.634303,34.180995,0.0],[86.636163,34.180728,0.0],[86.638021,34.18096,0.0],[86.639439,34.181737,0.0],[86.641181,34.183287,0.0],[86.642215,34.184471,0.0],[86.643086,34.185337,0.0],[86.644122,34.186066,0.0],[86.64467,34.185568,0.0],[86.644622,34.184069,0.0],[86.644194,34.181978,0.0],[86.643597,34.18084,0.0],[86.642673,34.179475,0.0],[86.642588,34.179335,0.0],[86.642425,34.179199,0.0],[86.642191,34.178938,0.0],[86.641879,34.178611,0.0],[86.641567,34.178285,0.0],[86.641412,34.178024,0.0],[86.641256,34.177763,0.0],[86.641101,34.177502,0.0],[86.640945,34.177241,0.0],[86.64079,34.17698,0.0],[86.640752,34.176917,0.0],[86.640063,34.176241,0.0],[86.637337,34.174819,0.0],[86.636882,34.174755,0.0],[86.636334,34.174688,0.0],[86.635942,34.174622,0.0],[86.63563,34.174491,0.0],[86.635238,34.174359,0.0],[86.634847,34.174228,0.0],[86.634456,34.174162,0.0],[86.634341,34.174113,0.0],[86.634143,34.174031,0.0],[86.633989,34.174004,0.0],[86.633752,34.173964,0.0],[86.633517,34.173768,0.0],[86.633126,34.173702,0.0],[86.632813,34.173506,0.0],[86.632501,34.173375,0.0],[86.632458,34.173303,0.0],[86.632337,34.173303,0.0],[86.632031,34.1732,0.0],[86.631971,34.172894,0.0],[86.631971,34.172748,0.0],[86.631876,34.172787,0.0],[86.631484,34.172916,0.0],[86.63117,34.173045,0.0],[86.630856,34.173174,0.0],[86.630465,34.173173,0.0],[86.630073,34.173107,0.0],[86.629839,34.172911,0.0],[86.629815,34.17287,0.0],[86.629797,34.172884,0.0],[86.629126,34.172664,0.0],[86.62903,34.172529,0.0],[86.628847,34.172274,0.0],[86.628602,34.172069,0.0],[86.628358,34.171864,0.0],[86.628114,34.17166,0.0],[86.627808,34.171557,0.0],[86.62744,34.171454,0.0],[86.627135,34.1713,0.0],[86.626829,34.171146,0.0],[86.626769,34.17084,0.0],[86.626586,34.170585,0.0],[86.626342,34.170381,0.0],[86.626036,34.170278,0.0],[86.625668,34.170277,0.0],[86.625409,34.170276,0.0],[86.625306,34.170488,0.0],[86.625148,34.170748,0.0],[86.625147,34.171073,0.0],[86.625145,34.171399,0.0],[86.625301,34.17166,0.0],[86.625535,34.171856,0.0],[86.625455,34.172181,0.0],[86.625064,34.172115,0.0],[86.624672,34.172049,0.0],[86.624203,34.171982,0.0],[86.62389,34.171786,0.0],[86.623577,34.171655,0.0],[86.623265,34.171523,0.0],[86.622873,34.171457,0.0],[86.62256,34.171456,0.0],[86.622169,34.171325,0.0],[86.622129,34.171156,0.0],[86.622092,34.170999,0.0],[86.621858,34.170803,0.0],[86.621624,34.170607,0.0],[86.62131,34.170736,0.0],[86.621152,34.170996,0.0],[86.621072,34.171321,0.0],[86.620997,34.171475,0.0],[86.619795,34.172247,0.0],[86.619092,34.172697,0.0],[86.619552,34.173469,0.0],[86.619552,34.173524,0.0],[86.619551,34.17358,0.0],[86.619551,34.173635,0.0],[86.61955,34.173801,0.0],[86.61955,34.173912,0.0],[86.61955,34.173968,0.0],[86.619549,34.174134,0.0],[86.619549,34.174189,0.0],[86.619548,34.1743,0.0],[86.619548,34.174411,0.0],[86.619547,34.174466,0.0],[86.619547,34.174577,0.0],[86.619547,34.174633,0.0],[86.619546,34.174744,0.0],[86.619546,34.174799,0.0],[86.619546,34.174854,0.0],[86.619545,34.17491,0.0],[86.619545,34.174965,0.0],[86.619545,34.175021,0.0],[86.619545,34.175076,0.0],[86.619544,34.175131,0.0],[86.619544,34.175187,0.0],[86.619544,34.175298,0.0],[86.619543,34.175409,0.0],[86.619543,34.175464,0.0],[86.619543,34.175519,0.0],[86.619542,34.175575,0.0],[86.619542,34.175686,0.0],[86.619542,34.175741,0.0],[86.619541,34.175796,0.0],[86.619541,34.175852,0.0],[86.619541,34.175907,0.0],[86.619541,34.175963,0.0],[86.61954,34.176073,0.0],[86.61954,34.176129,0.0],[86.61954,34.176184,0.0],[86.619539,34.176351,0.0],[86.619539,34.176406,0.0],[86.619605,34.176517,0.0],[86.619671,34.176628,0.0],[86.619671,34.176739,0.0],[86.619737,34.17685,0.0],[86.619737,34.17687,0.0],[86.619736,34.176905,0.0],[86.619736,34.177072,0.0],[86.619735,34.177182,0.0],[86.619735,34.177238,0.0],[86.619735,34.177349,0.0],[86.619801,34.17746,0.0],[86.6198,34.177626,0.0],[86.619866,34.177682,0.0],[86.619933,34.177793,0.0],[86.619932,34.177903,0.0],[86.619932,34.177959,0.0],[86.619998,34.178014,0.0],[86.619998,34.17807,0.0],[86.619998,34.178125,0.0],[86.620064,34.178126,0.0],[86.620064,34.178172,0.0]]]}},{"type":"Feature","properties":{"rgi_id":"RGI2000-v7.0-G-13-60106","o1region":"13"},"geometry":{"type":"Polygon","coordinates":[[[86.66203,34.164712,0.0],[86.662029,34.164929,0.0],[86.662147,34.16506,0.0],[86.662381,34.165256,0.0],[86.662471,34.165356,0.0],[86.662487,34.165325,0.0],[86.662626,34.165058,0.0],[86.662719,34.164791,0.0],[86.662812,34.164523,0.0],[86.662951,34.164256,0.0],[86.663044,34.163989,0.0],[86.663271,34.162266,0.0],[86.662863,34.162262,0.0],[86.662393,34.162261,0.0],[86.662001,34.16226,0.0],[86.661875,34.162239,0.0],[86.661855,34.162304,0.0],[86.661808,34.16261,0.0],[86.661807,34.162916,0.0],[86.661806,34.163221,0.0],[86.66185,34.163527,0.0],[86.661941,34.163795,0.0],[86.662032,34.164063,0.0],[86.662031,34.164407,0.0],[86.66203,34.164712,0.0]]]}},{"type":"Feature","properties":{"rgi_id":"RGI2000-v7.0-G-13-60107","o1region":"13"},"geometry":{"type":"Polygon","coordinates":[[[86.621121,34.22181,0.0],[86.621473,34.221811,0.0],[86.621944,34.221813,0.0],[86.622335,34.221879,0.0],[86.622727,34.22188,0.0],[86.62304,34.222012,0.0],[86.623353,34.222143,0.0],[86.623745,34.222209,0.0],[86.624057,34.222405,0.0],[86.624292,34.222601,0.0],[86.624605,34.222733,0.0],[86.624701,34.222894,0.0],[86.624921,34.222947,0.0],[86.625196,34.223139,0.0],[86.625425,34.223369,0.0],[86.625562,34.223675,0.0],[86.625837,34.223829,0.0],[86.626159,34.223982,0.0],[86.626434,34.224136,0.0],[86.626755,34.22429,0.0],[86.627031,34.224444,0.0],[86.627352,34.224597,0.0],[86.627444,34.224674,0.0],[86.627858,34.224675,0.0],[86.628226,34.224715,0.0],[86.628548,34.224792,0.0],[86.628916,34.224793,0.0],[86.629284,34.224756,0.0],[86.629469,34.224489,0.0],[86.62947,34.224184,0.0],[86.629287,34.223954,0.0],[86.629104,34.223724,0.0],[86.629001,34.223594,0.0],[86.629013,34.223571,0.0],[86.628968,34.223265,0.0],[86.62897,34.222959,0.0],[86.628971,34.222615,0.0],[86.628972,34.222309,0.0],[86.628974,34.222004,0.0],[86.628883,34.221698,0.0],[86.628746,34.22143,0.0],[86.628563,34.221162,0.0],[86.628381,34.220894,0.0],[86.628335,34.220817,0.0],[86.62829,34.220473,0.0],[86.628292,34.220167,0.0],[86.628339,34.219862,0.0],[86.628478,34.219595,0.0],[86.628526,34.219251,0.0],[86.628527,34.218945,0.0],[86.62839,34.218677,0.0],[86.628251,34.218502,0.0],[86.628125,34.218442,0.0],[86.627837,34.218241,0.0],[86.627549,34.21804,0.0],[86.62731,34.21784,0.0],[86.62707,34.217639,0.0],[86.626782,34.217479,0.0],[86.626494,34.217278,0.0],[86.626158,34.217157,0.0],[86.625822,34.217036,0.0],[86.625438,34.216875,0.0],[86.625071,34.216772,0.0],[86.624856,34.216794,0.0],[86.624534,34.216869,0.0],[86.624166,34.216983,0.0],[86.623843,34.217058,0.0],[86.623521,34.217134,0.0],[86.623199,34.217209,0.0],[86.62283,34.217246,0.0],[86.622508,34.217398,0.0],[86.622231,34.21755,0.0],[86.621908,34.217664,0.0],[86.621724,34.217847,0.0],[86.621568,34.218231,0.0],[86.621409,34.218686,0.0],[86.621329,34.219011,0.0],[86.621249,34.219402,0.0],[86.621091,34.219662,0.0],[86.620855,34.219856,0.0],[86.620745,34.219856,0.0],[86.620759,34.219897,0.0],[86.620854,34.220177,0.0],[86.620949,34.220497,0.0],[86.620996,34.220777,0.0],[86.621042,34.221057,0.0],[86.621041,34.221337,0.0],[86.621088,34.221617,0.0],[86.621121,34.22181,0.0]]]}},{"type":"Feature","properties":{"rgi_id":"RGI2000-v7.0-G-13-60108","o1region":"13"},"geometry":{"type":"Polygon","coordinates":[[[86.620745,34.219856,0.0],[86.620664,34.219618,0.0],[86.620569,34.219338,0.0],[86.620528,34.219057,0.0],[86.620338,34.219188,0.0],[86.620015,34.219339,0.0],[86.619646,34.219415,0.0],[86.619232,34.219413,0.0],[86.619058,34.219371,0.0],[86.618726,34.21945,0.0],[86.618358,34.219525,0.0],[86.61799,34.219562,0.0],[86.617621,34.219638,0.0],[86.617253,34.219713,0.0],[86.616885,34.21975,0.0],[86.616562,34.219902,0.0],[86.61624,34.219977,0.0],[86.615871,34.220053,0.0],[86.615549,34.220128,0.0],[86.615226,34.220242,0.0],[86.614904,34.220355,0.0],[86.614627,34.220507,0.0],[86.614305,34.220621,0.0],[86.614032,34.220717,0.0],[86.614031,34.220942,0.0],[86.614029,34.221267,0.0],[86.613949,34.221593,0.0],[86.613948,34.221918,0.0],[86.613946,34.222244,0.0],[86.613945,34.222569,0.0],[86.613943,34.22296,0.0],[86.614099,34.223221,0.0],[86.614254,34.223482,0.0],[86.614409,34.223742,0.0],[86.614428,34.223755,0.0],[86.614703,34.223947,0.0],[86.614979,34.224139,0.0],[86.6153,34.224255,0.0],[86.615575,34.224408,0.0],[86.615851,34.224562,0.0],[86.616126,34.224716,0.0],[86.616448,34.224831,0.0],[86.616816,34.224832,0.0],[86.617184,34.224795,0.0],[86.617461,34.224643,0.0],[86.617464,34.224404,0.0],[86.617465,34.224078,0.0],[86.617467,34.223752,0.0],[86.61739,34.223427,0.0],[86.617391,34.223101,0.0],[86.617549,34.222841,0.0],[86.617941,34.222842,0.0],[86.618189,34.222884,0.0],[86.618205,34.22285,0.0],[86.618573,34.222774,0.0],[86.618941,34.222814,0.0],[86.619355,34.222853,0.0],[86.619677,34.222931,0.0],[86.61986,34.22316,0.0],[86.620089,34.22339,0.0],[86.620295,34.223429,0.0],[86.620502,34.22343,0.0],[86.620688,34.223201,0.0],[86.620781,34.222934,0.0],[86.620782,34.222628,0.0],[86.620875,34.222323,0.0],[86.621015,34.222056,0.0],[86.621152,34.222014,0.0],[86.621135,34.221896,0.0],[86.621121,34.22181,0.0],[86.621088,34.221617,0.0],[86.621041,34.221337,0.0],[86.621042,34.221057,0.0],[86.620996,34.220777,0.0],[86.620949,34.220497,0.0],[86.620854,34.220177,0.0],[86.620759,34.219897,0.0],[86.620745,34.219856,0.0]]]}}]}
