{"type":"FeatureCollection","features":[{"type":"Feature","properties":{"rgi_id":"RGI2000-v7.0-G-12-01245","o1region":"12"},"geometry":{"type":"Polygon","coordinates":[[[41.816073,42.988819,0.0],[41.816025,42.988911,0.0],[41.816053,42.989241,0.0],[41.816055,42.989266,0.0],[41.816076,42.989304,0.0],[41.81615,42.98944,0.0],[41.816273,42.989577,0.0],[41.816464,42.989649,0.0],[41.816617,42.989691,0.0],[41.816733,42.989723,0.0],[41.816734,42.989724,0.0],[41.816742,42.989723,0.0],[41.816935,42.989743,0.0],[41.817106,42.989833,0.0],[41.817214,42.990008,0.0],[41.81726,42.990252,0.0],[41.817292,42.990367,0.0],[41.81741,42.990526,0.0],[41.817534,42.990589,0.0],[41.817726,42.990651,0.0],[41.817812,42.990646,0.0],[41.817901,42.990642,0.0],[41.81804,42.990603,0.0],[41.81818,42.990535,0.0],[41.818198,42.990517,0.0],[41.818323,42.990396,0.0],[41.818526,42.990245,0.0],[41.818549,42.990217,0.0],[41.818586,42.990022,0.0],[41.818595,42.989851,0.0],[41.818604,42.98968,0.0],[41.818574,42.989517,0.0],[41.818425,42.98937,0.0],[41.818275,42.989261,0.0],[41.818189,42.989163,0.0],[41.818188,42.989158,0.0],[41.818144,42.989038,0.0],[41.818072,42.988931,0.0],[41.818068,42.988929,0.0],[41.817909,42.988812,0.0],[41.817718,42.98874,0.0],[41.817537,42.988726,0.0],[41.817407,42.988722,0.0],[41.817225,42.988736,0.0],[41.817108,42.988733,0.0],[41.817058,42.988713,0.0],[41.816969,42.988677,0.0],[41.816956,42.988671,0.0],[41.816802,42.988639,0.0],[41.816634,42.988624,0.0],[41.816478,42.988629,0.0],[41.816306,42.988682,0.0],[41.816187,42.988736,0.0],[41.816115,42.988781,0.0],[41.816073,42.988819,0.0]]]}},{"type":"Feature","properties":{"rgi_id":"RGI2000-v7.0-G-12-01246","o1region":"12"},"geometry":{"type":"Polygon","coordinates":[[[41.823185,42.988714,0.0],[41.823377,42.988826,0.0],[41.823468,42.988864,0.0],[41.823847,42.989056,0.0],[41.823983,42.989203,0.0],[41.824183,42.989351,0.0],[41.824398,42.989462,0.0],[41.824565,42.989495,0.0],[41.824695,42.989489,0.0],[41.824775,42.989453,0.0],[41.824883,42.989361,0.0],[41.824984,42.989164,0.0],[41.825012,42.989069,0.0],[41.824963,42.988946,0.0],[41.824839,42.988824,0.0],[41.824665,42.988748,0.0],[41.824493,42.988612,0.0],[41.824371,42.988465,0.0],[41.824366,42.988251,0.0],[41.82441,42.988026,0.0],[41.824421,42.987812,0.0],[41.824338,42.987609,0.0],[41.824288,42.98758,0.0],[41.824137,42.987499,0.0],[41.823929,42.987493,0.0],[41.823592,42.987503,0.0],[41.823471,42.987549,0.0],[41.823391,42.987595,0.0],[41.82317,42.987836,0.0],[41.823059,42.987986,0.0],[41.822997,42.988184,0.0],[41.823015,42.988337,0.0],[41.823071,42.988501,0.0],[41.823185,42.988714,0.0]]]}},{"type":"Feature","properties":{"rgi_id":"RGI2000-v7.0-G-12-01247","o1region":"12"},"geometry":{"type":"Polygon","coordinates":[[[41.830804,42.98959,0.0],[41.830797,42.989718,0.0],[41.830802,42.989811,0.0],[41.830881,42.989978,0.0],[41.831001,42.990103,0.0],[41.831102,42.99022,0.0],[41.831283,42.990311,0.0],[41.83151,42.990424,0.0],[41.831722,42.99048,0.0],[41.83203,42.990546,0.0],[41.832371,42.990581,0.0],[41.832584,42.990561,0.0],[41.832732,42.990529,0.0],[41.832891,42.990462,0.0],[41.832973,42.990372,0.0],[41.832988,42.990279,0.0],[41.832995,42.990144,0.0],[41.832936,42.989963,0.0],[41.832898,42.989762,0.0],[41.832907,42.989584,0.0],[41.832936,42.989382,0.0],[41.832892,42.989304,0.0],[41.832782,42.98918,0.0],[41.832639,42.989105,0.0],[41.832411,42.988998,0.0],[41.832326,42.988946,0.0],[41.832257,42.988787,0.0],[41.832197,42.988628,0.0],[41.832086,42.98851,0.0],[41.831971,42.988479,0.0],[41.831795,42.988488,0.0],[41.831675,42.988549,0.0],[41.831492,42.988616,0.0],[41.831435,42.988678,0.0],[41.831215,42.988779,0.0],[41.831084,42.988868,0.0],[41.831,42.988995,0.0],[41.830933,42.98915,0.0],[41.830842,42.989405,0.0],[41.830804,42.98959,0.0]]]}},{"type":"Feature","properties":{"rgi_id":"RGI2000-v7.0-G-12-01248","o1region":"12"},"geometry":{"type":"Polygon","coordinates":[[[41.839663,42.985975,0.0],[41.839713,42.986125,0.0],[41.840043,42.986325,0.0],[41.840282,42.986427,0.0],[41.840467,42.986599,0.0],[41.840571,42.986708,0.0],[41.840733,42.986797,0.0],[41.841136,42.986855,0.0],[41.841346,42.986861,0.0],[41.841753,42.986849,0.0],[41.841812,42.986849,0.0],[41.841939,42.98681,0.0],[41.842072,42.986757,0.0],[41.842259,42.986648,0.0],[41.842367,42.986574,0.0],[41.84245,42.986462,0.0],[41.842508,42.98635,0.0],[41.842545,42.986263,0.0],[41.842554,42.986085,0.0],[41.842481,42.985928,0.0],[41.842426,42.985747,0.0],[41.842324,42.985518,0.0],[41.842284,42.98535,0.0],[41.842274,42.985231,0.0],[41.842297,42.985089,0.0],[41.842322,42.984911,0.0],[41.842298,42.984755,0.0],[41.842242,42.984587,0.0],[41.842152,42.98443,0.0],[41.841882,42.984315,0.0],[41.841807,42.984295,0.0],[41.841783,42.98429,0.0],[41.841419,42.984299,0.0],[41.840999,42.984383,0.0],[41.840707,42.984508,0.0],[41.840467,42.984635,0.0],[41.840321,42.984735,0.0],[41.840151,42.985227,0.0],[41.840147,42.985241,0.0],[41.839958,42.98546,0.0],[41.839819,42.985627,0.0],[41.8397,42.985775,0.0],[41.839663,42.985975,0.0]]]}},{"type":"Feature","properties":{"rgi_id":"RGI2000-v7.0-G-12-01249","o1region":"12"},"geometry":{"type":"Polygon","coordinates":[[[41.844209,42.987224,0.0],[41.844235,42.987482,0.0],[41.844398,42.987729,0.0],[41.844622,42.987907,0.0],[41.844943,42.988102,0.0],[41.845231,42.988181,0.0],[41.845375,42.988189,0.0],[41.845645,42.988147,0.0],[41.845753,42.988135,0.0],[41.845847,42.988124,0.0],[41.846069,42.988099,0.0],[41.846429,42.98805,0.0],[41.846817,42.988084,0.0],[41.847219,42.988143,0.0],[41.847631,42.988345,0.0],[41.847864,42.988542,0.0],[41.848067,42.988702,0.0],[41.848099,42.988715,0.0],[41.848433,42.988832,0.0],[41.848563,42.988835,0.0],[41.848791,42.988818,0.0],[41.848974,42.988739,0.0],[41.849057,42.988682,0.0],[41.849169,42.988475,0.0],[41.84924,42.988234,0.0],[41.849368,42.988009,0.0],[41.849573,42.9878,0.0],[41.849874,42.987637,0.0],[41.85014,42.987387,0.0],[41.850212,42.987103,0.0],[41.850226,42.986832,0.0],[41.85018,42.986588,0.0],[41.849998,42.986354,0.0],[41.849867,42.986236,0.0],[41.849646,42.986032,0.0],[41.84956,42.986029,0.0],[41.849331,42.985928,0.0],[41.849236,42.985754,0.0],[41.849166,42.985599,0.0],[41.849045,42.985424,0.0],[41.84887,42.985305,0.0],[41.848831,42.985295,0.0],[41.848537,42.98522,0.0],[41.848177,42.985153,0.0],[41.847866,42.985144,0.0],[41.847606,42.985137,0.0],[41.847343,42.985206,0.0],[41.846927,42.985233,0.0],[41.846565,42.985204,0.0],[41.846207,42.985098,0.0],[41.845909,42.984999,0.0],[41.845773,42.984953,0.0],[41.845704,42.984931,0.0],[41.845648,42.984919,0.0],[41.845456,42.984878,0.0],[41.84508,42.984915,0.0],[41.844899,42.98497,0.0],[41.844633,42.985094,0.0],[41.844481,42.985209,0.0],[41.844471,42.985411,0.0],[41.844558,42.985604,0.0],[41.844696,42.985763,0.0],[41.84485,42.985922,0.0],[41.844955,42.986091,0.0],[41.844979,42.986259,0.0],[41.844988,42.986414,0.0],[41.844849,42.986577,0.0],[41.844596,42.986772,0.0],[41.844361,42.986921,0.0],[41.844222,42.987123,0.0],[41.844209,42.987224,0.0]]]}},{"type":"Feature","properties":{"rgi_id":"RGI2000-v7.0-G-12-01250","o1region":"12"},"geometry":{"type":"Polygon","coordinates":[[[41.859447,42.985836,0.0],[41.859209,42.985905,0.0],[41.85896,42.985965,0.0],[41.858673,42.985996,0.0],[41.858512,42.986,0.0],[41.858504,42.986,0.0],[41.85827,42.985994,0.0],[41.858152,42.985977,0.0],[41.858058,42.985975,0.0],[41.857795,42.985967,0.0],[41.857534,42.985946,0.0],[41.857263,42.98591,0.0],[41.856974,42.985852,0.0],[41.856724,42.985781,0.0],[41.856486,42.985688,0.0],[41.85611,42.985607,0.0],[41.85582,42.985577,0.0],[41.85565,42.985579,0.0],[41.855615,42.985579,0.0],[41.855358,42.985665,0.0],[41.855089,42.985772,0.0],[41.854926,42.985924,0.0],[41.854812,42.986057,0.0],[41.854606,42.98618,0.0],[41.854571,42.9862,0.0],[41.854322,42.986315,0.0],[41.854132,42.986403,0.0],[41.853921,42.986533,0.0],[41.853672,42.986647,0.0],[41.853472,42.986749,0.0],[41.853311,42.986809,0.0],[41.853248,42.986943,0.0],[41.853233,42.98705,0.0],[41.853295,42.987166,0.0],[41.853399,42.987226,0.0],[41.853514,42.987272,0.0],[41.853587,42.98736,0.0],[41.853639,42.98749,0.0],[41.85363,42.987668,0.0],[41.853511,42.987894,0.0],[41.853441,42.988128,0.0],[41.853423,42.988284,0.0],[41.853502,42.988451,0.0],[41.85362,42.988619,0.0],[41.853737,42.988808,0.0],[41.853998,42.989036,0.0],[41.854215,42.989171,0.0],[41.854539,42.989314,0.0],[41.854833,42.989395,0.0],[41.85504,42.98941,0.0],[41.855326,42.989409,0.0],[41.855682,42.989285,0.0],[41.856044,42.989076,0.0],[41.856349,42.988932,0.0],[41.856706,42.988818,0.0],[41.857023,42.988712,0.0],[41.857365,42.988626,0.0],[41.857576,42.988546,0.0],[41.857844,42.988392,0.0],[41.858034,42.988235,0.0],[41.858223,42.988088,0.0],[41.858553,42.987973,0.0],[41.858907,42.987906,0.0],[41.859016,42.987882,0.0],[41.859178,42.987781,0.0],[41.859447,42.987759,0.0],[41.859695,42.987718,0.0],[41.860073,42.9877,0.0],[41.860501,42.987702,0.0],[41.860864,42.987712,0.0],[41.861084,42.987718,0.0],[41.861331,42.987725,0.0],[41.86163,42.987705,0.0],[41.861865,42.987683,0.0],[41.862063,42.987612,0.0],[41.862173,42.987491,0.0],[41.862245,42.987359,0.0],[41.862292,42.987208,0.0],[41.86238,42.986992,0.0],[41.86244,42.986841,0.0],[41.862446,42.986717,0.0],[41.862455,42.986555,0.0],[41.862358,42.986419,0.0],[41.862222,42.986282,0.0],[41.861965,42.986237,0.0],[41.861721,42.986182,0.0],[41.861409,42.986183,0.0],[41.861254,42.986179,0.0],[41.861202,42.986178,0.0],[41.861007,42.986172,0.0],[41.86084,42.986139,0.0],[41.86062,42.986133,0.0],[41.860504,42.98612,0.0],[41.860402,42.98607,0.0],[41.860317,42.985972,0.0],[41.860217,42.985893,0.0],[41.860066,42.985804,0.0],[41.859936,42.985768,0.0],[41.859553,42.985806,0.0],[41.859447,42.985836,0.0]]]}},{"type":"Feature","properties":{"rgi_id":"RGI2000-v7.0-G-12-01251","o1region":"12"},"geometry":{"type":"Polygon","coordinates":[[[41.861642,42.988043,0.0],[41.861479,42.988196,0.0],[41.861431,42.988366,0.0],[41.861423,42.988537,0.0],[41.861474,42.988667,0.0],[41.861566,42.988784,0.0],[41.861574,42.988999,0.0],[41.86147,42.989125,0.0],[41.861288,42.989263,0.0],[41.86107,42.989342,0.0],[41.86085,42.989451,0.0],[41.86069,42.989546,0.0],[41.860567,42.989657,0.0],[41.860463,42.989797,0.0],[41.860375,42.989981,0.0],[41.860371,42.990073,0.0],[41.860504,42.990264,0.0],[41.860516,42.990271,0.0],[41.860745,42.990363,0.0],[41.860974,42.990455,0.0],[41.861244,42.990519,0.0],[41.861449,42.990593,0.0],[41.861727,42.990625,0.0],[41.861996,42.990632,0.0],[41.862347,42.990632,0.0],[41.862645,42.990641,0.0],[41.8631,42.990625,0.0],[41.863373,42.990603,0.0],[41.863674,42.990574,0.0],[41.863951,42.990486,0.0],[41.864229,42.990379,0.0],[41.86451,42.990206,0.0],[41.864858,42.989996,0.0],[41.865281,42.989598,0.0],[41.865448,42.989383,0.0],[41.865549,42.989167,0.0],[41.86565,42.988979,0.0],[41.865761,42.988839,0.0],[41.865948,42.98874,0.0],[41.866197,42.98868,0.0],[41.866472,42.988624,0.0],[41.866647,42.98852,0.0],[41.866879,42.988298,0.0],[41.866976,42.988177,0.0],[41.867099,42.988047,0.0],[41.867195,42.987954,0.0],[41.867407,42.987874,0.0],[41.867593,42.987784,0.0],[41.867778,42.987713,0.0],[41.867911,42.98765,0.0],[41.868151,42.987523,0.0],[41.868302,42.987365,0.0],[41.8684,42.987234,0.0],[41.868499,42.987066,0.0],[41.868547,42.986988,0.0],[41.868545,42.986901,0.0],[41.868545027352354,42.98690218982764,0.0],[41.868347,42.986671,0.0],[41.868184,42.986571,0.0],[41.86807,42.986501,0.0],[41.868012,42.986366,0.0],[41.867994,42.986213,0.0],[41.868002,42.986061,0.0],[41.868007,42.985966,0.0],[41.868015,42.985804,0.0],[41.868012298709935,42.985796701777716,0.0],[41.868011,42.985797,0.0],[41.867898,42.985562,0.0],[41.867812,42.985455,0.0],[41.867635,42.985355,0.0],[41.867405,42.985292,0.0],[41.867121,42.985265,0.0],[41.866823,42.985257,0.0],[41.8666,42.985298,0.0],[41.866362,42.985387,0.0],[41.866073,42.985446,0.0],[41.865798,42.985505,0.0],[41.865652,42.985558,0.0],[41.86544,42.985638,0.0],[41.865254,42.985728,0.0],[41.865066,42.985857,0.0],[41.864932,42.985938,0.0],[41.864921,42.985941,0.0],[41.864654,42.986038,0.0],[41.864604,42.986073,0.0],[41.864323,42.986227,0.0],[41.86407,42.986353,0.0],[41.863831,42.986461,0.0],[41.863669,42.98659,0.0],[41.863508,42.986681,0.0],[41.863332,42.986819,0.0],[41.863234,42.986959,0.0],[41.863123,42.987099,0.0],[41.863012,42.987209,0.0],[41.863001,42.98722,0.0],[41.862879,42.987321,0.0],[41.862872,42.987333,0.0],[41.862863,42.987346,0.0],[41.862864,42.987355,0.0],[41.862744,42.987422,0.0],[41.862572,42.987484,0.0],[41.862463,42.987586,0.0],[41.862382,42.987621,0.0],[41.862317,42.987649,0.0],[41.862091,42.987738,0.0],[41.861953,42.987809,0.0],[41.861804,42.987919,0.0],[41.861642,42.988043,0.0]]]}},{"type":"Feature","properties":{"rgi_id":"RGI2000-v7.0-G-12-01252","o1region":"12"},"geometry":{"type":"Polygon","coordinates":[[[41.867177,42.991569,0.0],[41.86684,42.99155,0.0],[41.86662,42.991544,0.0],[41.866375,42.991509,0.0],[41.866078,42.991472,0.0],[41.865717,42.991434,0.0],[41.86547,42.991427,0.0],[41.865056,42.991406,0.0],[41.864768,42.991455,0.0],[41.864412,42.99155,0.0],[41.864044,42.991655,0.0],[41.863714,42.99176,0.0],[41.863434,42.991895,0.0],[41.862938,42.992215,0.0],[41.862806,42.992324,0.0],[41.862651,42.992484,0.0],[41.862595,42.992573,0.0],[41.862551,42.992841,0.0],[41.862564,42.992863,0.0],[41.862615,42.99295,0.0],[41.862622,42.993064,0.0],[41.862616,42.993188,0.0],[41.862613,42.993191,0.0],[41.862517,42.993338,0.0],[41.862421,42.99343,0.0],[41.862377,42.993534,0.0],[41.862372,42.993639,0.0],[41.862433,42.993707,0.0],[41.862548,42.993758,0.0],[41.862806,42.993774,0.0],[41.863092,42.993782,0.0],[41.863339,42.99376,0.0],[41.863615,42.993701,0.0],[41.863637,42.993701,0.0],[41.863865,42.993641,0.0],[41.864351,42.993531,0.0],[41.864691,42.993474,0.0],[41.865044,42.993417,0.0],[41.865381,42.993435,0.0],[41.865716,42.993483,0.0],[41.86605,42.993549,0.0],[41.866374,42.993558,0.0],[41.866699,42.993557,0.0],[41.867001,42.993489,0.0],[41.867229,42.993352,0.0],[41.867366,42.993213,0.0],[41.86749,42.993055,0.0],[41.867697,42.992813,0.0],[41.86779,42.992706,0.0],[41.867796,42.992587,0.0],[41.867796,42.992581,0.0],[41.867804,42.99243,0.0],[41.867829,42.992316,0.0],[41.867878,42.992131,0.0],[41.867881,42.992129,0.0],[41.867861,42.992074,0.0],[41.86789,42.991889,0.0],[41.867798,42.991786,0.0],[41.867667,42.991683,0.0],[41.867549,42.991623,0.0],[41.86733,42.991573,0.0],[41.867177,42.991569,0.0]]]}},{"type":"Feature","properties":{"rgi_id":"RGI2000-v7.0-G-12-01253","o1region":"12"},"geometry":{"type":"Polygon","coordinates":[[[41.869879,42.990228,0.0],[41.869779,42.990285,0.0],[41.869594,42.990423,0.0],[41.869312,42.990534,0.0],[41.868901,42.99063,0.0],[41.868722,42.990658,0.0],[41.86859,42.990704,0.0],[41.868454,42.990825,0.0],[41.868318,42.990935,0.0],[41.86818,42.991103,0.0],[41.868144,42.991293,0.0],[41.86815,42.991426,0.0],[41.868184,42.991541,0.0],[41.868296,42.991621,0.0],[41.868424,42.991662,0.0],[41.868642,42.991716,0.0],[41.868861,42.991741,0.0],[41.869053,42.991803,0.0],[41.869333,42.991906,0.0],[41.869482,42.992044,0.0],[41.86958,42.992151,0.0],[41.869733,42.992222,0.0],[41.869849,42.992235,0.0],[41.870135,42.992233,0.0],[41.87032,42.992153,0.0],[41.870429,42.992051,0.0],[41.870513,42.991929,0.0],[41.870587,42.99176,0.0],[41.87062,42.991627,0.0],[41.870681,42.991438,0.0],[41.870857,42.991291,0.0],[41.871091,42.991216,0.0],[41.871162,42.991166,0.0],[41.871506,42.991051,0.0],[41.871926,42.990948,0.0],[41.872417,42.99099,0.0],[41.873097,42.991152,0.0],[41.873469,42.991238,0.0],[41.873996,42.991338,0.0],[41.874653,42.991442,0.0],[41.874951,42.99145,0.0],[41.875301,42.99146,0.0],[41.875472,42.991426,0.0],[41.87563,42.991373,0.0],[41.875647,42.99137,0.0],[41.875867,42.991323,0.0],[41.87591,42.991317,0.0],[41.876206,42.991275,0.0],[41.876481,42.991244,0.0],[41.876704,42.991184,0.0],[41.876904,42.991094,0.0],[41.877026,42.990992,0.0],[41.877032,42.990869,0.0],[41.876987,42.990734,0.0],[41.87672,42.990622,0.0],[41.876439,42.990538,0.0],[41.876234,42.990475,0.0],[41.876044,42.990375,0.0],[41.875806,42.990216,0.0],[41.875768,42.990189,0.0],[41.875643,42.990159,0.0],[41.875466,42.990131,0.0],[41.875321,42.990103,0.0],[41.875245,42.990017,0.0],[41.875192,42.989932,0.0],[41.87493,42.98982,0.0],[41.874795,42.989673,0.0],[41.874435,42.989349,0.0],[41.874168,42.989227,0.0],[41.873861,42.989152,0.0],[41.873305,42.989099,0.0],[41.872827,42.989067,0.0],[41.872438,42.989047,0.0],[41.872036,42.989036,0.0],[41.871711,42.989046,0.0],[41.871254,42.98911,0.0],[41.870939,42.989168,0.0],[41.870623,42.989264,0.0],[41.870371,42.989362,0.0],[41.870195,42.98951,0.0],[41.870121,42.989593,0.0],[41.870081,42.989707,0.0],[41.869993,42.989904,0.0],[41.869986,42.990047,0.0],[41.869901,42.990188,0.0],[41.869886,42.990199,0.0],[41.869879,42.990228,0.0]]]}},{"type":"Feature","properties":{"rgi_id":"RGI2000-v7.0-G-12-01254","o1region":"12"},"geometry":{"type":"Polygon","coordinates":[[[41.880372,42.983231,0.0],[41.880494,42.98312,0.0],[41.880642,42.983029,0.0],[41.880818,42.982881,0.0],[41.881008,42.982715,0.0],[41.881082,42.982536,0.0],[41.881064,42.982374,0.0],[41.881007,42.98222,0.0],[41.880949,42.982144,0.0],[41.880861,42.98212,0.0],[41.880574,42.982012,0.0],[41.880466,42.981838,0.0],[41.880379,42.981783,0.0],[41.880202,42.981673,0.0],[41.879993,42.981567,0.0],[41.879942,42.981423,0.0],[41.879965,42.981367,0.0],[41.880019,42.981228,0.0],[41.87999118683228,42.98120598533721,0.0],[41.879991,42.981206,0.0],[41.879736,42.981004,0.0],[41.879451,42.980878,0.0],[41.87905,42.9807,0.0],[41.878852,42.980617,0.0],[41.878815,42.980645,0.0],[41.878679,42.980774,0.0],[41.878519,42.980856,0.0],[41.878401,42.980891,0.0],[41.878322,42.980907,0.0],[41.878072,42.980967,0.0],[41.877874,42.981029,0.0],[41.877688,42.981119,0.0],[41.87749,42.98119,0.0],[41.877331,42.981252,0.0],[41.877172,42.981324,0.0],[41.876923,42.981365,0.0],[41.876619,42.981461,0.0],[41.876412,42.981456,0.0],[41.875177,42.981457,0.0],[41.875075,42.981457,0.0],[41.874755,42.981467,0.0],[41.87475,42.981467,0.0],[41.874568,42.981481,0.0],[41.874308,42.981484,0.0],[41.874072,42.981535,0.0],[41.8739,42.981587,0.0],[41.873742,42.981666,0.0],[41.873701,42.981686,0.0],[41.873685,42.981705,0.0],[41.873604,42.981798,0.0],[41.873452,42.981975,0.0],[41.873339,42.982163,0.0],[41.873323,42.982184,0.0],[41.873228,42.982312,0.0],[41.873077,42.982414,0.0],[41.873066,42.982422,0.0],[41.87289,42.982579,0.0],[41.872739,42.982727,0.0],[41.872602,42.982886,0.0],[41.872441,42.982986,0.0],[41.872201,42.983103,0.0],[41.872027,42.983213,0.0],[41.871828,42.983287,0.0],[41.871789,42.983302,0.0],[41.871366,42.983452,0.0],[41.871104,42.983493,0.0],[41.870999,42.98352,0.0],[41.870275,42.983708,0.0],[41.870039,42.983759,0.0],[41.869829,42.98381,0.0],[41.869607,42.983842,0.0],[41.869304,42.98392,0.0],[41.869106,42.983981,0.0],[41.86891,42.984014,0.0],[41.86874,42.984099,0.0],[41.86871,42.984113,0.0],[41.86851,42.984222,0.0],[41.868346,42.984389,0.0],[41.868252,42.984497,0.0],[41.868249,42.984501,0.0],[41.868059,42.984677,0.0],[41.867842,42.984852,0.0],[41.867623,42.985084,0.0],[41.867553,42.985332,0.0],[41.867635,42.985355,0.0],[41.867812,42.985455,0.0],[41.867898,42.985562,0.0],[41.868011,42.985797,0.0],[41.868146,42.985766,0.0],[41.868342,42.985733,0.0],[41.868526,42.9857,0.0],[41.868749,42.985658,0.0],[41.869038,42.98559,0.0],[41.869108,42.985581,0.0],[41.869338,42.98555,0.0],[41.869601,42.985491,0.0],[41.869726,42.985494,0.0],[41.869782,42.985496,0.0],[41.869859,42.985517,0.0],[41.869916,42.985681,0.0],[41.86987,42.985777,0.0],[41.869814,42.985897,0.0],[41.869691,42.986017,0.0],[41.869531,42.986089,0.0],[41.869385,42.986162,0.0],[41.869278,42.986216,0.0],[41.869197,42.98629,0.0],[41.869009,42.986409,0.0],[41.86889,42.986443,0.0],[41.868727,42.986544,0.0],[41.86855,42.986593,0.0],[41.868347,42.986671,0.0],[41.868556,42.986915,0.0],[41.868607,42.987176,0.0],[41.868694,42.987181,0.0],[41.86892,42.987199,0.0],[41.869212,42.987207,0.0],[41.869455,42.987202,0.0],[41.869651,42.987184,0.0],[41.869847,42.987153,0.0],[41.870125,42.987125,0.0],[41.870352,42.98712,0.0],[41.87046,42.987122,0.0],[41.87076,42.987064,0.0],[41.87086,42.987026,0.0],[41.871127,42.986867,0.0],[41.871343,42.986777,0.0],[41.871704,42.986704,0.0],[41.872011,42.986712,0.0],[41.872222,42.986718,0.0],[41.872447,42.986772,0.0],[41.87299,42.98693,0.0],[41.873218,42.986912,0.0],[41.873514,42.986837,0.0],[41.873763,42.986724,0.0],[41.87403,42.986577,0.0],[41.874265,42.986428,0.0],[41.874502,42.986232,0.0],[41.874724,42.986024,0.0],[41.875153,42.985547,0.0],[41.875326,42.985338,0.0],[41.875599,42.985071,0.0],[41.87585,42.984923,0.0],[41.876001,42.98482,0.0],[41.876302,42.984662,0.0],[41.876452,42.98457,0.0],[41.876861,42.984498,0.0],[41.877137,42.984506,0.0],[41.87746,42.984527,0.0],[41.877829,42.98462,0.0],[41.878033,42.984757,0.0],[41.878284,42.98493,0.0],[41.878473,42.985043,0.0],[41.878909,42.985078,0.0],[41.879153,42.985061,0.0],[41.87948,42.985022,0.0],[41.879789,42.985007,0.0],[41.88018,42.98497,0.0],[41.880787,42.984844,0.0],[41.881039,42.984672,0.0],[41.881266,42.984356,0.0],[41.88129,42.98419,0.0],[41.881252,42.983975,0.0],[41.88118,42.983806,0.0],[41.880912,42.983656,0.0],[41.880904,42.983652,0.0],[41.880781,42.983614,0.0],[41.880615,42.983552,0.0],[41.880565,42.983529,0.0],[41.880548,42.983521,0.0],[41.880378,42.983439,0.0],[41.880357,42.983394,0.0],[41.880352,42.983355,0.0],[41.880372,42.983231,0.0]]]}},{"type":"Feature","properties":{"rgi_id":"RGI2000-v7.0-G-12-01255","o1region":"12"},"geometry":{"type":"Polygon","coordinates":[[[41.878615,42.979847,0.0],[41.878632,42.979902,0.0],[41.87873,42.980034,0.0],[41.878842,42.980132,0.0],[41.878929,42.98022,0.0],[41.878949,42.980335,0.0],[41.878946,42.980392,0.0],[41.878903,42.980477,0.0],[41.878817,42.980602,0.0],[41.87905,42.9807,0.0],[41.879451,42.980878,0.0],[41.879736,42.981004,0.0],[41.879991,42.981206,0.0],[41.880386,42.981175,0.0],[41.880676,42.981087,0.0],[41.880878,42.98094,0.0],[41.881002,42.980791,0.0],[41.881088,42.980632,0.0],[41.881097,42.98046,0.0],[41.881067,42.980288,0.0],[41.881074,42.980145,0.0],[41.881119,42.980023,0.0],[41.881239,42.979969,0.0],[41.881551,42.979958,0.0],[41.882148,42.979955,0.0],[41.882486,42.979936,0.0],[41.882749,42.979876,0.0],[41.882892,42.979871,0.0],[41.882904,42.979872,0.0],[41.882941,42.97986,0.0],[41.883135,42.979865,0.0],[41.883346,42.979871,0.0],[41.883624,42.979831,0.0],[41.883773,42.979763,0.0],[41.883908,42.979672,0.0],[41.884136,42.979654,0.0],[41.884231,42.979636,0.0],[41.884299,42.979623,0.0],[41.884401,42.97953,0.0],[41.884505,42.979414,0.0],[41.884513,42.979247,0.0],[41.884454,42.979139,0.0],[41.884427,42.979019,0.0],[41.884469,42.978841,0.0],[41.884509,42.978675,0.0],[41.884515,42.978569,0.0],[41.884484,42.978512,0.0],[41.884454,42.978484,0.0],[41.884264,42.978393,0.0],[41.883982,42.978328,0.0],[41.883645,42.978319,0.0],[41.883124,42.978362,0.0],[41.882653,42.978435,0.0],[41.882221,42.978499,0.0],[41.881839,42.978622,0.0],[41.88164,42.978693,0.0],[41.881328,42.978723,0.0],[41.881038,42.97881,0.0],[41.880835,42.978967,0.0],[41.880686,42.979086,0.0],[41.880212,42.979216,0.0],[41.879844,42.979311,0.0],[41.879322,42.979364,0.0],[41.879053,42.979416,0.0],[41.87889,42.979447,0.0],[41.878873,42.979461,0.0],[41.878714,42.979585,0.0],[41.878659,42.979662,0.0],[41.878615,42.979847,0.0]]]}},{"type":"Feature","properties":{"rgi_id":"RGI2000-v7.0-G-12-01256","o1region":"12"},"geometry":{"type":"Polygon","coordinates":[[[41.892863,42.977049,0.0],[41.892912,42.97736,0.0],[41.893133,42.977485,0.0],[41.893469,42.977577,0.0],[41.893498,42.977581,0.0],[41.893583,42.97758,0.0],[41.893955,42.977591,0.0],[41.894248,42.977587,0.0],[41.894495,42.977498,0.0],[41.894711,42.977397,0.0],[41.894787,42.977374,0.0],[41.894893,42.977342,0.0],[41.894977,42.977327,0.0],[41.895253,42.97728,0.0],[41.895478,42.977322,0.0],[41.895746,42.97746,0.0],[41.896064,42.977538,0.0],[41.89611,42.977549,0.0],[41.896131,42.977554,0.0],[41.896487,42.977564,0.0],[41.896764,42.977548,0.0],[41.897095,42.977414,0.0],[41.897345,42.977289,0.0],[41.897533,42.977092,0.0],[41.897561,42.977067,0.0],[41.897611,42.976984,0.0],[41.897714,42.976873,0.0],[41.897862,42.97671,0.0],[41.897879,42.976692,0.0],[41.897952,42.976647,0.0],[41.897962,42.976627,0.0],[41.898049,42.97651,0.0],[41.898469,42.976236,0.0],[41.898526,42.976059,0.0],[41.898453,42.975902,0.0],[41.898295,42.975796,0.0],[41.898217,42.975772,0.0],[41.898119,42.975735,0.0],[41.898102,42.97574,0.0],[41.89775,42.975773,0.0],[41.897497,42.975766,0.0],[41.897342,42.975737,0.0],[41.897227,42.975716,0.0],[41.897035,42.975668,0.0],[41.896744,42.975646,0.0],[41.896413,42.975637,0.0],[41.896041,42.975684,0.0],[41.895534,42.975713,0.0],[41.895297,42.975778,0.0],[41.895119,42.97583,0.0],[41.89492,42.975911,0.0],[41.894628,42.975917,0.0],[41.894465,42.975952,0.0],[41.89446,42.975953,0.0],[41.894451,42.975955,0.0],[41.894416,42.975975,0.0],[41.894291,42.976037,0.0],[41.894132,42.976104,0.0],[41.893839,42.976124,0.0],[41.893709,42.976152,0.0],[41.89367,42.976165,0.0],[41.893586,42.976234,0.0],[41.893364,42.976443,0.0],[41.893208,42.976641,0.0],[41.892954,42.976808,0.0],[41.892875,42.976961,0.0],[41.892863,42.977049,0.0]]]}},{"type":"Feature","properties":{"rgi_id":"RGI2000-v7.0-G-12-01257","o1region":"12"},"geometry":{"type":"Polygon","coordinates":[[[41.905465,42.974289,0.0],[41.905363,42.974282,0.0],[41.905288,42.974263,0.0],[41.905114,42.974175,0.0],[41.905069,42.974139,0.0],[41.905033,42.974136,0.0],[41.904791,42.974118,0.0],[41.904546,42.974147,0.0],[41.904414,42.974203,0.0],[41.904153,42.974553,0.0],[41.90408,42.974718,0.0],[41.904007,42.974871,0.0],[41.903921,42.974975,0.0],[41.903768,42.975114,0.0],[41.903667,42.975183,0.0],[41.903453,42.975249,0.0],[41.903253,42.97535,0.0],[41.90308,42.97556,0.0],[41.902913,42.975663,0.0],[41.902711,42.9758,0.0],[41.902526,42.975926,0.0],[41.902284,42.976229,0.0],[41.902146,42.976393,0.0],[41.902048,42.976723,0.0],[41.902038,42.976926,0.0],[41.902138,42.97719,0.0],[41.902324,42.977362,0.0],[41.902533,42.977416,0.0],[41.902776,42.977422,0.0],[41.903343,42.977426,0.0],[41.9037,42.977423,0.0],[41.903982,42.977374,0.0],[41.904382,42.977121,0.0],[41.904631,42.977009,0.0],[41.904673,42.977004,0.0],[41.904679,42.976997,0.0],[41.904927,42.976897,0.0],[41.905224,42.976797,0.0],[41.905552,42.976735,0.0],[41.905783,42.976646,0.0],[41.905969,42.976496,0.0],[41.906075,42.976332,0.0],[41.906228,42.976193,0.0],[41.90632,42.976156,0.0],[41.906476,42.976093,0.0],[41.906791,42.975958,0.0],[41.907155,42.975825,0.0],[41.907239,42.9758,0.0],[41.907451,42.975738,0.0],[41.907797,42.975628,0.0],[41.908077,42.975552,0.0],[41.908422,42.975466,0.0],[41.908498,42.975451,0.0],[41.908589,42.975413,0.0],[41.908837,42.975312,0.0],[41.909262,42.97524,0.0],[41.909819,42.975136,0.0],[41.909858,42.975133,0.0],[41.910002,42.975021,0.0],[41.910121,42.974905,0.0],[41.910276,42.97473,0.0],[41.910301,42.974552,0.0],[41.910309,42.974386,0.0],[41.910364,42.974256,0.0],[41.910516,42.974153,0.0],[41.911058,42.974001,0.0],[41.911336,42.973961,0.0],[41.911742,42.97396,0.0],[41.911905,42.973941,0.0],[41.912088,42.97385,0.0],[41.912191,42.973734,0.0],[41.912199,42.973579,0.0],[41.912175,42.973412,0.0],[41.912185,42.97321,0.0],[41.912099,42.972981,0.0],[41.912072,42.972907,0.0],[41.911979,42.972824,0.0],[41.911918,42.972751,0.0],[41.911793,42.972652,0.0],[41.911571,42.972539,0.0],[41.911537,42.972524,0.0],[41.911422,42.972503,0.0],[41.911267,42.972489,0.0],[41.911124,42.972504,0.0],[41.910874,42.972574,0.0],[41.910728,42.972637,0.0],[41.91054,42.972755,0.0],[41.910314,42.972864,0.0],[41.910155,42.972926,0.0],[41.909947,42.97294,0.0],[41.909727,42.972934,0.0],[41.909519,42.972928,0.0],[41.909312,42.972913,0.0],[41.909066,42.972916,0.0],[41.908818,42.972928,0.0],[41.908584,42.972941,0.0],[41.908414,42.972974,0.0],[41.908308,42.97301,0.0],[41.908241,42.973065,0.0],[41.908184,42.973122,0.0],[41.908159,42.973148,0.0],[41.908101,42.973252,0.0],[41.907981,42.973368,0.0],[41.907938,42.973409,0.0],[41.90773,42.973423,0.0],[41.907573,42.973438,0.0],[41.907403,42.973471,0.0],[41.907231,42.973524,0.0],[41.907122,42.973626,0.0],[41.907014,42.973708,0.0],[41.906958,42.973753,0.0],[41.90692,42.973782,0.0],[41.906749,42.973825,0.0],[41.906578,42.973868,0.0],[41.906419,42.97393,0.0],[41.906258,42.97398,0.0],[41.906248,42.973983,0.0],[41.906116,42.974027,0.0],[41.906028,42.974046,0.0],[41.905919,42.974069,0.0],[41.905705,42.974197,0.0],[41.905572,42.97426,0.0],[41.905512,42.974282,0.0],[41.905465,42.974289,0.0]]]}},{"type":"Feature","properties":{"rgi_id":"RGI2000-v7.0-G-12-01258","o1region":"12"},"geometry":{"type":"Polygon","coordinates":[[[41.910486,42.968471,0.0],[41.91026,42.96857,0.0],[41.909956,42.968686,0.0],[41.90977,42.968776,0.0],[41.909581,42.968914,0.0],[41.909405,42.969071,0.0],[41.909153,42.969169,0.0],[41.908995,42.969213,0.0],[41.908835,42.969294,0.0],[41.908681,42.969453,0.0],[41.908655,42.969527,0.0],[41.908632,42.969736,0.0],[41.90866,42.969937,0.0],[41.908692,42.970091,0.0],[41.908702,42.970139,0.0],[41.908897,42.970401,0.0],[41.909152,42.970494,0.0],[41.909382,42.970548,0.0],[41.909719,42.970557,0.0],[41.90982,42.970564,0.0],[41.909913,42.970571,0.0],[41.910056,42.970611,0.0],[41.910182,42.970645,0.0],[41.910328,42.970668,0.0],[41.910635,42.970677,0.0],[41.910857,42.970654,0.0],[41.911053,42.970621,0.0],[41.911224,42.970569,0.0],[41.911374,42.97043,0.0],[41.911542,42.970177,0.0],[41.911716,42.970067,0.0],[41.912034,42.969943,0.0],[41.912335,42.969884,0.0],[41.9127,42.969856,0.0],[41.913064,42.969847,0.0],[41.913337,42.969844,0.0],[41.913677,42.969777,0.0],[41.913878,42.969668,0.0],[41.914105,42.969532,0.0],[41.914256,42.969374,0.0],[41.91438,42.969215,0.0],[41.914534,42.969,0.0],[41.9148,42.968874,0.0],[41.915129,42.968768,0.0],[41.915342,42.968669,0.0],[41.915505,42.968521,0.0],[41.915602,42.96839,0.0],[41.915676,42.968204,0.0],[41.91568,42.968125,0.0],[41.915643,42.967897,0.0],[41.915602,42.967729,0.0],[41.915561,42.967585,0.0],[41.915472,42.967416,0.0],[41.915419,42.967351,0.0],[41.915253,42.967255,0.0],[41.915095,42.96718,0.0],[41.914886,42.967126,0.0],[41.914631,42.967036,0.0],[41.914454,42.967008,0.0],[41.914275,42.967027,0.0],[41.914078,42.967069,0.0],[41.913913,42.967136,0.0],[41.91378,42.967192,0.0],[41.913616,42.967235,0.0],[41.913444,42.967272,0.0],[41.91325,42.967422,0.0],[41.913023,42.967549,0.0],[41.912773,42.967628,0.0],[41.912446,42.967676,0.0],[41.912351,42.967686,0.0],[41.912235,42.967698,0.0],[41.912081,42.967714,0.0],[41.911781,42.967735,0.0],[41.911535,42.967778,0.0],[41.911494,42.967785,0.0],[41.911454,42.967792,0.0],[41.911167,42.967823,0.0],[41.910833,42.968014,0.0],[41.910748,42.968154,0.0],[41.910716,42.968229,0.0],[41.910632,42.968357,0.0],[41.910486,42.968471,0.0]]]}},{"type":"Feature","properties":{"rgi_id":"RGI2000-v7.0-G-12-01259","o1region":"12"},"geometry":{"type":"Polygon","coordinates":[[[41.90462,42.984636,0.0],[41.904759,42.984541,0.0],[41.904818,42.984412,0.0],[41.90482,42.984361,0.0],[41.904789,42.984283,0.0],[41.9047,42.984224,0.0],[41.904594,42.984212,0.0],[41.90442,42.984197,0.0],[41.904398,42.984189,0.0],[41.904284,42.98415,0.0],[41.904208,42.984113,0.0],[41.904142,42.984068,0.0],[41.904097,42.983981,0.0],[41.904105,42.983838,0.0],[41.904083,42.983745,0.0],[41.90409,42.983731,0.0],[41.904092,42.983702,0.0],[41.904094,42.983652,0.0],[41.904073,42.983487,0.0],[41.903992,42.983371,0.0],[41.90388,42.983275,0.0],[41.903728,42.983192,0.0],[41.903575,42.983138,0.0],[41.903267,42.983065,0.0],[41.903117,42.983015,0.0],[41.903104,42.983011,0.0],[41.902989,42.982986,0.0],[41.902845,42.982947,0.0],[41.902672,42.982892,0.0],[41.902538,42.982852,0.0],[41.902394,42.982813,0.0],[41.9022,42.982808,0.0],[41.901995,42.982809,0.0],[41.901858,42.982834,0.0],[41.901706,42.982944,0.0],[41.901642,42.983057,0.0],[41.901577,42.983191,0.0],[41.901591,42.983306,0.0],[41.901653,42.983422,0.0],[41.901715,42.983545,0.0],[41.901709,42.983652,0.0],[41.901676,42.98373,0.0],[41.901557,42.983784,0.0],[41.901528,42.983788,0.0],[41.901479,42.983828,0.0],[41.901342,42.983838,0.0],[41.901167,42.983834,0.0],[41.901155,42.983833,0.0],[41.901051,42.983856,0.0],[41.901007,42.983883,0.0],[41.900904,42.983995,0.0],[41.900848,42.984129,0.0],[41.900841,42.984279,0.0],[41.900833,42.984436,0.0],[41.900826,42.984579,0.0],[41.900838,42.984729,0.0],[41.900861,42.984844,0.0],[41.900915,42.984938,0.0],[41.901081,42.985014,0.0],[41.901183,42.985017,0.0],[41.901496,42.984997,0.0],[41.901653,42.984958,0.0],[41.901867,42.984978,0.0],[41.902021,42.985011,0.0],[41.902133,42.9851,0.0],[41.902297,42.985319,0.0],[41.902547,42.985397,0.0],[41.902717,42.985487,0.0],[41.902931,42.985493,0.0],[41.903145,42.985499,0.0],[41.903378,42.985505,0.0],[41.903596,42.98544,0.0],[41.903652,42.985396,0.0],[41.903701,42.985278,0.0],[41.903757,42.985144,0.0],[41.903792,42.985031,0.0],[41.903876,42.984897,0.0],[41.903948,42.98482,0.0],[41.904088,42.984746,0.0],[41.904294,42.984715,0.0],[41.904472,42.984663,0.0],[41.90462,42.984636,0.0]]]}}]}
