{"type":"FeatureCollection","features":[{"type":"Feature","properties":{"rgi_id":"RGI2000-v7.0-G-05-09675","o1region":"05"},"geometry":{"type":"Polygon","coordinates":[[[-31.103006,69.355186,0.0],[-31.10827,69.354258,0.0],[-31.108399,69.354255,0.0],[-31.108501,69.354791,0.0],[-31.109358,69.354771,0.0],[-31.110495,69.355938,0.0],[-31.11139,69.357726,0.0],[-31.115401,69.358476,0.0],[-31.113877,69.359134,0.0],[-31.107031,69.358856,0.0],[-31.10466,69.358763,0.0],[-31.104768,69.358617,0.0],[-31.101087,69.357481,0.0],[-31.101232,69.35606,0.0],[-31.103006,69.355186,0.0]]]}}]}
