{"type":"FeatureCollection","features":[{"type":"Feature","properties":{"rgi_id":"RGI2000-v7.0-G-10-03300","o1region":"10"},"geometry":{"type":"Polygon","coordinates":[[[95.447846,54.028527,0.0],[95.447119,54.028284,0.0],[95.447097,54.028271,0.0],[95.446791,54.02829,0.0],[95.446028,54.028371,0.0],[95.445263,54.028418,0.0],[95.444496,54.028434,0.0],[95.443775,54.028287,0.0],[95.44305,54.028076,0.0],[95.442278,54.027995,0.0],[95.441507,54.027946,0.0],[95.440782,54.027735,0.0],[95.44011,54.02749,0.0],[95.439336,54.027377,0.0],[95.438514,54.027393,0.0],[95.437755,54.027538,0.0],[95.437172,54.027873,0.0],[95.437198,54.028324,0.0],[95.437606,54.028735,0.0],[95.438174,54.029079,0.0],[95.438896,54.029226,0.0],[95.439619,54.029405,0.0],[95.440342,54.029584,0.0],[95.441116,54.029697,0.0],[95.441885,54.029714,0.0],[95.442652,54.029698,0.0],[95.44342,54.029715,0.0],[95.444189,54.029731,0.0],[95.444961,54.029812,0.0],[95.44573,54.029829,0.0],[95.446496,54.029814,0.0],[95.447261,54.029766,0.0],[95.448026,54.029718,0.0],[95.448724,54.029478,0.0],[95.449028,54.029052,0.0],[95.448568,54.028674,0.0],[95.447846,54.028527,0.0]]]}},{"type":"Feature","properties":{"rgi_id":"RGI2000-v7.0-G-10-03301","o1region":"10"},"geometry":{"type":"Polygon","coordinates":[[[95.451881,54.025346,0.0],[95.452239,54.024919,0.0],[95.451778,54.024541,0.0],[95.451055,54.024362,0.0],[95.450283,54.024281,0.0],[95.449514,54.024265,0.0],[95.448789,54.024054,0.0],[95.448223,54.023742,0.0],[95.447498,54.023531,0.0],[95.446724,54.023418,0.0],[95.445955,54.023401,0.0],[95.445189,54.023417,0.0],[95.444369,54.023466,0.0],[95.443603,54.023481,0.0],[95.443036,54.02317,0.0],[95.442898,54.022689,0.0],[95.442466,54.022794,0.0],[95.441764,54.02297,0.0],[95.441061,54.023146,0.0],[95.440533,54.023479,0.0],[95.440284,54.023904,0.0],[95.440365,54.024354,0.0],[95.440718,54.024766,0.0],[95.441284,54.025078,0.0],[95.441956,54.025322,0.0],[95.442783,54.025402,0.0],[95.44355,54.025387,0.0],[95.444313,54.025307,0.0],[95.445079,54.025291,0.0],[95.445846,54.025276,0.0],[95.44662,54.025389,0.0],[95.447292,54.025633,0.0],[95.447861,54.025977,0.0],[95.448214,54.026389,0.0],[95.448295,54.02684,0.0],[95.448915,54.027117,0.0],[95.449676,54.027005,0.0],[95.450438,54.026925,0.0],[95.451201,54.026845,0.0],[95.451904,54.026669,0.0],[95.451822,54.026219,0.0],[95.451577,54.025772,0.0],[95.451881,54.025346,0.0]]]}}]}
