{"type":"FeatureCollection","features":[{"type":"Feature","properties":{"rgi_id":"RGI2000-v7.0-G-08-01557","o1region":"08"},"geometry":{"type":"Polygon","coordinates":[[[19.918623,70.094867,0.0],[19.918369,70.093795,0.0],[19.919155,70.093773,0.0],[19.919092,70.093505,0.0],[19.919878,70.093483,0.0],[19.920662,70.092987,0.0],[19.921323,70.092569,0.0],[19.922642,70.091789,0.0],[19.922515,70.091252,0.0],[19.921729,70.091274,0.0],[19.921665,70.091006,0.0],[19.919305,70.091071,0.0],[19.919369,70.091339,0.0],[19.918583,70.091361,0.0],[19.918646,70.091629,0.0],[19.91786,70.091651,0.0],[19.917923,70.091919,0.0],[19.917137,70.09194,0.0],[19.917328,70.092744,0.0],[19.916541,70.092766,0.0],[19.916605,70.093034,0.0],[19.915818,70.093056,0.0],[19.915882,70.093324,0.0],[19.915095,70.093346,0.0],[19.915223,70.093882,0.0],[19.914436,70.093903,0.0],[19.9145,70.094171,0.0],[19.915286,70.09415,0.0],[19.91535,70.094418,0.0],[19.916136,70.094396,0.0],[19.9162,70.094664,0.0],[19.916987,70.094642,0.0],[19.91705,70.09491,0.0],[19.918623,70.094867,0.0]]]}},{"type":"Feature","properties":{"rgi_id":"RGI2000-v7.0-G-08-01558","o1region":"08"},"geometry":{"type":"Polygon","coordinates":[[[19.895867,70.113021,0.0],[19.895065,70.112248,0.0],[19.892447,70.112398,0.0],[19.890609,70.11292,0.0],[19.890573,70.113746,0.0],[19.891395,70.114784,0.0],[19.893035,70.114633,0.0],[19.894508,70.113795,0.0],[19.895379,70.113299,0.0],[19.895867,70.113021,0.0]]]}},{"type":"Feature","properties":{"rgi_id":"RGI2000-v7.0-G-08-01559","o1region":"08"},"geometry":{"type":"Polygon","coordinates":[[[19.794536,70.094147,0.0],[19.791197,70.094158,0.0],[19.787813,70.094382,0.0],[19.78516,70.094558,0.0],[19.783887,70.094967,0.0],[19.781422,70.095112,0.0],[19.783031,70.095655,0.0],[19.785204,70.095596,0.0],[19.786364,70.095885,0.0],[19.787744,70.096227,0.0],[19.790444,70.096307,0.0],[19.79195,70.096352,0.0],[19.793114,70.096386,0.0],[19.793342,70.09549,0.0],[19.793505,70.094853,0.0],[19.795169,70.094451,0.0],[19.794536,70.094147,0.0]]]}}]}
