{"type":"FeatureCollection","features":[{"type":"Feature","properties":{"rgi_id":"RGI2000-v7.0-G-18-03007","o1region":"18"},"geometry":{"type":"Polygon","coordinates":[[[175.555388,-39.292041,0.0],[175.555295,-39.292419,0.0],[175.554842,-39.292642,0.0],[175.554786,-39.292661,0.0],[175.554181,-39.292897,0.0],[175.554143,-39.292895,0.0],[175.553266,-39.292817,0.0],[175.552461,-39.292919,0.0],[175.552441,-39.292916,0.0],[175.551149,-39.292847,0.0],[175.551424,-39.292614,0.0],[175.552026,-39.292426,0.0],[175.552636,-39.292347,0.0],[175.553257,-39.292278,0.0],[175.553498,-39.29217,0.0],[175.553859,-39.29226,0.0],[175.554168,-39.292135,0.0],[175.554894,-39.291869,0.0],[175.55535,-39.291495,0.0],[175.555452,-39.291697,0.0],[175.555442,-39.291717,0.0],[175.555388,-39.292041,0.0]]]}},{"type":"Feature","properties":{"rgi_id":"RGI2000-v7.0-G-18-03008","o1region":"18"},"geometry":{"type":"Polygon","coordinates":[[[175.561643,-39.289819,0.0],[175.560964,-39.290745,0.0],[175.56043,-39.291156,0.0],[175.560425,-39.291426,0.0],[175.560144,-39.291423,0.0],[175.560077,-39.291422,0.0],[175.560073,-39.291603,0.0],[175.559724,-39.291687,0.0],[175.559633,-39.291709,0.0],[175.55938,-39.291975,0.0],[175.559364,-39.292275,0.0],[175.559354,-39.292764,0.0],[175.559169,-39.292762,0.0],[175.559006,-39.29276,0.0],[175.559001,-39.292997,0.0],[175.559,-39.29303,0.0],[175.558956,-39.29303,0.0],[175.558653,-39.293026,0.0],[175.558648,-39.293259,0.0],[175.558641,-39.293566,0.0],[175.55841,-39.293564,0.0],[175.558294,-39.293562,0.0],[175.55829,-39.293739,0.0],[175.558288,-39.293832,0.0],[175.558198,-39.293831,0.0],[175.55794,-39.293828,0.0],[175.557935,-39.294081,0.0],[175.557909,-39.294098,0.0],[175.557554,-39.294335,0.0],[175.557554,-39.294531,0.0],[175.557203,-39.294826,0.0],[175.55681,-39.295107,0.0],[175.556445,-39.29536,0.0],[175.555813,-39.29543,0.0],[175.555827,-39.295612,0.0],[175.555195,-39.295711,0.0],[175.555111,-39.295893,0.0],[175.55476,-39.296146,0.0],[175.554718,-39.296371,0.0],[175.554352,-39.296511,0.0],[175.554296,-39.296694,0.0],[175.553945,-39.296764,0.0],[175.553707,-39.29682,0.0],[175.55365,-39.296947,0.0],[175.552569,-39.297003,0.0],[175.552399,-39.29683,0.0],[175.553426,-39.296595,0.0],[175.555307,-39.295416,0.0],[175.557203,-39.294096,0.0],[175.557596,-39.293648,0.0],[175.557604,-39.293283,0.0],[175.557913,-39.293287,0.0],[175.557951,-39.293288,0.0],[175.557952,-39.293242,0.0],[175.557962,-39.292747,0.0],[175.55831,-39.292751,0.0],[175.558316,-39.292481,0.0],[175.55861,-39.292485,0.0],[175.558664,-39.292485,0.0],[175.558668,-39.292257,0.0],[175.558679,-39.292215,0.0],[175.558679,-39.292214,0.0],[175.559317,-39.291463,0.0],[175.559381,-39.29144,0.0],[175.559381,-39.291413,0.0],[175.559383,-39.291355,0.0],[175.559387,-39.291143,0.0],[175.559039,-39.291139,0.0],[175.559045,-39.290868,0.0],[175.559392,-39.290873,0.0],[175.559409,-39.290062,0.0],[175.559061,-39.290058,0.0],[175.559056,-39.290328,0.0],[175.558708,-39.290324,0.0],[175.558719,-39.289783,0.0],[175.558371,-39.289779,0.0],[175.558382,-39.289238,0.0],[175.55873,-39.289243,0.0],[175.558736,-39.288972,0.0],[175.559779,-39.288985,0.0],[175.559773,-39.289255,0.0],[175.561164,-39.289273,0.0],[175.561159,-39.289543,0.0],[175.561507,-39.289547,0.0],[175.561501,-39.289817,0.0],[175.561643,-39.289819,0.0]]]}},{"type":"Feature","properties":{"rgi_id":"RGI2000-v7.0-G-18-03009","o1region":"18"},"geometry":{"type":"Polygon","coordinates":[[[175.560745,-39.292782,0.0],[175.561093,-39.292786,0.0],[175.561467,-39.291859,0.0],[175.563075,-39.29177,0.0],[175.564234,-39.292284,0.0],[175.564581,-39.292288,0.0],[175.564548,-39.293909,0.0],[175.564543,-39.294177,0.0],[175.564863,-39.294207,0.0],[175.565055,-39.294619,0.0],[175.565007,-39.294782,0.0],[175.564547,-39.294715,0.0],[175.564532,-39.294715,0.0],[175.564528,-39.294903,0.0],[175.564515,-39.295531,0.0],[175.564167,-39.295527,0.0],[175.564156,-39.296067,0.0],[175.563809,-39.296063,0.0],[175.563786,-39.297144,0.0],[175.563091,-39.297135,0.0],[175.563085,-39.297406,0.0],[175.562737,-39.297401,0.0],[175.562732,-39.297672,0.0],[175.562384,-39.297667,0.0],[175.562373,-39.298208,0.0],[175.562025,-39.298204,0.0],[175.56202,-39.298474,0.0],[175.561672,-39.298469,0.0],[175.561666,-39.29874,0.0],[175.561319,-39.298735,0.0],[175.561313,-39.299006,0.0],[175.559922,-39.298988,0.0],[175.559927,-39.298718,0.0],[175.55958,-39.298714,0.0],[175.559585,-39.298444,0.0],[175.558889,-39.298435,0.0],[175.558895,-39.298165,0.0],[175.558547,-39.298161,0.0],[175.558558,-39.29762,0.0],[175.558424,-39.297618,0.0],[175.558309,-39.297617,0.0],[175.55821,-39.297616,0.0],[175.558213,-39.297503,0.0],[175.557992,-39.297369,0.0],[175.557962,-39.297355,0.0],[175.557929,-39.297344,0.0],[175.557859,-39.297326,0.0],[175.557825,-39.297315,0.0],[175.557794,-39.297301,0.0],[175.557769,-39.297282,0.0],[175.55775,-39.297256,0.0],[175.557737,-39.297225,0.0],[175.557885,-39.297034,0.0],[175.55834,-39.297007,0.0],[175.558785,-39.296986,0.0],[175.55892,-39.296968,0.0],[175.558923,-39.296814,0.0],[175.559271,-39.296818,0.0],[175.559276,-39.296548,0.0],[175.559446,-39.29655,0.0],[175.559463,-39.2964,0.0],[175.559291,-39.296349,0.0],[175.559119,-39.29646,0.0],[175.558735,-39.296825,0.0],[175.558249,-39.296855,0.0],[175.557714,-39.296898,0.0],[175.557583,-39.296933,0.0],[175.557298,-39.297098,0.0],[175.557133,-39.297486,0.0],[175.557065,-39.297754,0.0],[175.557126,-39.298049,0.0],[175.556881,-39.298121,0.0],[175.556577,-39.297823,0.0],[175.556255,-39.297645,0.0],[175.557171,-39.296736,0.0],[175.557713,-39.296541,0.0],[175.558071,-39.296193,0.0],[175.558335,-39.29593,0.0],[175.559608,-39.29466,0.0],[175.559315,-39.294656,0.0],[175.55932,-39.294386,0.0],[175.559668,-39.29439,0.0],[175.559679,-39.29385,0.0],[175.560027,-39.293854,0.0],[175.560038,-39.293313,0.0],[175.560386,-39.293318,0.0],[175.560391,-39.293047,0.0],[175.560739,-39.293052,0.0],[175.560745,-39.292782,0.0]]]}},{"type":"Feature","properties":{"rgi_id":"RGI2000-v7.0-G-18-03010","o1region":"18"},"geometry":{"type":"Polygon","coordinates":[[[175.567335,-39.293641,0.0],[175.567648,-39.293643,0.0],[175.567959,-39.293643,0.0],[175.568046,-39.293644,0.0],[175.568089,-39.293645,0.0],[175.568131,-39.293648,0.0],[175.568171,-39.293652,0.0],[175.568209,-39.293658,0.0],[175.568243,-39.293667,0.0],[175.568274,-39.29368,0.0],[175.5683,-39.293698,0.0],[175.568318,-39.293724,0.0],[175.568332,-39.293754,0.0],[175.568343,-39.293787,0.0],[175.568361,-39.293857,0.0],[175.568371,-39.293891,0.0],[175.568385,-39.293921,0.0],[175.568404,-39.293946,0.0],[175.56843,-39.293964,0.0],[175.568461,-39.293977,0.0],[175.568496,-39.293985,0.0],[175.568534,-39.293991,0.0],[175.568575,-39.293995,0.0],[175.568616,-39.293997,0.0],[175.568788,-39.294001,0.0],[175.56883,-39.294003,0.0],[175.56887,-39.294007,0.0],[175.568908,-39.294013,0.0],[175.568943,-39.294021,0.0],[175.568975,-39.294034,0.0],[175.569,-39.294053,0.0],[175.569019,-39.294078,0.0],[175.569033,-39.294108,0.0],[175.569044,-39.294141,0.0],[175.569062,-39.294211,0.0],[175.569073,-39.294245,0.0],[175.569087,-39.294276,0.0],[175.569106,-39.294301,0.0],[175.569132,-39.29432,0.0],[175.569163,-39.294333,0.0],[175.569198,-39.294343,0.0],[175.569237,-39.294349,0.0],[175.569277,-39.294354,0.0],[175.569319,-39.294356,0.0],[175.569361,-39.294358,0.0],[175.569404,-39.294358,0.0],[175.569447,-39.294358,0.0],[175.56949,-39.294356,0.0],[175.569532,-39.294353,0.0],[175.569572,-39.294349,0.0],[175.56961,-39.294343,0.0],[175.569646,-39.294333,0.0],[175.569677,-39.29432,0.0],[175.569703,-39.294301,0.0],[175.569722,-39.294275,0.0],[175.569735,-39.294244,0.0],[175.569746,-39.294211,0.0],[175.569764,-39.29414,0.0],[175.569775,-39.294106,0.0],[175.569788,-39.294076,0.0],[175.569807,-39.29405,0.0],[175.569833,-39.294031,0.0],[175.569863,-39.294018,0.0],[175.569899,-39.294009,0.0],[175.569937,-39.294003,0.0],[175.569977,-39.293998,0.0],[175.570019,-39.293996,0.0],[175.570105,-39.293993,0.0],[175.570283,-39.293992,0.0],[175.570461,-39.293993,0.0],[175.570548,-39.293995,0.0],[175.570589,-39.293997,0.0],[175.57063,-39.294001,0.0],[175.570668,-39.294008,0.0],[175.570703,-39.294016,0.0],[175.570735,-39.294029,0.0],[175.570761,-39.294048,0.0],[175.57078,-39.294073,0.0],[175.570794,-39.294103,0.0],[175.570805,-39.294136,0.0],[175.570825,-39.294206,0.0],[175.570836,-39.294239,0.0],[175.57085,-39.294269,0.0],[175.57087,-39.294295,0.0],[175.570895,-39.294314,0.0],[175.570926,-39.294329,0.0],[175.570959,-39.29434,0.0],[175.571029,-39.29436,0.0],[175.571063,-39.294372,0.0],[175.571093,-39.294386,0.0],[175.571118,-39.294405,0.0],[175.571136,-39.294431,0.0],[175.571148,-39.294461,0.0],[175.571155,-39.294494,0.0],[175.571158,-39.294529,0.0],[175.571156,-39.294564,0.0],[175.57115,-39.294597,0.0],[175.571138,-39.294627,0.0],[175.57112,-39.294652,0.0],[175.571294,-39.294877,0.0],[175.571457,-39.29519,0.0],[175.571502,-39.295397,0.0],[175.571605,-39.295447,0.0],[175.571808,-39.295546,0.0],[175.571878,-39.295579,0.0],[175.572524,-39.295529,0.0],[175.572903,-39.295527,0.0],[175.573525,-39.295834,0.0],[175.573539,-39.296043,0.0],[175.573431,-39.29633,0.0],[175.572863,-39.296365,0.0],[175.572302,-39.296106,0.0],[175.572214,-39.296103,0.0],[175.572172,-39.296101,0.0],[175.57213,-39.296097,0.0],[175.572091,-39.296091,0.0],[175.572055,-39.296082,0.0],[175.572024,-39.296069,0.0],[175.571998,-39.29605,0.0],[175.57198,-39.296025,0.0],[175.571968,-39.295994,0.0],[175.571825,-39.295989,0.0],[175.571635,-39.295983,0.0],[175.570936,-39.295703,0.0],[175.570419,-39.295538,0.0],[175.569997,-39.295383,0.0],[175.569624,-39.29525,0.0],[175.569194,-39.295249,0.0],[175.569023,-39.295249,0.0],[175.568666,-39.295346,0.0],[175.567659,-39.295321,0.0],[175.56768,-39.295482,0.0],[175.567679,-39.295483,0.0],[175.567665,-39.295514,0.0],[175.567654,-39.295548,0.0],[175.567636,-39.295619,0.0],[175.567625,-39.295653,0.0],[175.567611,-39.295683,0.0],[175.567592,-39.295708,0.0],[175.567568,-39.295726,0.0],[175.567538,-39.295738,0.0],[175.567506,-39.295745,0.0],[175.567472,-39.295747,0.0],[175.567437,-39.295746,0.0],[175.567405,-39.295739,0.0],[175.567375,-39.295728,0.0],[175.56735,-39.29571,0.0],[175.567331,-39.295686,0.0],[175.567317,-39.295656,0.0],[175.567306,-39.295622,0.0],[175.567294,-39.29558,0.0],[175.567287,-39.29531,0.0],[175.566962,-39.295293,0.0],[175.566955,-39.295263,0.0],[175.566949,-39.295225,0.0],[175.566945,-39.295185,0.0],[175.566943,-39.295143,0.0],[175.566942,-39.2951,0.0],[175.566941,-39.295013,0.0],[175.566943,-39.294659,0.0],[175.566944,-39.294481,0.0],[175.566943,-39.294304,0.0],[175.566939,-39.293993,0.0],[175.56694,-39.293906,0.0],[175.566942,-39.293864,0.0],[175.566946,-39.293823,0.0],[175.566951,-39.293785,0.0],[175.56696,-39.293749,0.0],[175.566972,-39.293718,0.0],[175.566991,-39.293693,0.0],[175.567016,-39.293674,0.0],[175.567047,-39.293661,0.0],[175.567083,-39.293653,0.0],[175.567121,-39.293647,0.0],[175.567162,-39.293644,0.0],[175.567204,-39.293642,0.0],[175.567247,-39.293641,0.0],[175.567335,-39.293641,0.0]]]}},{"type":"Feature","properties":{"rgi_id":"RGI2000-v7.0-G-18-03011","o1region":"18"},"geometry":{"type":"Polygon","coordinates":[[[175.57602,-39.294321,0.0],[175.575672,-39.294317,0.0],[175.575678,-39.294046,0.0],[175.57533,-39.294042,0.0],[175.575341,-39.293502,0.0],[175.574993,-39.293497,0.0],[175.575015,-39.292416,0.0],[175.57571,-39.292425,0.0],[175.575699,-39.292965,0.0],[175.576047,-39.29297,0.0],[175.576036,-39.29351,0.0],[175.576384,-39.293514,0.0],[175.576373,-39.294055,0.0],[175.576025,-39.294051,0.0],[175.57602,-39.294321,0.0]]]}},{"type":"Feature","properties":{"rgi_id":"RGI2000-v7.0-G-18-03012","o1region":"18"},"geometry":{"type":"Polygon","coordinates":[[[175.575053,-39.290525,0.0],[175.573662,-39.290508,0.0],[175.573668,-39.290237,0.0],[175.57332,-39.290233,0.0],[175.573325,-39.289963,0.0],[175.572978,-39.289959,0.0],[175.572983,-39.289688,0.0],[175.572635,-39.289684,0.0],[175.572646,-39.289144,0.0],[175.572298,-39.289139,0.0],[175.572309,-39.288599,0.0],[175.571962,-39.288595,0.0],[175.571967,-39.288324,0.0],[175.572315,-39.288329,0.0],[175.57232,-39.288058,0.0],[175.573016,-39.288067,0.0],[175.573021,-39.287797,0.0],[175.573717,-39.287805,0.0],[175.573706,-39.288346,0.0],[175.573358,-39.288341,0.0],[175.573353,-39.288612,0.0],[175.573005,-39.288607,0.0],[175.572994,-39.289148,0.0],[175.574733,-39.289169,0.0],[175.574738,-39.288899,0.0],[175.575086,-39.288903,0.0],[175.575092,-39.288633,0.0],[175.575787,-39.288642,0.0],[175.575793,-39.288371,0.0],[175.57614,-39.288376,0.0],[175.576135,-39.288646,0.0],[175.57683,-39.288654,0.0],[175.576819,-39.289195,0.0],[175.576472,-39.289191,0.0],[175.576466,-39.289461,0.0],[175.575771,-39.289452,0.0],[175.57576,-39.289993,0.0],[175.575412,-39.289989,0.0],[175.575406,-39.290259,0.0],[175.575059,-39.290254,0.0],[175.575053,-39.290525,0.0]]]}},{"type":"Feature","properties":{"rgi_id":"RGI2000-v7.0-G-18-03013","o1region":"18"},"geometry":{"type":"Polygon","coordinates":[[[175.564245,-39.291743,0.0],[175.563183,-39.291382,0.0],[175.562818,-39.291107,0.0],[175.562599,-39.290218,0.0],[175.562892,-39.289835,0.0],[175.562903,-39.289294,0.0],[175.563599,-39.289303,0.0],[175.563604,-39.289032,0.0],[175.564648,-39.289045,0.0],[175.564653,-39.288775,0.0],[175.565349,-39.288784,0.0],[175.565354,-39.288513,0.0],[175.56605,-39.288522,0.0],[175.566055,-39.288252,0.0],[175.566751,-39.28826,0.0],[175.566762,-39.28772,0.0],[175.567457,-39.287728,0.0],[175.567463,-39.287458,0.0],[175.567811,-39.287462,0.0],[175.567816,-39.287192,0.0],[175.568164,-39.287196,0.0],[175.568158,-39.287467,0.0],[175.568854,-39.287475,0.0],[175.568848,-39.287746,0.0],[175.569544,-39.287754,0.0],[175.569538,-39.288024,0.0],[175.570234,-39.288033,0.0],[175.570228,-39.288303,0.0],[175.570924,-39.288312,0.0],[175.570896,-39.289663,0.0],[175.570549,-39.289659,0.0],[175.570538,-39.290199,0.0],[175.57019,-39.290195,0.0],[175.570184,-39.290465,0.0],[175.569837,-39.290461,0.0],[175.56982,-39.291271,0.0],[175.570168,-39.291276,0.0],[175.570146,-39.292357,0.0],[175.569798,-39.292352,0.0],[175.569793,-39.292623,0.0],[175.569445,-39.292618,0.0],[175.569439,-39.292889,0.0],[175.569092,-39.292884,0.0],[175.569092,-39.292844,0.0],[175.569097,-39.292614,0.0],[175.569043,-39.292613,0.0],[175.569041,-39.292616,0.0],[175.568912,-39.292818,0.0],[175.567308,-39.291772,0.0],[175.56711,-39.291642,0.0],[175.566987,-39.291804,0.0],[175.566963,-39.29244,0.0],[175.567338,-39.29258,0.0],[175.567245,-39.292839,0.0],[175.567049,-39.292859,0.0],[175.566976,-39.293066,0.0],[175.56666,-39.293076,0.0],[175.566635,-39.293094,0.0],[175.566605,-39.293105,0.0],[175.566571,-39.293112,0.0],[175.566537,-39.293115,0.0],[175.566502,-39.293113,0.0],[175.566469,-39.293106,0.0],[175.56644,-39.293095,0.0],[175.566415,-39.293076,0.0],[175.566397,-39.293051,0.0],[175.566384,-39.293019,0.0],[175.566376,-39.292983,0.0],[175.566371,-39.292943,0.0],[175.566367,-39.292902,0.0],[175.566365,-39.292859,0.0],[175.566362,-39.292684,0.0],[175.56636,-39.292642,0.0],[175.566356,-39.292601,0.0],[175.566351,-39.292562,0.0],[175.566342,-39.292526,0.0],[175.56633,-39.292495,0.0],[175.566312,-39.292469,0.0],[175.566287,-39.292449,0.0],[175.566258,-39.292435,0.0],[175.566225,-39.292424,0.0],[175.566156,-39.292405,0.0],[175.566123,-39.292394,0.0],[175.566092,-39.29238,0.0],[175.566067,-39.292362,0.0],[175.566048,-39.292337,0.0],[175.566033,-39.292307,0.0],[175.566022,-39.292275,0.0],[175.566002,-39.292207,0.0],[175.565991,-39.292175,0.0],[175.565976,-39.292145,0.0],[175.565957,-39.292121,0.0],[175.565931,-39.292102,0.0],[175.565901,-39.292088,0.0],[175.565868,-39.292078,0.0],[175.565798,-39.292059,0.0],[175.565765,-39.292048,0.0],[175.565735,-39.292034,0.0],[175.56571,-39.292015,0.0],[175.565692,-39.29199,0.0],[175.565679,-39.291959,0.0],[175.56567,-39.291923,0.0],[175.565664,-39.291885,0.0],[175.56566,-39.291845,0.0],[175.565657,-39.291803,0.0],[175.565656,-39.29176,0.0],[175.565654,-39.291672,0.0],[175.565654,-39.291449,0.0],[175.565656,-39.291317,0.0],[175.565658,-39.291274,0.0],[175.56566,-39.291232,0.0],[175.565662,-39.29122,0.0],[175.565647,-39.29122,0.0],[175.565653,-39.290917,0.0],[175.565658,-39.29068,0.0],[175.56531,-39.290675,0.0],[175.565305,-39.290946,0.0],[175.564957,-39.290941,0.0],[175.564946,-39.291482,0.0],[175.564598,-39.291478,0.0],[175.564592,-39.291748,0.0],[175.564245,-39.291743,0.0]]]}},{"type":"Feature","properties":{"rgi_id":"RGI2000-v7.0-G-18-03014","o1region":"18"},"geometry":{"type":"Polygon","coordinates":[[[175.569626,-39.2837,0.0],[175.568583,-39.283688,0.0],[175.568589,-39.283417,0.0],[175.567893,-39.283409,0.0],[175.567904,-39.282868,0.0],[175.567556,-39.282864,0.0],[175.567562,-39.282594,0.0],[175.568257,-39.282602,0.0],[175.568263,-39.282332,0.0],[175.570001,-39.282353,0.0],[175.569985,-39.283164,0.0],[175.569637,-39.28316,0.0],[175.569626,-39.2837,0.0]]]}},{"type":"Feature","properties":{"rgi_id":"RGI2000-v7.0-G-18-03015","o1region":"18"},"geometry":{"type":"Polygon","coordinates":[[[175.563083,-39.284511,0.0],[175.563333,-39.284712,0.0],[175.563345,-39.284688,0.0],[175.56335,-39.284434,0.0],[175.565437,-39.28446,0.0],[175.565431,-39.28473,0.0],[175.566127,-39.284739,0.0],[175.566121,-39.285009,0.0],[175.565426,-39.285,0.0],[175.565421,-39.285259,0.0],[175.565435,-39.285307,0.0],[175.565575,-39.2853,0.0],[175.566261,-39.285264,0.0],[175.56688,-39.284989,0.0],[175.567372,-39.285309,0.0],[175.567856,-39.285987,0.0],[175.567421,-39.286539,0.0],[175.566543,-39.287184,0.0],[175.565988,-39.287544,0.0],[175.565249,-39.287913,0.0],[175.564972,-39.287923,0.0],[175.564713,-39.287932,0.0],[175.564244,-39.287507,0.0],[175.564093,-39.286649,0.0],[175.563738,-39.286538,0.0],[175.563255,-39.286744,0.0],[175.56291,-39.287045,0.0],[175.5629,-39.287822,0.0],[175.562641,-39.287964,0.0],[175.562643,-39.288156,0.0],[175.562643,-39.288246,0.0],[175.562642,-39.288291,0.0],[175.562641,-39.288334,0.0],[175.562637,-39.288376,0.0],[175.562631,-39.288415,0.0],[175.562623,-39.288452,0.0],[175.56261,-39.288484,0.0],[175.56259,-39.288511,0.0],[175.562564,-39.28853,0.0],[175.562533,-39.288543,0.0],[175.562497,-39.288552,0.0],[175.562458,-39.288558,0.0],[175.562416,-39.288562,0.0],[175.562374,-39.288565,0.0],[175.56233,-39.288566,0.0],[175.562243,-39.288566,0.0],[175.562199,-39.288564,0.0],[175.562157,-39.288562,0.0],[175.562115,-39.288558,0.0],[175.562076,-39.288552,0.0],[175.56204,-39.288543,0.0],[175.562009,-39.28853,0.0],[175.561983,-39.28851,0.0],[175.561964,-39.288485,0.0],[175.561951,-39.288453,0.0],[175.561943,-39.288417,0.0],[175.561937,-39.288378,0.0],[175.561934,-39.288337,0.0],[175.561932,-39.288294,0.0],[175.561932,-39.288207,0.0],[175.561933,-39.288117,0.0],[175.561939,-39.287892,0.0],[175.561939,-39.287803,0.0],[175.561939,-39.287759,0.0],[175.561937,-39.287717,0.0],[175.561934,-39.287676,0.0],[175.561929,-39.287638,0.0],[175.56192,-39.287602,0.0],[175.561908,-39.28757,0.0],[175.561889,-39.287545,0.0],[175.561864,-39.287526,0.0],[175.561832,-39.287513,0.0],[175.561797,-39.287505,0.0],[175.561758,-39.287499,0.0],[175.561717,-39.287495,0.0],[175.561675,-39.287493,0.0],[175.561632,-39.287492,0.0],[175.561549,-39.287492,0.0],[175.561545,-39.287656,0.0],[175.561198,-39.287651,0.0],[175.561192,-39.287917,0.0],[175.561201,-39.287928,0.0],[175.561215,-39.28796,0.0],[175.561225,-39.287996,0.0],[175.561232,-39.288035,0.0],[175.561236,-39.288075,0.0],[175.56124,-39.288118,0.0],[175.561242,-39.288161,0.0],[175.561242,-39.288204,0.0],[175.561243,-39.288248,0.0],[175.561242,-39.288291,0.0],[175.56124,-39.288334,0.0],[175.561236,-39.288375,0.0],[175.56123,-39.288414,0.0],[175.561221,-39.288449,0.0],[175.561208,-39.288481,0.0],[175.561189,-39.288507,0.0],[175.561163,-39.288526,0.0],[175.561132,-39.288539,0.0],[175.561096,-39.288548,0.0],[175.561057,-39.288554,0.0],[175.561016,-39.288557,0.0],[175.560974,-39.28856,0.0],[175.56093,-39.288561,0.0],[175.560842,-39.288562,0.0],[175.560617,-39.288561,0.0],[175.560528,-39.28856,0.0],[175.560441,-39.288558,0.0],[175.560399,-39.288555,0.0],[175.560359,-39.288551,0.0],[175.560321,-39.288545,0.0],[175.560285,-39.288536,0.0],[175.560254,-39.288523,0.0],[175.560228,-39.288505,0.0],[175.560209,-39.28848,0.0],[175.560195,-39.28845,0.0],[175.560184,-39.288417,0.0],[175.560165,-39.288348,0.0],[175.560154,-39.288315,0.0],[175.56014,-39.288285,0.0],[175.560121,-39.28826,0.0],[175.560096,-39.288241,0.0],[175.560066,-39.288227,0.0],[175.560033,-39.288216,0.0],[175.559963,-39.288196,0.0],[175.55993,-39.288185,0.0],[175.5599,-39.288171,0.0],[175.559875,-39.288151,0.0],[175.559856,-39.288125,0.0],[175.559843,-39.288094,0.0],[175.559834,-39.288058,0.0],[175.559828,-39.28802,0.0],[175.559824,-39.287979,0.0],[175.559821,-39.287937,0.0],[175.55982,-39.287894,0.0],[175.55982,-39.287851,0.0],[175.55982,-39.287808,0.0],[175.559822,-39.287765,0.0],[175.559825,-39.287723,0.0],[175.55983,-39.287682,0.0],[175.559836,-39.287644,0.0],[175.559839,-39.287634,0.0],[175.559807,-39.287634,0.0],[175.559812,-39.287364,0.0],[175.559464,-39.287359,0.0],[175.559469,-39.287151,0.0],[175.559475,-39.286819,0.0],[175.559239,-39.286816,0.0],[175.559128,-39.286815,0.0],[175.559138,-39.28631,0.0],[175.559137,-39.286305,0.0],[175.559131,-39.286267,0.0],[175.559127,-39.286227,0.0],[175.559124,-39.286185,0.0],[175.559123,-39.286142,0.0],[175.559122,-39.286011,0.0],[175.559128,-39.285521,0.0],[175.559129,-39.285389,0.0],[175.559127,-39.285303,0.0],[175.559124,-39.285261,0.0],[175.559121,-39.285221,0.0],[175.559115,-39.285183,0.0],[175.559106,-39.285148,0.0],[175.559092,-39.285118,0.0],[175.559074,-39.285092,0.0],[175.559049,-39.285074,0.0],[175.559018,-39.28506,0.0],[175.558985,-39.28505,0.0],[175.558915,-39.285032,0.0],[175.558881,-39.285022,0.0],[175.558851,-39.285008,0.0],[175.558826,-39.284989,0.0],[175.558807,-39.284964,0.0],[175.558794,-39.284933,0.0],[175.558785,-39.284898,0.0],[175.558779,-39.28486,0.0],[175.558775,-39.28482,0.0],[175.558773,-39.284778,0.0],[175.558772,-39.284735,0.0],[175.558772,-39.284648,0.0],[175.558775,-39.284425,0.0],[175.558776,-39.284397,0.0],[175.558776,-39.284336,0.0],[175.558774,-39.28425,0.0],[175.558772,-39.284208,0.0],[175.558769,-39.284168,0.0],[175.558763,-39.28413,0.0],[175.558754,-39.284095,0.0],[175.558741,-39.284064,0.0],[175.558722,-39.284039,0.0],[175.558697,-39.28402,0.0],[175.558667,-39.284007,0.0],[175.558633,-39.283996,0.0],[175.558563,-39.283979,0.0],[175.558529,-39.283968,0.0],[175.558519,-39.283964,0.0],[175.558561,-39.281796,0.0],[175.558717,-39.281474,0.0],[175.55877,-39.281364,0.0],[175.558892,-39.28135,0.0],[175.558902,-39.280865,0.0],[175.55925,-39.280869,0.0],[175.559255,-39.280599,0.0],[175.559257,-39.280599,0.0],[175.559269,-39.279075,0.0],[175.559339,-39.279057,0.0],[175.559373,-39.279046,0.0],[175.559404,-39.279032,0.0],[175.559429,-39.279014,0.0],[175.559447,-39.278989,0.0],[175.55945,-39.27898,0.0],[175.559288,-39.278978,0.0],[175.559292,-39.278781,0.0],[175.559294,-39.278707,0.0],[175.558946,-39.278703,0.0],[175.558952,-39.278433,0.0],[175.558679,-39.27843,0.0],[175.558771,-39.278833,0.0],[175.558205,-39.279059,0.0],[175.557588,-39.279115,0.0],[175.557546,-39.279126,0.0],[175.557187,-39.279222,0.0],[175.556986,-39.279276,0.0],[175.556339,-39.279438,0.0],[175.556147,-39.279503,0.0],[175.556142,-39.27975,0.0],[175.555084,-39.279736,0.0],[175.554751,-39.279732,0.0],[175.554749,-39.279855,0.0],[175.554746,-39.280003,0.0],[175.554654,-39.280001,0.0],[175.554683,-39.280131,0.0],[175.55469,-39.280139,0.0],[175.555074,-39.280333,0.0],[175.555101,-39.280349,0.0],[175.555105,-39.280354,0.0],[175.555535,-39.280523,0.0],[175.555637,-39.280571,0.0],[175.555646,-39.280953,0.0],[175.555092,-39.281163,0.0],[175.554691,-39.281207,0.0],[175.554024,-39.281252,0.0],[175.553367,-39.281581,0.0],[175.55287,-39.281463,0.0],[175.551869,-39.281318,0.0],[175.551259,-39.281233,0.0],[175.551618,-39.280779,0.0],[175.551435,-39.280529,0.0],[175.551432,-39.28052,0.0],[175.551424,-39.280496,0.0],[175.551419,-39.28011,0.0],[175.551573,-39.279721,0.0],[175.551622,-39.279703,0.0],[175.551622,-39.279693,0.0],[175.551648,-39.279694,0.0],[175.552556,-39.279358,0.0],[175.552677,-39.279032,0.0],[175.552684,-39.279024,0.0],[175.551766,-39.279047,0.0],[175.551614,-39.278876,0.0],[175.552353,-39.278505,0.0],[175.552216,-39.278016,0.0],[175.552353,-39.277952,0.0],[175.552359,-39.277678,0.0],[175.551739,-39.277594,0.0],[175.551341,-39.277493,0.0],[175.551122,-39.277637,0.0],[175.551138,-39.277667,0.0],[175.551105,-39.27795,0.0],[175.550877,-39.277951,0.0],[175.550802,-39.277744,0.0],[175.550594,-39.277859,0.0],[175.550131,-39.278144,0.0],[175.549821,-39.278038,0.0],[175.549255,-39.277923,0.0],[175.549611,-39.277837,0.0],[175.549629,-39.277833,0.0],[175.549685,-39.277822,0.0],[175.550091,-39.277803,0.0],[175.550696,-39.277506,0.0],[175.550717,-39.277494,0.0],[175.551343,-39.277285,0.0],[175.551828,-39.277249,0.0],[175.552438,-39.277159,0.0],[175.552502,-39.277158,0.0],[175.552936,-39.277268,0.0],[175.552688,-39.276821,0.0],[175.5531,-39.276689,0.0],[175.553149,-39.276688,0.0],[175.553638,-39.276731,0.0],[175.553678,-39.276745,0.0],[175.553775,-39.276964,0.0],[175.55359,-39.277032,0.0],[175.553592,-39.277142,0.0],[175.55329,-39.277193,0.0],[175.553268,-39.277297,0.0],[175.553171,-39.27743,0.0],[175.553142,-39.277445,0.0],[175.553021,-39.277548,0.0],[175.553057,-39.277549,0.0],[175.553052,-39.277819,0.0],[175.553086,-39.27782,0.0],[175.553621,-39.277592,0.0],[175.554195,-39.277324,0.0],[175.554514,-39.276973,0.0],[175.554729,-39.276806,0.0],[175.554743,-39.276792,0.0],[175.554746,-39.276788,0.0],[175.554679,-39.276654,0.0],[175.554841,-39.276533,0.0],[175.554863,-39.276529,0.0],[175.555297,-39.276397,0.0],[175.555317,-39.276385,0.0],[175.555519,-39.276239,0.0],[175.555519,-39.276228,0.0],[175.555534,-39.276228,0.0],[175.555796,-39.276038,0.0],[175.555831,-39.27602,0.0],[175.556244,-39.275806,0.0],[175.556863,-39.275989,0.0],[175.557194,-39.27614,0.0],[175.557238,-39.277053,0.0],[175.557308,-39.277061,0.0],[175.557589,-39.277064,0.0],[175.557592,-39.276881,0.0],[175.557594,-39.276794,0.0],[175.557942,-39.276799,0.0],[175.557947,-39.276528,0.0],[175.558643,-39.276537,0.0],[175.558644,-39.276472,0.0],[175.558648,-39.276267,0.0],[175.558648,-39.276262,0.0],[175.55864,-39.276262,0.0],[175.558599,-39.276259,0.0],[175.55856,-39.276253,0.0],[175.558525,-39.276245,0.0],[175.558493,-39.276232,0.0],[175.558468,-39.276214,0.0],[175.558449,-39.276188,0.0],[175.558436,-39.276157,0.0],[175.558427,-39.276121,0.0],[175.558422,-39.276083,0.0],[175.558418,-39.276042,0.0],[175.558416,-39.275999,0.0],[175.558415,-39.275956,0.0],[175.558414,-39.275867,0.0],[175.558415,-39.275641,0.0],[175.558417,-39.275507,0.0],[175.558418,-39.275463,0.0],[175.558421,-39.27542,0.0],[175.558425,-39.275379,0.0],[175.558431,-39.27534,0.0],[175.55844,-39.275304,0.0],[175.558453,-39.275273,0.0],[175.558471,-39.275247,0.0],[175.558496,-39.275229,0.0],[175.558526,-39.275218,0.0],[175.558559,-39.275212,0.0],[175.558594,-39.27521,0.0],[175.558628,-39.275213,0.0],[175.558661,-39.27522,0.0],[175.558691,-39.275232,0.0],[175.558716,-39.275251,0.0],[175.558735,-39.275276,0.0],[175.558749,-39.275307,0.0],[175.55876,-39.275341,0.0],[175.558779,-39.275413,0.0],[175.55879,-39.275447,0.0],[175.558804,-39.275478,0.0],[175.558823,-39.275503,0.0],[175.558848,-39.275522,0.0],[175.55888,-39.275536,0.0],[175.558915,-39.275545,0.0],[175.558953,-39.275552,0.0],[175.558993,-39.275556,0.0],[175.559035,-39.275558,0.0],[175.559121,-39.275561,0.0],[175.559253,-39.275561,0.0],[175.560054,-39.275553,0.0],[175.560056,-39.275473,0.0],[175.560403,-39.275477,0.0],[175.560408,-39.275266,0.0],[175.560409,-39.275207,0.0],[175.560757,-39.275211,0.0],[175.560762,-39.274941,0.0],[175.56111,-39.274946,0.0],[175.561115,-39.274675,0.0],[175.561463,-39.27468,0.0],[175.561469,-39.274409,0.0],[175.562164,-39.274418,0.0],[175.562158,-39.274688,0.0],[175.562506,-39.274692,0.0],[175.562501,-39.274963,0.0],[175.563544,-39.274976,0.0],[175.563538,-39.275246,0.0],[175.564234,-39.275254,0.0],[175.564228,-39.275525,0.0],[175.564576,-39.275529,0.0],[175.56457,-39.275799,0.0],[175.564836,-39.275802,0.0],[175.565231,-39.275807,0.0],[175.565266,-39.275808,0.0],[175.56526,-39.276078,0.0],[175.565292,-39.276078,0.0],[175.565297,-39.276075,0.0],[175.565319,-39.276058,0.0],[175.565338,-39.276046,0.0],[175.565375,-39.276025,0.0],[175.565393,-39.275983,0.0],[175.565403,-39.27598,0.0],[175.565423,-39.275948,0.0],[175.565424,-39.275923,0.0],[175.565419,-39.275893,0.0],[175.565413,-39.275856,0.0],[175.565389,-39.275833,0.0],[175.565375,-39.275812,0.0],[175.565374,-39.275809,0.0],[175.565367,-39.275795,0.0],[175.565354,-39.275781,0.0],[175.565339,-39.27575,0.0],[175.565315,-39.275737,0.0],[175.565297,-39.275721,0.0],[175.565268,-39.275701,0.0],[175.565254,-39.275692,0.0],[175.565243,-39.275689,0.0],[175.565207,-39.275665,0.0],[175.565201,-39.27566,0.0],[175.565182,-39.275644,0.0],[175.565161,-39.275645,0.0],[175.565123,-39.275644,0.0],[175.565112,-39.275617,0.0],[175.565091,-39.275617,0.0],[175.565054,-39.275592,0.0],[175.565041,-39.27558,0.0],[175.565011,-39.275568,0.0],[175.564985,-39.275545,0.0],[175.56495,-39.275534,0.0],[175.564945,-39.275536,0.0],[175.564942,-39.275533,0.0],[175.564924,-39.275518,0.0],[175.564918,-39.275513,0.0],[175.564888,-39.2755,0.0],[175.564871,-39.275474,0.0],[175.564844,-39.275451,0.0],[175.564815,-39.275445,0.0],[175.564772,-39.275426,0.0],[175.564735,-39.27539,0.0],[175.564695,-39.275365,0.0],[175.564673,-39.275363,0.0],[175.564637,-39.275336,0.0],[175.564586,-39.275293,0.0],[175.564563,-39.275271,0.0],[175.564525,-39.275254,0.0],[175.564493,-39.275224,0.0],[175.564472,-39.275211,0.0],[175.564442,-39.275202,0.0],[175.564391,-39.275167,0.0],[175.564388,-39.275162,0.0],[175.564372,-39.275142,0.0],[175.564338,-39.275123,0.0],[175.564288,-39.275076,0.0],[175.564248,-39.27504,0.0],[175.564224,-39.275034,0.0],[175.564196,-39.275018,0.0],[175.564148,-39.274991,0.0],[175.56413,-39.274975,0.0],[175.564098,-39.274966,0.0],[175.564068,-39.274929,0.0],[175.564028,-39.274884,0.0],[175.563992,-39.274849,0.0],[175.563957,-39.2748,0.0],[175.563921,-39.274721,0.0],[175.563908,-39.274685,0.0],[175.563875,-39.27466,0.0],[175.563826,-39.274593,0.0],[175.563808,-39.274576,0.0],[175.563776,-39.274539,0.0],[175.563747,-39.274527,0.0],[175.563709,-39.274506,0.0],[175.56369,-39.274488,0.0],[175.563652,-39.274453,0.0],[175.563614,-39.274387,0.0],[175.563595,-39.274339,0.0],[175.563577,-39.274276,0.0],[175.563552,-39.27421,0.0],[175.563528,-39.274177,0.0],[175.563503,-39.274144,0.0],[175.56347,-39.274123,0.0],[175.563448,-39.274078,0.0],[175.563406,-39.274004,0.0],[175.563387,-39.273971,0.0],[175.56335,-39.273891,0.0],[175.563305,-39.273809,0.0],[175.563122,-39.273485,0.0],[175.56312,-39.273481,0.0],[175.563104,-39.273453,0.0],[175.563099,-39.27345,0.0],[175.563087,-39.273417,0.0],[175.563072,-39.273387,0.0],[175.563064,-39.273373,0.0],[175.563054,-39.273354,0.0],[175.56304,-39.273324,0.0],[175.563027,-39.273304,0.0],[175.563012,-39.273288,0.0],[175.563008,-39.273285,0.0],[175.562997,-39.273257,0.0],[175.562993,-39.273246,0.0],[175.562971,-39.273212,0.0],[175.56295,-39.273181,0.0],[175.562932,-39.273148,0.0],[175.562927,-39.273137,0.0],[175.562923,-39.273126,0.0],[175.562909,-39.273104,0.0],[175.562898,-39.273077,0.0],[175.562886,-39.273046,0.0],[175.562877,-39.27303,0.0],[175.562871,-39.273014,0.0],[175.562861,-39.272986,0.0],[175.56284,-39.272959,0.0],[175.562837,-39.272951,0.0],[175.56282,-39.272923,0.0],[175.562804,-39.27289,0.0],[175.562802,-39.272885,0.0],[175.562794,-39.272864,0.0],[175.562782,-39.272834,0.0],[175.56278,-39.272829,0.0],[175.562772,-39.272798,0.0],[175.562766,-39.272775,0.0],[175.562759,-39.272757,0.0],[175.562754,-39.272743,0.0],[175.56275,-39.272714,0.0],[175.562739,-39.272686,0.0],[175.562735,-39.272648,0.0],[175.562732,-39.272639,0.0],[175.562724,-39.27261,0.0],[175.562715,-39.272578,0.0],[175.562714,-39.272545,0.0],[175.562708,-39.2725,0.0],[175.562703,-39.272489,0.0],[175.562696,-39.27246,0.0],[175.562685,-39.272413,0.0],[175.562682,-39.272395,0.0],[175.562677,-39.272371,0.0],[175.56268,-39.272348,0.0],[175.562669,-39.272298,0.0],[175.562662,-39.27228,0.0],[175.562648,-39.272243,0.0],[175.562648,-39.272207,0.0],[175.562643,-39.272193,0.0],[175.562648,-39.27216,0.0],[175.562641,-39.27214,0.0],[175.562649,-39.272107,0.0],[175.562645,-39.272072,0.0],[175.562638,-39.272052,0.0],[175.562642,-39.272022,0.0],[175.562643,-39.27199,0.0],[175.562647,-39.271967,0.0],[175.562648,-39.271933,0.0],[175.562654,-39.271915,0.0],[175.562656,-39.271872,0.0],[175.562659,-39.271856,0.0],[175.562664,-39.271832,0.0],[175.562672,-39.271805,0.0],[175.56268,-39.271778,0.0],[175.56269,-39.271705,0.0],[175.562692,-39.271696,0.0],[175.5627,-39.271653,0.0],[175.562699,-39.271608,0.0],[175.562704,-39.271566,0.0],[175.562707,-39.271532,0.0],[175.56271,-39.271453,0.0],[175.562715,-39.271404,0.0],[175.562723,-39.271386,0.0],[175.562719,-39.271354,0.0],[175.562717,-39.271313,0.0],[175.562724,-39.271288,0.0],[175.562728,-39.27125,0.0],[175.562727,-39.271229,0.0],[175.562729,-39.271184,0.0],[175.562738,-39.271147,0.0],[175.56275,-39.271106,0.0],[175.562775,-39.271054,0.0],[175.562787,-39.271044,0.0],[175.562802,-39.27103,0.0],[175.562817,-39.270994,0.0],[175.56283,-39.270967,0.0],[175.562848,-39.270941,0.0],[175.562888,-39.270901,0.0],[175.562909,-39.270887,0.0],[175.562935,-39.270871,0.0],[175.562961,-39.270854,0.0],[175.562999,-39.270822,0.0],[175.56302,-39.270801,0.0],[175.563061,-39.270755,0.0],[175.563097,-39.270705,0.0],[175.563115,-39.270691,0.0],[175.563135,-39.270663,0.0],[175.56315,-39.270657,0.0],[175.563158,-39.270645,0.0],[175.563224,-39.270572,0.0],[175.563254,-39.270527,0.0],[175.563321,-39.270472,0.0],[175.563361,-39.270449,0.0],[175.563502,-39.270386,0.0],[175.563521,-39.270378,0.0],[175.563532,-39.270359,0.0],[175.563549,-39.270345,0.0],[175.56357,-39.270325,0.0],[175.563583,-39.270312,0.0],[175.563631,-39.27027,0.0],[175.563647,-39.27025,0.0],[175.56367,-39.270235,0.0],[175.563688,-39.270221,0.0],[175.563725,-39.270193,0.0],[175.563745,-39.270185,0.0],[175.563751,-39.270166,0.0],[175.563776,-39.270132,0.0],[175.563784,-39.27012,0.0],[175.563791,-39.270098,0.0],[175.563805,-39.270087,0.0],[175.563819,-39.270051,0.0],[175.563822,-39.270038,0.0],[175.563846,-39.269995,0.0],[175.56384,-39.269967,0.0],[175.563853,-39.269949,0.0],[175.563857,-39.269916,0.0],[175.563866,-39.269901,0.0],[175.56388,-39.269886,0.0],[175.563895,-39.269871,0.0],[175.563908,-39.269851,0.0],[175.563928,-39.269831,0.0],[175.56395,-39.269824,0.0],[175.563964,-39.269803,0.0],[175.563993,-39.269802,0.0],[175.56401,-39.2698,0.0],[175.564043,-39.269788,0.0],[175.564063,-39.269769,0.0],[175.564085,-39.269761,0.0],[175.564113,-39.269754,0.0],[175.564133,-39.269734,0.0],[175.564162,-39.269733,0.0],[175.564196,-39.269727,0.0],[175.56423,-39.269721,0.0],[175.564258,-39.269714,0.0],[175.564287,-39.269709,0.0],[175.564308,-39.269697,0.0],[175.564348,-39.269691,0.0],[175.56438,-39.269673,0.0],[175.564408,-39.269667,0.0],[175.564424,-39.269661,0.0],[175.564458,-39.269655,0.0],[175.564486,-39.269649,0.0],[175.564514,-39.269638,0.0],[175.56453,-39.269622,0.0],[175.56457,-39.269616,0.0],[175.564614,-39.2696,0.0],[175.564637,-39.269594,0.0],[175.564648,-39.269589,0.0],[175.564687,-39.269572,0.0],[175.56472,-39.269549,0.0],[175.564743,-39.269538,0.0],[175.564771,-39.269533,0.0],[175.564823,-39.269521,0.0],[175.564848,-39.269528,0.0],[175.56486,-39.269532,0.0],[175.564901,-39.269533,0.0],[175.564919,-39.269538,0.0],[175.564966,-39.269541,0.0],[175.565013,-39.269544,0.0],[175.56503,-39.269545,0.0],[175.56507,-39.269535,0.0],[175.565093,-39.269527,0.0],[175.565116,-39.26952,0.0],[175.565151,-39.269523,0.0],[175.565186,-39.269526,0.0],[175.565191,-39.269527,0.0],[175.565226,-39.269515,0.0],[175.565249,-39.269508,0.0],[175.565277,-39.269501,0.0],[175.565306,-39.269503,0.0],[175.565346,-39.269486,0.0],[175.565386,-39.269469,0.0],[175.565409,-39.269455,0.0],[175.565426,-39.269446,0.0],[175.565444,-39.269437,0.0],[175.565467,-39.269429,0.0],[175.565525,-39.269399,0.0],[175.56553,-39.2694,0.0],[175.56556,-39.269394,0.0],[175.565606,-39.269402,0.0],[175.565623,-39.269405,0.0],[175.565669,-39.269427,0.0],[175.565693,-39.269423,0.0],[175.565734,-39.269427,0.0],[175.565751,-39.269423,0.0],[175.565804,-39.269414,0.0],[175.565822,-39.269411,0.0],[175.565875,-39.269396,0.0],[175.565898,-39.269391,0.0],[175.565952,-39.269365,0.0],[175.566028,-39.269302,0.0],[175.566035,-39.269301,0.0],[175.566051,-39.269296,0.0],[175.566068,-39.269293,0.0],[175.566085,-39.269291,0.0],[175.56611,-39.269287,0.0],[175.566129,-39.269281,0.0],[175.566143,-39.269279,0.0],[175.566146,-39.269276,0.0],[175.566167,-39.269251,0.0],[175.566182,-39.269234,0.0],[175.566197,-39.269206,0.0],[175.56621,-39.269202,0.0],[175.566226,-39.269196,0.0],[175.566253,-39.269181,0.0],[175.566263,-39.269159,0.0],[175.566274,-39.269137,0.0],[175.566285,-39.269127,0.0],[175.566296,-39.269105,0.0],[175.566309,-39.269101,0.0],[175.56632,-39.26909,0.0],[175.566333,-39.269073,0.0],[175.566345,-39.269063,0.0],[175.566365,-39.269043,0.0],[175.566382,-39.269025,0.0],[175.56639,-39.269015,0.0],[175.56641,-39.268995,0.0],[175.566433,-39.268981,0.0],[175.566445,-39.26897,0.0],[175.566459,-39.268952,0.0],[175.566473,-39.268934,0.0],[175.566487,-39.268929,0.0],[175.566501,-39.2689,0.0],[175.566519,-39.268894,0.0],[175.566535,-39.268869,0.0],[175.566543,-39.268866,0.0],[175.566581,-39.268833,0.0],[175.566596,-39.268828,0.0],[175.5666,-39.268817,0.0],[175.566619,-39.26881,0.0],[175.566631,-39.268796,0.0],[175.566646,-39.26879,0.0],[175.566678,-39.268759,0.0],[175.566691,-39.268744,0.0],[175.566714,-39.268706,0.0],[175.566733,-39.268698,0.0],[175.566754,-39.268681,0.0],[175.566791,-39.268644,0.0],[175.566798,-39.268635,0.0],[175.566824,-39.268615,0.0],[175.566826,-39.268606,0.0],[175.566846,-39.268579,0.0],[175.566855,-39.268577,0.0],[175.566865,-39.268544,0.0],[175.56688,-39.268533,0.0],[175.566898,-39.268513,0.0],[175.566911,-39.268511,0.0],[175.566929,-39.268491,0.0],[175.566951,-39.268463,0.0],[175.566984,-39.268448,0.0],[175.567005,-39.268444,0.0],[175.567032,-39.268441,0.0],[175.567047,-39.268423,0.0],[175.567068,-39.268414,0.0],[175.567107,-39.268403,0.0],[175.567111,-39.268402,0.0],[175.567138,-39.268401,0.0],[175.56716,-39.268391,0.0],[175.567184,-39.268373,0.0],[175.567202,-39.268372,0.0],[175.567226,-39.268345,0.0],[175.567249,-39.268309,0.0],[175.567274,-39.268281,0.0],[175.567289,-39.268254,0.0],[175.567313,-39.268217,0.0],[175.567322,-39.268216,0.0],[175.567351,-39.268178,0.0],[175.567371,-39.268146,0.0],[175.567388,-39.268125,0.0],[175.56742,-39.268104,0.0],[175.567433,-39.268094,0.0],[175.567445,-39.268064,0.0],[175.56746,-39.268017,0.0],[175.567473,-39.267993,0.0],[175.567497,-39.267984,0.0],[175.567514,-39.267952,0.0],[175.567534,-39.26795,0.0],[175.567561,-39.267909,0.0],[175.567571,-39.267902,0.0],[175.5676,-39.267891,0.0],[175.567642,-39.267832,0.0],[175.56769,-39.267781,0.0],[175.56771,-39.26778,0.0],[175.567731,-39.267779,0.0],[175.567745,-39.267768,0.0],[175.567781,-39.267764,0.0],[175.567816,-39.26776,0.0],[175.567836,-39.267758,0.0],[175.567852,-39.267763,0.0],[175.567897,-39.267755,0.0],[175.567907,-39.267743,0.0],[175.567937,-39.267721,0.0],[175.567973,-39.267682,0.0],[175.567993,-39.267663,0.0],[175.568019,-39.267637,0.0],[175.568136,-39.267514,0.0],[175.568146,-39.2675,0.0],[175.568168,-39.26748,0.0],[175.568181,-39.267451,0.0],[175.568189,-39.267429,0.0],[175.568201,-39.267392,0.0],[175.568208,-39.267362,0.0],[175.568222,-39.267332,0.0],[175.568244,-39.267311,0.0],[175.568258,-39.267282,0.0],[175.568278,-39.267252,0.0],[175.568297,-39.267247,0.0],[175.568326,-39.267226,0.0],[175.568348,-39.267204,0.0],[175.568364,-39.267182,0.0],[175.568386,-39.267159,0.0],[175.568417,-39.267146,0.0],[175.568441,-39.267133,0.0],[175.568472,-39.267119,0.0],[175.5685,-39.267089,0.0],[175.568534,-39.267093,0.0],[175.56856,-39.267088,0.0],[175.568583,-39.267065,0.0],[175.568629,-39.267062,0.0],[175.56866,-39.267049,0.0],[175.568702,-39.267019,0.0],[175.568728,-39.267013,0.0],[175.56874,-39.267005,0.0],[175.568766,-39.266999,0.0],[175.568804,-39.266985,0.0],[175.568836,-39.266979,0.0],[175.568862,-39.266972,0.0],[175.568894,-39.266957,0.0],[175.568925,-39.266942,0.0],[175.56895,-39.266926,0.0],[175.56897,-39.266928,0.0],[175.569002,-39.266913,0.0],[175.569034,-39.266907,0.0],[175.569067,-39.266901,0.0],[175.569105,-39.266877,0.0],[175.569131,-39.26687,0.0],[175.569161,-39.266836,0.0],[175.569193,-39.266811,0.0],[175.569233,-39.266806,0.0],[175.56926,-39.266808,0.0],[175.569285,-39.266783,0.0],[175.569305,-39.266785,0.0],[175.569352,-39.266779,0.0],[175.569358,-39.26678,0.0],[175.569445,-39.266769,0.0],[175.569459,-39.266771,0.0],[175.569492,-39.266773,0.0],[175.569539,-39.266774,0.0],[175.569586,-39.266775,0.0],[175.569606,-39.266775,0.0],[175.569626,-39.266775,0.0],[175.569653,-39.266775,0.0],[175.569693,-39.266761,0.0],[175.569746,-39.266739,0.0],[175.569792,-39.266719,0.0],[175.569852,-39.266717,0.0],[175.569886,-39.266705,0.0],[175.569926,-39.266693,0.0],[175.569953,-39.26668,0.0],[175.570013,-39.266671,0.0],[175.57004,-39.266658,0.0],[175.570053,-39.266651,0.0],[175.570087,-39.266639,0.0],[175.570114,-39.266642,0.0],[175.570147,-39.266637,0.0],[175.570174,-39.266624,0.0],[175.570201,-39.266619,0.0],[175.570241,-39.266615,0.0],[175.570282,-39.266603,0.0],[175.570309,-39.266591,0.0],[175.570336,-39.266593,0.0],[175.570376,-39.266581,0.0],[175.570396,-39.266583,0.0],[175.57043,-39.266587,0.0],[175.570471,-39.266565,0.0],[175.570498,-39.266563,0.0],[175.570525,-39.266557,0.0],[175.570546,-39.266553,0.0],[175.570566,-39.266551,0.0],[175.570614,-39.266548,0.0],[175.57071,-39.266482,0.0],[175.570733,-39.266485,0.0],[175.570771,-39.266491,0.0],[175.570846,-39.266496,0.0],[175.570896,-39.266492,0.0],[175.570931,-39.266479,0.0],[175.570949,-39.266458,0.0],[175.570958,-39.26643,0.0],[175.571001,-39.266425,0.0],[175.57104,-39.266436,0.0],[175.57108,-39.266437,0.0],[175.571156,-39.266443,0.0],[175.571178,-39.266445,0.0],[175.571214,-39.266451,0.0],[175.57125,-39.266458,0.0],[175.571272,-39.266464,0.0],[175.571315,-39.266466,0.0],[175.571351,-39.266482,0.0],[175.571394,-39.266489,0.0],[175.571444,-39.266491,0.0],[175.571501,-39.266499,0.0],[175.571536,-39.266501,0.0],[175.571614,-39.2665,0.0],[175.571642,-39.266502,0.0],[175.571691,-39.266504,0.0],[175.571733,-39.266498,0.0],[175.571761,-39.266493,0.0],[175.57179,-39.266484,0.0],[175.571825,-39.266479,0.0],[175.571853,-39.266478,0.0],[175.571874,-39.266468,0.0],[175.571923,-39.266461,0.0],[175.571945,-39.266464,0.0],[175.572009,-39.266467,0.0],[175.57203,-39.266465,0.0],[175.572058,-39.266464,0.0],[175.572093,-39.266464,0.0],[175.572121,-39.266463,0.0],[175.572163,-39.266467,0.0],[175.572213,-39.266477,0.0],[175.572248,-39.266481,0.0],[175.572297,-39.266487,0.0],[175.572333,-39.266495,0.0],[175.572361,-39.266491,0.0],[175.572402,-39.266477,0.0],[175.572444,-39.266481,0.0],[175.572487,-39.266489,0.0],[175.572528,-39.266491,0.0],[175.572541,-39.266483,0.0],[175.572582,-39.266472,0.0],[175.572615,-39.266457,0.0],[175.572634,-39.266435,0.0],[175.572654,-39.266428,0.0],[175.572673,-39.266411,0.0],[175.5727,-39.266399,0.0],[175.572754,-39.26639,0.0],[175.572816,-39.266396,0.0],[175.572849,-39.266391,0.0],[175.572904,-39.26639,0.0],[175.572917,-39.266382,0.0],[175.572957,-39.266383,0.0],[175.572998,-39.266385,0.0],[175.573079,-39.266394,0.0],[175.573113,-39.266395,0.0],[175.573127,-39.266397,0.0],[175.573194,-39.266404,0.0],[175.573261,-39.266416,0.0],[175.573288,-39.26642,0.0],[175.573308,-39.266424,0.0],[175.573355,-39.266432,0.0],[175.573401,-39.266439,0.0],[175.573441,-39.266445,0.0],[175.573474,-39.26645,0.0],[175.573513,-39.266456,0.0],[175.57356,-39.266473,0.0],[175.57358,-39.266481,0.0],[175.573619,-39.266492,0.0],[175.573639,-39.266505,0.0],[175.573666,-39.266522,0.0],[175.573705,-39.266543,0.0],[175.573725,-39.266554,0.0],[175.57377,-39.266563,0.0],[175.573797,-39.266582,0.0],[175.573842,-39.266596,0.0],[175.573868,-39.266607,0.0],[175.573894,-39.266614,0.0],[175.573933,-39.266618,0.0],[175.573971,-39.266623,0.0],[175.57401,-39.266627,0.0],[175.574061,-39.266633,0.0],[175.574099,-39.266637,0.0],[175.574124,-39.26664,0.0],[175.574156,-39.266644,0.0],[175.574194,-39.266652,0.0],[175.574239,-39.266657,0.0],[175.57427,-39.266661,0.0],[175.574302,-39.266664,0.0],[175.574333,-39.266668,0.0],[175.574365,-39.266676,0.0],[175.574396,-39.266683,0.0],[175.574427,-39.266705,0.0],[175.574446,-39.266713,0.0],[175.574483,-39.266714,0.0],[175.574519,-39.266718,0.0],[175.57455,-39.266724,0.0],[175.574562,-39.266727,0.0],[175.574583,-39.266732,0.0],[175.574679,-39.266733,0.0],[175.574684,-39.266732,0.0],[175.574709,-39.266726,0.0],[175.574727,-39.266719,0.0],[175.574752,-39.266713,0.0],[175.57477,-39.2667,0.0],[175.574795,-39.266689,0.0],[175.574832,-39.266685,0.0],[175.574874,-39.266683,0.0],[175.57491,-39.266691,0.0],[175.574928,-39.266689,0.0],[175.57497,-39.266687,0.0],[175.574994,-39.266687,0.0],[175.575024,-39.266693,0.0],[175.575065,-39.266702,0.0],[175.575089,-39.266706,0.0],[175.575107,-39.266708,0.0],[175.575137,-39.26671,0.0],[175.575174,-39.266713,0.0],[175.575216,-39.266722,0.0],[175.575227,-39.266725,0.0],[175.575261,-39.266741,0.0],[175.575309,-39.266757,0.0],[175.575333,-39.266761,0.0],[175.575359,-39.266759,0.0],[175.57539,-39.266756,0.0],[175.575407,-39.266764,0.0],[175.575428,-39.266786,0.0],[175.575455,-39.266799,0.0],[175.575479,-39.26683,0.0],[175.575492,-39.266857,0.0],[175.57551,-39.266871,0.0],[175.575538,-39.266888,0.0],[175.575558,-39.266907,0.0],[175.575579,-39.26692,0.0],[175.575615,-39.266954,0.0],[175.575625,-39.266967,0.0],[175.575646,-39.266981,0.0],[175.575682,-39.266982,0.0],[175.575715,-39.267011,0.0],[175.575732,-39.267016,0.0],[175.576356,-39.267024,0.0],[175.576572,-39.267026,0.0],[175.576567,-39.267297,0.0],[175.576915,-39.267301,0.0],[175.57692,-39.267031,0.0],[175.577615,-39.267039,0.0],[175.577621,-39.266769,0.0],[175.578316,-39.266777,0.0],[175.578322,-39.266507,0.0],[175.578669,-39.266511,0.0],[175.578664,-39.266782,0.0],[175.579359,-39.26679,0.0],[175.579354,-39.26706,0.0],[175.580397,-39.267073,0.0],[175.580391,-39.267343,0.0],[175.580739,-39.267347,0.0],[175.580744,-39.267077,0.0],[175.582135,-39.267094,0.0],[175.58213,-39.267364,0.0],[175.583173,-39.267377,0.0],[175.583167,-39.267647,0.0],[175.583862,-39.267656,0.0],[175.583857,-39.267926,0.0],[175.584552,-39.267934,0.0],[175.584547,-39.268205,0.0],[175.584894,-39.268209,0.0],[175.584889,-39.268479,0.0],[175.585584,-39.268488,0.0],[175.585574,-39.269028,0.0],[175.585921,-39.269032,0.0],[175.585916,-39.269303,0.0],[175.586263,-39.269307,0.0],[175.586258,-39.269577,0.0],[175.586606,-39.269581,0.0],[175.5866,-39.269852,0.0],[175.586948,-39.269856,0.0],[175.586942,-39.270126,0.0],[175.587638,-39.270134,0.0],[175.587622,-39.270945,0.0],[175.586579,-39.270933,0.0],[175.586584,-39.270662,0.0],[175.585889,-39.270654,0.0],[175.585872,-39.271465,0.0],[175.585177,-39.271456,0.0],[175.585172,-39.271726,0.0],[175.584128,-39.271714,0.0],[175.584123,-39.271984,0.0],[175.583428,-39.271975,0.0],[175.583422,-39.272246,0.0],[175.582727,-39.272237,0.0],[175.582721,-39.272508,0.0],[175.581678,-39.272495,0.0],[175.581684,-39.272225,0.0],[175.581336,-39.27222,0.0],[175.581342,-39.27195,0.0],[175.580646,-39.271942,0.0],[175.580635,-39.272482,0.0],[175.580298,-39.272478,0.0],[175.580295,-39.272493,0.0],[175.580286,-39.272529,0.0],[175.580273,-39.272561,0.0],[175.580254,-39.272587,0.0],[175.580229,-39.272605,0.0],[175.580199,-39.272616,0.0],[175.580165,-39.272623,0.0],[175.58013,-39.272625,0.0],[175.580096,-39.272622,0.0],[175.580062,-39.272616,0.0],[175.580032,-39.272604,0.0],[175.580006,-39.272586,0.0],[175.579987,-39.272561,0.0],[175.579973,-39.27253,0.0],[175.579961,-39.272497,0.0],[175.579955,-39.272474,0.0],[175.579469,-39.272468,0.0],[175.578897,-39.272461,0.0],[175.578891,-39.272731,0.0],[175.578544,-39.272727,0.0],[175.578549,-39.272457,0.0],[175.577854,-39.272448,0.0],[175.577859,-39.272178,0.0],[175.577604,-39.272175,0.0],[175.577512,-39.272174,0.0],[175.577513,-39.272127,0.0],[175.577169,-39.272106,0.0],[175.577139,-39.271765,0.0],[175.577129,-39.271663,0.0],[175.577174,-39.271661,0.0],[175.577175,-39.271629,0.0],[175.577523,-39.271633,0.0],[175.577528,-39.271363,0.0],[175.577876,-39.271367,0.0],[175.577881,-39.271097,0.0],[175.577533,-39.271093,0.0],[175.577539,-39.270822,0.0],[175.577191,-39.270818,0.0],[175.577197,-39.270548,0.0],[175.576849,-39.270544,0.0],[175.57686,-39.270003,0.0],[175.576165,-39.269995,0.0],[175.576148,-39.270805,0.0],[175.575801,-39.270801,0.0],[175.575773,-39.272152,0.0],[175.576469,-39.272161,0.0],[175.576463,-39.272431,0.0],[175.576811,-39.272435,0.0],[175.5768,-39.272976,0.0],[175.577148,-39.27298,0.0],[175.577142,-39.27325,0.0],[175.576447,-39.273242,0.0],[175.576441,-39.273512,0.0],[175.57505,-39.273495,0.0],[175.575056,-39.273225,0.0],[175.574708,-39.273221,0.0],[175.574714,-39.27295,0.0],[175.574366,-39.272946,0.0],[175.574372,-39.272676,0.0],[175.574024,-39.272672,0.0],[175.574018,-39.272942,0.0],[175.573323,-39.272933,0.0],[175.573312,-39.273474,0.0],[175.572964,-39.27347,0.0],[175.572959,-39.27374,0.0],[175.572611,-39.273736,0.0],[175.572606,-39.274006,0.0],[175.572792,-39.274008,0.0],[175.572953,-39.27401,0.0],[175.572948,-39.274258,0.0],[175.573039,-39.274232,0.0],[175.573212,-39.274184,0.0],[175.573289,-39.274162,0.0],[175.573385,-39.274145,0.0],[175.57344,-39.274139,0.0],[175.573503,-39.274141,0.0],[175.574088,-39.274157,0.0],[175.574145,-39.274161,0.0],[175.574199,-39.274161,0.0],[175.574267,-39.274154,0.0],[175.574362,-39.274141,0.0],[175.574401,-39.274131,0.0],[175.57448,-39.274103,0.0],[175.57456,-39.274075,0.0],[175.574612,-39.274061,0.0],[175.574678,-39.27404,0.0],[175.574692,-39.274043,0.0],[175.574732,-39.274051,0.0],[175.574811,-39.274043,0.0],[175.574892,-39.274045,0.0],[175.574932,-39.274042,0.0],[175.574954,-39.274035,0.0],[175.574999,-39.27402,0.0],[175.575065,-39.273998,0.0],[175.575118,-39.273962,0.0],[175.575172,-39.273935,0.0],[175.575252,-39.273879,0.0],[175.575292,-39.273847,0.0],[175.575374,-39.273817,0.0],[175.575443,-39.2738,0.0],[175.575527,-39.273781,0.0],[175.575583,-39.273779,0.0],[175.575667,-39.273781,0.0],[175.57571,-39.273794,0.0],[175.575752,-39.273796,0.0],[175.575837,-39.2738,0.0],[175.575895,-39.273814,0.0],[175.575966,-39.273826,0.0],[175.576025,-39.273854,0.0],[175.57611,-39.273851,0.0],[175.576167,-39.273854,0.0],[175.576224,-39.273856,0.0],[175.576296,-39.273869,0.0],[175.576354,-39.273871,0.0],[175.57644,-39.273893,0.0],[175.576484,-39.273909,0.0],[175.576541,-39.273922,0.0],[175.576614,-39.273944,0.0],[175.576686,-39.273966,0.0],[175.576759,-39.273999,0.0],[175.576817,-39.274054,0.0],[175.576847,-39.274108,0.0],[175.576863,-39.274177,0.0],[175.576878,-39.274231,0.0],[175.576907,-39.274272,0.0],[175.576907,-39.274312,0.0],[175.576908,-39.274329,0.0],[175.57712,-39.274331,0.0],[175.577116,-39.274515,0.0],[175.577114,-39.274643,0.0],[175.577167,-39.27468,0.0],[175.577195,-39.274715,0.0],[175.577252,-39.274782,0.0],[175.577295,-39.27481,0.0],[175.577323,-39.274864,0.0],[175.577365,-39.27491,0.0],[175.577394,-39.274945,0.0],[175.577436,-39.275,0.0],[175.57745,-39.275021,0.0],[175.57752,-39.27509,0.0],[175.57752,-39.275122,0.0],[175.577561,-39.275206,0.0],[175.577588,-39.275298,0.0],[175.577602,-39.275343,0.0],[175.577629,-39.27541,0.0],[175.577657,-39.275488,0.0],[175.577656,-39.27553,0.0],[175.577656,-39.275561,0.0],[175.577642,-39.275612,0.0],[175.577614,-39.27567,0.0],[175.577572,-39.275705,0.0],[175.577545,-39.275733,0.0],[175.577517,-39.275793,0.0],[175.577503,-39.275813,0.0],[175.577489,-39.275875,0.0],[175.577489,-39.275938,0.0],[175.577489,-39.276011,0.0],[175.577529,-39.276065,0.0],[175.577529,-39.276106,0.0],[175.57757,-39.276166,0.0],[175.577583,-39.276223,0.0],[175.577583,-39.276259,0.0],[175.577555,-39.276319,0.0],[175.577555,-39.276365,0.0],[175.577554,-39.276434,0.0],[175.577594,-39.276481,0.0],[175.577661,-39.276527,0.0],[175.57766,-39.276598,0.0],[175.57766,-39.276633,0.0],[175.577712,-39.276723,0.0],[175.577724,-39.27678,0.0],[175.577737,-39.276836,0.0],[175.57775,-39.27687,0.0],[175.577802,-39.276938,0.0],[175.577827,-39.276988,0.0],[175.577827,-39.277016,0.0],[175.577866,-39.277077,0.0],[175.577878,-39.277133,0.0],[175.577878,-39.277169,0.0],[175.577877,-39.277214,0.0],[175.577864,-39.277239,0.0],[175.577811,-39.277286,0.0],[175.577785,-39.277321,0.0],[175.577784,-39.277351,0.0],[175.577732,-39.277388,0.0],[175.577705,-39.277437,0.0],[175.577652,-39.277484,0.0],[175.577613,-39.277517,0.0],[175.577587,-39.277539,0.0],[175.577573,-39.277607,0.0],[175.577521,-39.277674,0.0],[175.577507,-39.277707,0.0],[175.577468,-39.277762,0.0],[175.577619,-39.278116,0.0],[175.577669,-39.278239,0.0],[175.577668,-39.278291,0.0],[175.577667,-39.278393,0.0],[175.578081,-39.278398,0.0],[175.57807,-39.278938,0.0],[175.578418,-39.278943,0.0],[175.578407,-39.279483,0.0],[175.578755,-39.279487,0.0],[175.578754,-39.27952,0.0],[175.578785,-39.279532,0.0],[175.578817,-39.279547,0.0],[175.578843,-39.279558,0.0],[175.578881,-39.279577,0.0],[175.578913,-39.279593,0.0],[175.578945,-39.279611,0.0],[175.57897,-39.279629,0.0],[175.578996,-39.279642,0.0],[175.579021,-39.27965,0.0],[175.579046,-39.279657,0.0],[175.579072,-39.279704,0.0],[175.579078,-39.279714,0.0],[175.57909,-39.279735,0.0],[175.579115,-39.279762,0.0],[175.579134,-39.279809,0.0],[175.579158,-39.279854,0.0],[175.579164,-39.279877,0.0],[175.579182,-39.279914,0.0],[175.579188,-39.279929,0.0],[175.579206,-39.279952,0.0],[175.579231,-39.279969,0.0],[175.579243,-39.279977,0.0],[175.579267,-39.279993,0.0],[175.579322,-39.280016,0.0],[175.579347,-39.280026,0.0],[175.579371,-39.280025,0.0],[175.579407,-39.280048,0.0],[175.579431,-39.280062,0.0],[175.57948,-39.280081,0.0],[175.57951,-39.280086,0.0],[175.579523,-39.280083,0.0],[175.579579,-39.280073,0.0],[175.579616,-39.280076,0.0],[175.579622,-39.280075,0.0],[175.579648,-39.280071,0.0],[175.579672,-39.280071,0.0],[175.57971,-39.280069,0.0],[175.579741,-39.280069,0.0],[175.579785,-39.280071,0.0],[175.579816,-39.28007,0.0],[175.579859,-39.280077,0.0],[175.579884,-39.280087,0.0],[175.579928,-39.280085,0.0],[175.579972,-39.280087,0.0],[175.580022,-39.280088,0.0],[175.580077,-39.280108,0.0],[175.5801,-39.280129,0.0],[175.580124,-39.280134,0.0],[175.580156,-39.280137,0.0],[175.580168,-39.280139,0.0],[175.580185,-39.280159,0.0],[175.580235,-39.280172,0.0],[175.580286,-39.28017,0.0],[175.58033,-39.280175,0.0],[175.580374,-39.280176,0.0],[175.580393,-39.280177,0.0],[175.580412,-39.280183,0.0],[175.580443,-39.280187,0.0],[175.58048,-39.280199,0.0],[175.580483,-39.280049,0.0],[175.581178,-39.280057,0.0],[175.581183,-39.279787,0.0],[175.581879,-39.279796,0.0],[175.581873,-39.280066,0.0],[175.581526,-39.280062,0.0],[175.58152,-39.280332,0.0],[175.581173,-39.280328,0.0],[175.581167,-39.280598,0.0],[175.581047,-39.280596,0.0],[175.580678,-39.280592,0.0],[175.580483,-39.28059,0.0],[175.580462,-39.280593,0.0],[175.580443,-39.280597,0.0],[175.580406,-39.280604,0.0],[175.580374,-39.280609,0.0],[175.580349,-39.280614,0.0],[175.580306,-39.280622,0.0],[175.580255,-39.280635,0.0],[175.580193,-39.280648,0.0],[175.580137,-39.280657,0.0],[175.580076,-39.280667,0.0],[175.580039,-39.280671,0.0],[175.580009,-39.280673,0.0],[175.579979,-39.280675,0.0],[175.579949,-39.280678,0.0],[175.579908,-39.280673,0.0],[175.579855,-39.280667,0.0],[175.579825,-39.28067,0.0],[175.579779,-39.280663,0.0],[175.579743,-39.280664,0.0],[175.57972,-39.280658,0.0],[175.579691,-39.280658,0.0],[175.579639,-39.280652,0.0],[175.579593,-39.280645,0.0],[175.579581,-39.280642,0.0],[175.579512,-39.280639,0.0],[175.579465,-39.280642,0.0],[175.579424,-39.280644,0.0],[175.579396,-39.280634,0.0],[175.579356,-39.280626,0.0],[175.579332,-39.28063,0.0],[175.579315,-39.280628,0.0],[175.579298,-39.280616,0.0],[175.579246,-39.28062,0.0],[175.579217,-39.280615,0.0],[175.579166,-39.280614,0.0],[175.579143,-39.280598,0.0],[175.579108,-39.280588,0.0],[175.579086,-39.280572,0.0],[175.579068,-39.280565,0.0],[175.57904,-39.280557,0.0],[175.579011,-39.280544,0.0],[175.578976,-39.280536,0.0],[175.578953,-39.280521,0.0],[175.578918,-39.280504,0.0],[175.578884,-39.280487,0.0],[175.578866,-39.280481,0.0],[175.578843,-39.280471,0.0],[175.57882,-39.280461,0.0],[175.578802,-39.280446,0.0],[175.578767,-39.280438,0.0],[175.578736,-39.280431,0.0],[175.578733,-39.280568,0.0],[175.578385,-39.280564,0.0],[175.57839,-39.280318,0.0],[175.578364,-39.280307,0.0],[175.578322,-39.280294,0.0],[175.578319,-39.280293,0.0],[175.577348,-39.280281,0.0],[175.577353,-39.280011,0.0],[175.577005,-39.280006,0.0],[175.577008,-39.279856,0.0],[175.577011,-39.279736,0.0],[175.576827,-39.279734,0.0],[175.576663,-39.279732,0.0],[175.576665,-39.279653,0.0],[175.57666,-39.279651,0.0],[175.576622,-39.279638,0.0],[175.576579,-39.279613,0.0],[175.576552,-39.279598,0.0],[175.576524,-39.279583,0.0],[175.576007,-39.279551,0.0],[175.575929,-39.279549,0.0],[175.575747,-39.279536,0.0],[175.575551,-39.279518,0.0],[175.57541,-39.279473,0.0],[175.575348,-39.279471,0.0],[175.575291,-39.279453,0.0],[175.575154,-39.279447,0.0],[175.575023,-39.279423,0.0],[175.574891,-39.2794,0.0],[175.574826,-39.27941,0.0],[175.574673,-39.279408,0.0],[175.574571,-39.279384,0.0],[175.57447,-39.27936,0.0],[175.574282,-39.279369,0.0],[175.574103,-39.279346,0.0],[175.574063,-39.279324,0.0],[175.573973,-39.279313,0.0],[175.573908,-39.279326,0.0],[175.573833,-39.279316,0.0],[175.573727,-39.279303,0.0],[175.573638,-39.279284,0.0],[175.573566,-39.27926,0.0],[175.573503,-39.279264,0.0],[175.573429,-39.279253,0.0],[175.573347,-39.279207,0.0],[175.573232,-39.279173,0.0],[175.573178,-39.279138,0.0],[175.573145,-39.27908,0.0],[175.573111,-39.279023,0.0],[175.573057,-39.278987,0.0],[175.572977,-39.278925,0.0],[175.572901,-39.278917,0.0],[175.572828,-39.278892,0.0],[175.572801,-39.278869,0.0],[175.572769,-39.278787,0.0],[175.572675,-39.278786,0.0],[175.572634,-39.278752,0.0],[175.572524,-39.278756,0.0],[175.572445,-39.278765,0.0],[175.572352,-39.278763,0.0],[175.572244,-39.278761,0.0],[175.572187,-39.27873,0.0],[175.572058,-39.278763,0.0],[175.571949,-39.278776,0.0],[175.571843,-39.278771,0.0],[175.571764,-39.278787,0.0],[175.571642,-39.278797,0.0],[175.57155,-39.278803,0.0],[175.571475,-39.278791,0.0],[175.571428,-39.278805,0.0],[175.571325,-39.278779,0.0],[175.571208,-39.278742,0.0],[175.571149,-39.278725,0.0],[175.571119,-39.278716,0.0],[175.571116,-39.278853,0.0],[175.56903,-39.278827,0.0],[175.569035,-39.278557,0.0],[175.567992,-39.278544,0.0],[175.567998,-39.278274,0.0],[175.566955,-39.278261,0.0],[175.56696,-39.277991,0.0],[175.565988,-39.277979,0.0],[175.565917,-39.277981,0.0],[175.565183,-39.278,0.0],[175.565892,-39.278213,0.0],[175.565803,-39.278355,0.0],[175.565303,-39.278346,0.0],[175.564944,-39.278343,0.0],[175.564918,-39.278342,0.0],[175.564842,-39.278827,0.0],[175.564684,-39.279106,0.0],[175.56403,-39.279055,0.0],[175.562858,-39.279148,0.0],[175.562519,-39.279426,0.0],[175.56212,-39.279824,0.0],[175.562053,-39.279866,0.0],[175.5617,-39.280089,0.0],[175.561695,-39.280359,0.0],[175.561601,-39.280358,0.0],[175.561337,-39.280355,0.0],[175.561405,-39.280478,0.0],[175.561365,-39.280474,0.0],[175.561323,-39.280472,0.0],[175.56128,-39.280471,0.0],[175.561149,-39.28047,0.0],[175.560883,-39.280472,0.0],[175.560706,-39.280473,0.0],[175.560488,-39.280472,0.0],[175.560617,-39.280841,0.0],[175.560918,-39.281134,0.0],[175.561238,-39.281286,0.0],[175.56157,-39.281275,0.0],[175.56169,-39.281628,0.0],[175.561806,-39.282422,0.0],[175.56194,-39.282781,0.0],[175.561501,-39.282894,0.0],[175.561272,-39.28304,0.0],[175.561225,-39.283069,0.0],[175.561226,-39.283104,0.0],[175.561224,-39.283139,0.0],[175.561216,-39.283173,0.0],[175.561204,-39.283203,0.0],[175.561185,-39.283228,0.0],[175.56116,-39.283248,0.0],[175.561128,-39.283262,0.0],[175.561094,-39.283274,0.0],[175.561022,-39.283293,0.0],[175.560988,-39.283304,0.0],[175.560957,-39.283319,0.0],[175.560931,-39.283338,0.0],[175.560913,-39.283363,0.0],[175.560901,-39.283392,0.0],[175.560894,-39.283425,0.0],[175.560891,-39.283459,0.0],[175.560893,-39.283494,0.0],[175.560899,-39.283526,0.0],[175.560911,-39.283556,0.0],[175.560929,-39.283581,0.0],[175.560954,-39.283599,0.0],[175.560984,-39.283613,0.0],[175.561018,-39.283624,0.0],[175.561088,-39.283643,0.0],[175.561122,-39.283654,0.0],[175.561152,-39.283668,0.0],[175.561177,-39.283687,0.0],[175.561196,-39.283713,0.0],[175.561209,-39.283745,0.0],[175.561218,-39.28378,0.0],[175.561224,-39.283819,0.0],[175.561227,-39.283859,0.0],[175.56123,-39.283901,0.0],[175.561232,-39.283991,0.0],[175.561234,-39.284073,0.0],[175.561236,-39.284115,0.0],[175.561239,-39.284156,0.0],[175.561245,-39.284194,0.0],[175.561253,-39.28423,0.0],[175.561266,-39.284261,0.0],[175.561284,-39.284287,0.0],[175.561309,-39.284306,0.0],[175.561338,-39.284321,0.0],[175.561371,-39.284332,0.0],[175.562135,-39.284395,0.0],[175.562208,-39.28442,0.0],[175.56241,-39.284422,0.0],[175.562655,-39.284425,0.0],[175.562654,-39.284455,0.0],[175.563083,-39.284511,0.0]]]}},{"type":"Feature","properties":{"rgi_id":"RGI2000-v7.0-G-18-03016","o1region":"18"},"geometry":{"type":"Polygon","coordinates":[[[175.556274,-39.269323,0.0],[175.556295,-39.269166,0.0],[175.55619,-39.268812,0.0],[175.556047,-39.268327,0.0],[175.556438,-39.268121,0.0],[175.556904,-39.268984,0.0],[175.557375,-39.270531,0.0],[175.557398,-39.270607,0.0],[175.557604,-39.270802,0.0],[175.558299,-39.271461,0.0],[175.558301,-39.272107,0.0],[175.558303,-39.272559,0.0],[175.558137,-39.273971,0.0],[175.558125,-39.274134,0.0],[175.55804,-39.275298,0.0],[175.557211,-39.275429,0.0],[175.557008,-39.275267,0.0],[175.556649,-39.27498,0.0],[175.556353,-39.274743,0.0],[175.556021,-39.273595,0.0],[175.556296,-39.272181,0.0],[175.556307,-39.271504,0.0],[175.556103,-39.270861,0.0],[175.556181,-39.270014,0.0],[175.556274,-39.269323,0.0]]]}},{"type":"Feature","properties":{"rgi_id":"RGI2000-v7.0-G-18-03017","o1region":"18"},"geometry":{"type":"Polygon","coordinates":[[[175.563109,-39.266329,0.0],[175.562995,-39.267233,0.0],[175.562983,-39.267332,0.0],[175.562973,-39.267368,0.0],[175.562959,-39.267399,0.0],[175.56294,-39.267425,0.0],[175.562915,-39.267444,0.0],[175.562884,-39.267458,0.0],[175.562851,-39.267469,0.0],[175.56278,-39.267487,0.0],[175.562747,-39.267498,0.0],[175.562717,-39.267512,0.0],[175.562692,-39.267531,0.0],[175.562674,-39.267557,0.0],[175.562661,-39.267589,0.0],[175.562652,-39.267624,0.0],[175.562647,-39.267663,0.0],[175.562643,-39.267703,0.0],[175.562642,-39.267745,0.0],[175.562639,-39.267919,0.0],[175.562637,-39.267961,0.0],[175.562634,-39.268002,0.0],[175.562629,-39.268041,0.0],[175.562621,-39.268076,0.0],[175.562609,-39.268108,0.0],[175.562591,-39.268134,0.0],[175.562566,-39.268153,0.0],[175.562535,-39.268166,0.0],[175.562499,-39.268174,0.0],[175.562461,-39.26818,0.0],[175.562421,-39.268184,0.0],[175.562379,-39.268186,0.0],[175.562292,-39.268187,0.0],[175.561935,-39.268185,0.0],[175.56162,-39.268185,0.0],[175.561531,-39.268184,0.0],[175.561488,-39.268183,0.0],[175.561445,-39.268181,0.0],[175.561404,-39.268177,0.0],[175.561365,-39.26817,0.0],[175.561329,-39.268161,0.0],[175.561297,-39.268148,0.0],[175.561271,-39.26813,0.0],[175.561253,-39.268104,0.0],[175.561241,-39.268074,0.0],[175.561235,-39.26804,0.0],[175.561233,-39.268005,0.0],[175.561235,-39.26797,0.0],[175.561242,-39.267937,0.0],[175.561253,-39.267906,0.0],[175.561272,-39.267881,0.0],[175.561298,-39.267863,0.0],[175.561329,-39.26785,0.0],[175.561366,-39.267841,0.0],[175.561405,-39.267835,0.0],[175.561446,-39.267831,0.0],[175.561489,-39.267829,0.0],[175.561533,-39.267828,0.0],[175.561623,-39.267828,0.0],[175.561941,-39.267832,0.0],[175.562029,-39.267831,0.0],[175.562148,-39.267489,0.0],[175.562076,-39.267469,0.0],[175.562041,-39.267458,0.0],[175.56201,-39.267444,0.0],[175.561984,-39.267425,0.0],[175.561966,-39.2674,0.0],[175.561954,-39.26737,0.0],[175.561947,-39.267337,0.0],[175.561944,-39.267303,0.0],[175.561946,-39.267268,0.0],[175.561952,-39.267235,0.0],[175.561963,-39.267205,0.0],[175.561981,-39.26718,0.0],[175.562005,-39.267161,0.0],[175.562035,-39.267147,0.0],[175.562068,-39.267136,0.0],[175.562138,-39.267116,0.0],[175.562172,-39.267105,0.0],[175.562202,-39.26709,0.0],[175.562227,-39.267071,0.0],[175.562247,-39.267045,0.0],[175.562261,-39.267015,0.0],[175.562272,-39.266982,0.0],[175.562292,-39.266912,0.0],[175.562303,-39.266878,0.0],[175.562318,-39.266848,0.0],[175.562337,-39.266823,0.0],[175.562364,-39.266804,0.0],[175.562395,-39.266791,0.0],[175.562431,-39.266781,0.0],[175.56247,-39.266775,0.0],[175.562511,-39.26677,0.0],[175.562553,-39.266768,0.0],[175.562596,-39.266766,0.0],[175.56264,-39.266765,0.0],[175.562684,-39.266766,0.0],[175.562727,-39.266767,0.0],[175.56282,-39.266233,0.0],[175.562806,-39.265852,0.0],[175.56318,-39.26509,0.0],[175.563276,-39.265641,0.0],[175.563109,-39.266329,0.0]]]}},{"type":"Feature","properties":{"rgi_id":"RGI2000-v7.0-G-18-03018","o1region":"18"},"geometry":{"type":"Polygon","coordinates":[[[175.576692,-39.264265,0.0],[175.576693,-39.264354,0.0],[175.576692,-39.264713,0.0],[175.576695,-39.265025,0.0],[175.576693,-39.265112,0.0],[175.576692,-39.265154,0.0],[175.576688,-39.265195,0.0],[175.576683,-39.265234,0.0],[175.576674,-39.265269,0.0],[175.576661,-39.2653,0.0],[175.576643,-39.265326,0.0],[175.576617,-39.265344,0.0],[175.576586,-39.265357,0.0],[175.576551,-39.265365,0.0],[175.576512,-39.265371,0.0],[175.576472,-39.265374,0.0],[175.576429,-39.265376,0.0],[175.576386,-39.265377,0.0],[175.576298,-39.265377,0.0],[175.575985,-39.265375,0.0],[175.575628,-39.265377,0.0],[175.575541,-39.265376,0.0],[175.575499,-39.265374,0.0],[175.575458,-39.265371,0.0],[175.57542,-39.265365,0.0],[175.575384,-39.265357,0.0],[175.575353,-39.265344,0.0],[175.575327,-39.265325,0.0],[175.575309,-39.2653,0.0],[175.575296,-39.265268,0.0],[175.575287,-39.265233,0.0],[175.575282,-39.265194,0.0],[175.575278,-39.265153,0.0],[175.575276,-39.265111,0.0],[175.575274,-39.265023,0.0],[175.575274,-39.264799,0.0],[175.575274,-39.264664,0.0],[175.575276,-39.264577,0.0],[175.575278,-39.264534,0.0],[175.575282,-39.264494,0.0],[175.575288,-39.264455,0.0],[175.575296,-39.26442,0.0],[175.575309,-39.264388,0.0],[175.575328,-39.264363,0.0],[175.575353,-39.264344,0.0],[175.575385,-39.264332,0.0],[175.57542,-39.264323,0.0],[175.575459,-39.264318,0.0],[175.5755,-39.264315,0.0],[175.575542,-39.264313,0.0],[175.575586,-39.264312,0.0],[175.575674,-39.264313,0.0],[175.575943,-39.264318,0.0],[175.576031,-39.264318,0.0],[175.576074,-39.264316,0.0],[175.576116,-39.264314,0.0],[175.576157,-39.26431,0.0],[175.576195,-39.264304,0.0],[175.57623,-39.264295,0.0],[175.576261,-39.264282,0.0],[175.576287,-39.264263,0.0],[175.576306,-39.264237,0.0],[175.576321,-39.264206,0.0],[175.576332,-39.264172,0.0],[175.57635,-39.264101,0.0],[175.576361,-39.264067,0.0],[175.576375,-39.264036,0.0],[175.576394,-39.264011,0.0],[175.576419,-39.263992,0.0],[175.576449,-39.26398,0.0],[175.576482,-39.263973,0.0],[175.576517,-39.26397,0.0],[175.576551,-39.263971,0.0],[175.576584,-39.263978,0.0],[175.576614,-39.263989,0.0],[175.576639,-39.264007,0.0],[175.576657,-39.264032,0.0],[175.57667,-39.264063,0.0],[175.576679,-39.264099,0.0],[175.576685,-39.264138,0.0],[175.576689,-39.264179,0.0],[175.576691,-39.264221,0.0],[175.576692,-39.264265,0.0]]]}}]}
