{"type":"FeatureCollection","features":[{"type":"Feature","properties":{"rgi_id":"RGI2000-v7.0-G-03-03117","o1region":"03"},"geometry":{"type":"Polygon","coordinates":[[[-88.226833,78.577955,0.0],[-88.23078,78.57944,0.0],[-88.235567,78.580749,0.0],[-88.235364,78.580805,0.0],[-88.232781,78.581129,0.0],[-88.22996,78.58152,0.0],[-88.233332,78.584097,0.0],[-88.233593,78.584708,0.0],[-88.221706,78.585468,0.0],[-88.218091,78.586463,0.0],[-88.21925,78.587419,0.0],[-88.224529,78.586689,0.0],[-88.231927,78.587006,0.0],[-88.234554,78.588299,0.0],[-88.231242,78.589562,0.0],[-88.230375,78.59049,0.0],[-88.217602,78.593491,0.0],[-88.216608,78.594553,0.0],[-88.2065,78.595819,0.0],[-88.204145,78.596466,0.0],[-88.197511,78.596889,0.0],[-88.192335,78.597297,0.0],[-88.189437,78.597345,0.0],[-88.183181,78.599062,0.0],[-88.180687,78.60056,0.0],[-88.176165,78.602081,0.0],[-88.168687,78.60357,0.0],[-88.166129,78.603612,0.0],[-88.163377,78.603701,0.0],[-88.154905,78.603063,0.0],[-88.149085,78.602684,0.0],[-88.146265,78.602471,0.0],[-88.142006,78.602315,0.0],[-88.136962,78.601934,0.0],[-88.128912,78.600997,0.0],[-88.124488,78.600574,0.0],[-88.113557,78.599301,0.0],[-88.108325,78.598799,0.0],[-88.102479,78.598118,0.0],[-88.098057,78.597694,0.0],[-88.096424,78.597181,0.0],[-88.089584,78.595802,0.0],[-88.085784,78.595553,0.0],[-88.084314,78.595307,0.0],[-88.082948,78.595351,0.0],[-88.080734,78.595387,0.0],[-88.074633,78.593471,0.0],[-88.068717,78.593084,0.0],[-88.065998,78.592229,0.0],[-88.060605,78.59114,0.0],[-88.046654,78.589938,0.0],[-88.046317,78.589119,0.0],[-88.057682,78.588936,0.0],[-88.069088,78.5898,0.0],[-88.081637,78.589398,0.0],[-88.090045,78.587927,0.0],[-88.085169,78.586206,0.0],[-88.086495,78.58552,0.0],[-88.087456,78.584945,0.0],[-88.090899,78.583789,0.0],[-88.094061,78.582349,0.0],[-88.099097,78.581894,0.0],[-88.103311,78.582895,0.0],[-88.108329,78.582203,0.0],[-88.109568,78.580891,0.0],[-88.113007,78.579735,0.0],[-88.114111,78.579073,0.0],[-88.11327,78.57805,0.0],[-88.106939,78.576633,0.0],[-88.104264,78.575473,0.0],[-88.110593,78.573559,0.0],[-88.108181,78.573469,0.0],[-88.108274,78.573445,0.0],[-88.112994,78.572404,0.0],[-88.116396,78.571981,0.0],[-88.12114,78.571213,0.0],[-88.12736,78.570713,0.0],[-88.13218384277353,78.57017911213323,0.0],[-88.136933,78.570811,0.0],[-88.154905,78.57156,0.0],[-88.16703,78.572331,0.0],[-88.171634,78.573609,0.0],[-88.176963,78.575225,0.0],[-88.180206,78.576645,0.0],[-88.185411,78.577033,0.0],[-88.192935,78.576525,0.0],[-88.198028,78.575822,0.0],[-88.211142,78.57611,0.0],[-88.217653,78.57581,0.0],[-88.22075019350207,78.57531528050102,0.0],[-88.221504,78.576408,0.0],[-88.226833,78.577955,0.0]]]}},{"type":"Feature","properties":{"rgi_id":"RGI2000-v7.0-G-03-03118","o1region":"03"},"geometry":{"type":"Polygon","coordinates":[[[-88.060495,78.560043,0.0],[-88.073415,78.557611,0.0],[-88.080905,78.556833,0.0],[-88.093453,78.555013,0.0],[-88.095755,78.553913,0.0],[-88.107605,78.555642,0.0],[-88.11396,78.557392,0.0],[-88.123767,78.559265,0.0],[-88.129432,78.560948,0.0],[-88.13061,78.562445,0.0],[-88.132615,78.56537,0.0],[-88.133246,78.568301,0.0],[-88.133757,78.570005,0.0],[-88.12736,78.570713,0.0],[-88.12114,78.571213,0.0],[-88.116396,78.571981,0.0],[-88.112994,78.572404,0.0],[-88.108274,78.573445,0.0],[-88.108181,78.573469,0.0],[-88.105596,78.573373,0.0],[-88.101798,78.572646,0.0],[-88.106164,78.570989,0.0],[-88.106226,78.570965,0.0],[-88.107185,78.57039,0.0],[-88.108375,78.569773,0.0],[-88.107498,78.568704,0.0],[-88.103518,78.567571,0.0],[-88.095613,78.567053,0.0],[-88.087194,78.567877,0.0],[-88.077135,78.568616,0.0],[-88.071196,78.569657,0.0],[-88.062871,78.569791,0.0],[-88.035685,78.571275,0.0],[-88.021343,78.572238,0.0],[-88.016857,78.572245,0.0],[-88.019172,78.57105,0.0],[-88.030989,78.569263,0.0],[-88.032119,78.568074,0.0],[-88.04237,78.565947,0.0],[-88.056604,78.563298,0.0],[-88.065339,78.562208,0.0],[-88.0663,78.561633,0.0],[-88.067443,78.56104,0.0],[-88.060495,78.560043,0.0]]]}},{"type":"Feature","properties":{"rgi_id":"RGI2000-v7.0-G-03-03119","o1region":"03"},"geometry":{"type":"Polygon","coordinates":[[[-88.131179,78.54761,0.0],[-88.130205,78.547711,0.0],[-88.111284,78.550989,0.0],[-88.101524,78.553141,0.0],[-88.098239,78.554275,0.0],[-88.095755,78.553913,0.0],[-88.093453,78.555013,0.0],[-88.080905,78.556833,0.0],[-88.073415,78.557611,0.0],[-88.060495,78.560043,0.0],[-88.059842,78.559949,0.0],[-88.057012,78.559057,0.0],[-88.056485,78.558891,0.0],[-88.052243,78.558733,0.0],[-88.047928,78.558285,0.0],[-88.043442,78.558133,0.0],[-88.038685,78.558789,0.0],[-88.034756,78.559143,0.0],[-88.033632,78.559452,0.0],[-88.022675,78.560145,0.0],[-88.019326,78.560607,0.0],[-88.015926,78.56103,0.0],[-88.010037,78.56104,0.0],[-88.013952,78.559018,0.0],[-88.021086,78.556775,0.0],[-88.02196,78.555855,0.0],[-88.024552,78.555338,0.0],[-88.032056,78.55591,0.0],[-88.036213,78.554771,0.0],[-88.037939,78.553181,0.0],[-88.031715,78.551918,0.0],[-88.028467,78.550893,0.0],[-88.02504,78.549913,0.0],[-88.021061,78.547437,0.0],[-88.023059,78.546403,0.0],[-88.022331,78.545507,0.0],[-88.02198,78.544643,0.0],[-88.027379,78.542595,0.0],[-88.028385,78.541534,0.0],[-88.031983,78.541085,0.0],[-88.038187,78.539806,0.0],[-88.043091,78.539193,0.0],[-88.050631,78.538006,0.0],[-88.057485,78.538305,0.0],[-88.060176,78.538218,0.0],[-88.063835,78.538159,0.0],[-88.08154,78.537389,0.0],[-88.090902,78.537237,0.0],[-88.094812,78.53711,0.0],[-88.102936,78.537554,0.0],[-88.113606,78.539347,0.0],[-88.117485,78.541203,0.0],[-88.118035,78.541467,0.0],[-88.121817,78.542009,0.0],[-88.12582,78.542681,0.0],[-88.129191,78.544146,0.0],[-88.131851,78.545215,0.0],[-88.130337,78.546003,0.0],[-88.129905,78.547427,0.0],[-88.131179,78.54761,0.0]]]}},{"type":"Feature","properties":{"rgi_id":"RGI2000-v7.0-G-03-03120","o1region":"03"},"geometry":{"type":"Polygon","coordinates":[[[-87.69634,78.732324,0.0],[-87.692088,78.73213,0.0],[-87.68665,78.730924,0.0],[-87.681907,78.730395,0.0],[-87.680707,78.730365,0.0],[-87.679416,78.730682,0.0],[-87.676634,78.730976,0.0],[-87.673684,78.730984,0.0],[-87.668009,78.73088,0.0],[-87.665026,78.730832,0.0],[-87.662009,78.730726,0.0],[-87.6597,78.730316,0.0],[-87.6595,78.729974,0.0],[-87.649334,78.730779,0.0],[-87.647651,78.730932,0.0],[-87.644401,78.730427,0.0],[-87.642377,78.72949,0.0],[-87.643227,78.727912,0.0],[-87.643852,78.726454,0.0],[-87.645477,78.724685,0.0],[-87.646685,78.721193,0.0],[-87.645719,78.719539,0.0],[-87.64666,78.717612,0.0],[-87.648865,78.715831,0.0],[-87.657652,78.71471,0.0],[-87.658168,78.714583,0.0],[-87.660007,78.714195,0.0],[-87.661779,78.713693,0.0],[-87.665264,78.713095,0.0],[-87.668243,78.713144,0.0],[-87.671097,78.713484,0.0],[-87.676191,78.71412,0.0],[-87.681386,78.714928,0.0],[-87.686558,78.716198,0.0],[-87.691048,78.71731,0.0],[-87.695214,78.718371,0.0],[-87.69639,78.718864,0.0],[-87.69705,78.719485,0.0],[-87.698002,78.720099,0.0],[-87.698404,78.720783,0.0],[-87.698549,78.72153,0.0],[-87.699636,78.722372,0.0],[-87.700363,78.723107,0.0],[-87.699678,78.724451,0.0],[-87.699509,78.725667,0.0],[-87.699531,78.726707,0.0],[-87.699517,78.729191,0.0],[-87.699864,78.73028,0.0],[-87.699201,78.731162,0.0],[-87.698079,78.731765,0.0],[-87.69634,78.732324,0.0]]]}},{"type":"Feature","properties":{"rgi_id":"RGI2000-v7.0-G-03-03121","o1region":"03"},"geometry":{"type":"Polygon","coordinates":[[[-87.607677,78.733324,0.0],[-87.600542,78.733251,0.0],[-87.600278,78.732795,0.0],[-87.600656,78.73192,0.0],[-87.602235,78.731077,0.0],[-87.602977,78.730829,0.0],[-87.604853,78.730499,0.0],[-87.608413,78.730015,0.0],[-87.611913,78.729938,0.0],[-87.617329,78.730106,0.0],[-87.621677,78.730471,0.0],[-87.625118,78.730799,0.0],[-87.628109,78.731368,0.0],[-87.6299,78.731905,0.0],[-87.631008,78.732285,0.0],[-87.633283,78.732638,0.0],[-87.636724,78.732966,0.0],[-87.639683,78.733478,0.0],[-87.640274,78.733984,0.0],[-87.637165,78.734227,0.0],[-87.634506,78.734228,0.0],[-87.627688,78.733687,0.0],[-87.624863,78.733404,0.0],[-87.618863,78.733248,0.0],[-87.617013,78.733116,0.0],[-87.611987,78.733112,0.0],[-87.607677,78.733324,0.0]]]}},{"type":"Feature","properties":{"rgi_id":"RGI2000-v7.0-G-03-03122","o1region":"03"},"geometry":{"type":"Polygon","coordinates":[[[-87.595067,78.747752,0.0],[-87.584022,78.747072,0.0],[-87.581095,78.746617,0.0],[-87.578654,78.745978,0.0],[-87.57683,78.745383,0.0],[-87.576368,78.744585,0.0],[-87.580391,78.74438,0.0],[-87.586887,78.744872,0.0],[-87.591081,78.745472,0.0],[-87.59349,78.746054,0.0],[-87.595573,78.746586,0.0],[-87.598049,78.747282,0.0],[-87.59773,78.747751,0.0],[-87.595067,78.747752,0.0]]]}},{"type":"Feature","properties":{"rgi_id":"RGI2000-v7.0-G-03-03123","o1region":"03"},"geometry":{"type":"Polygon","coordinates":[[[-87.737205,78.736946,0.0],[-87.730808,78.736629,0.0],[-87.728978,78.736035,0.0],[-87.728281,78.735358,0.0],[-87.728852,78.734825,0.0],[-87.732138,78.733884,0.0],[-87.735212,78.733583,0.0],[-87.736602,78.733436,0.0],[-87.741142,78.732121,0.0],[-87.744046,78.731535,0.0],[-87.745749,78.730919,0.0],[-87.74533,78.729715,0.0],[-87.746741,78.729105,0.0],[-87.752179,78.728809,0.0],[-87.75504,78.729148,0.0],[-87.759068,78.729461,0.0],[-87.760315,78.730068,0.0],[-87.761407,78.73091,0.0],[-87.764113,78.731484,0.0],[-87.765171,78.732268,0.0],[-87.761027,78.733749,0.0],[-87.758225,78.734506,0.0],[-87.754874,78.735333,0.0],[-87.750457,78.736357,0.0],[-87.748597,78.737208,0.0],[-87.7477,78.737691,0.0],[-87.744186,78.73725,0.0],[-87.737205,78.736946,0.0]]]}}]}
