{"type":"FeatureCollection","features":[{"type":"Feature","properties":{"rgi_id":"RGI2000-v7.0-G-12-01889","o1region":"12"},"geometry":{"type":"Polygon","coordinates":[[[46.688374,42.004933,0.0],[46.688913,42.004773,0.0],[46.689173,42.004495,0.0],[46.689215,42.004343,0.0],[46.689209,42.004096,0.0],[46.689279,42.003847,0.0],[46.68935,42.003636,0.0],[46.689418,42.00333,0.0],[46.689414,42.003279,0.0],[46.689382,42.002911,0.0],[46.689116,42.002534,0.0],[46.688851,42.002175,0.0],[46.688258,42.001975,0.0],[46.6881,42.001959,0.0],[46.687925,42.001941,0.0],[46.687539,42.001833,0.0],[46.687228,42.001685,0.0],[46.686994,42.001517,0.0],[46.686656,42.001331,0.0],[46.686319,42.001145,0.0],[46.685909,42.001075,0.0],[46.685345,42.001045,0.0],[46.684885,42.001033,0.0],[46.684427,42.001116,0.0],[46.684073,42.001235,0.0],[46.683851,42.001544,0.0],[46.683857,42.001772,0.0],[46.683943,42.002152,0.0],[46.684052,42.002399,0.0],[46.684134,42.002607,0.0],[46.684166,42.002835,0.0],[46.684093,42.002989,0.0],[46.683867,42.003126,0.0],[46.683588,42.003225,0.0],[46.683206,42.00325,0.0],[46.682874,42.003255,0.0],[46.682364,42.0033,0.0],[46.682136,42.003399,0.0],[46.681864,42.003627,0.0],[46.681868,42.003778,0.0],[46.681926,42.004135,0.0],[46.681997,42.004438,0.0],[46.682064,42.004525,0.0],[46.68225,42.004808,0.0],[46.682409,42.005015,0.0],[46.682516,42.005223,0.0],[46.682523,42.005471,0.0],[46.682529,42.0057,0.0],[46.682536,42.005733,0.0],[46.682587,42.005966,0.0],[46.682709,42.00607,0.0],[46.682718,42.006078,0.0],[46.683179,42.006129,0.0],[46.683559,42.00599,0.0],[46.68381,42.005814,0.0],[46.684085,42.005582,0.0],[46.684334,42.005311,0.0],[46.684481,42.005099,0.0],[46.684834,42.004903,0.0],[46.68529,42.004763,0.0],[46.686311,42.00471,0.0],[46.686875,42.004778,0.0],[46.687517,42.004883,0.0],[46.688183,42.00493,0.0],[46.688374,42.004933,0.0]]]}},{"type":"Feature","properties":{"rgi_id":"RGI2000-v7.0-G-12-01890","o1region":"12"},"geometry":{"type":"Polygon","coordinates":[[[46.688845,41.995651,0.0],[46.688971,41.995606,0.0],[46.689383,41.995457,0.0],[46.689634,41.995311,0.0],[46.689917,41.995116,0.0],[46.689945,41.994996,0.0],[46.689778,41.994689,0.0],[46.688973,41.994463,0.0],[46.688649,41.994301,0.0],[46.688327,41.994186,0.0],[46.688261,41.994116,0.0],[46.687934,41.993834,0.0],[46.687921,41.99382,0.0],[46.687733,41.993728,0.0],[46.687322,41.99362,0.0],[46.686936,41.993549,0.0],[46.686323,41.993539,0.0],[46.685761,41.993547,0.0],[46.685306,41.993744,0.0],[46.68508,41.993881,0.0],[46.684934,41.99415,0.0],[46.684838,41.994419,0.0],[46.684796,41.994498,0.0],[46.684689,41.994573,0.0],[46.684513,41.99469,0.0],[46.684442,41.994901,0.0],[46.684447,41.995091,0.0],[46.684553,41.995242,0.0],[46.684735,41.995354,0.0],[46.684864,41.995371,0.0],[46.685093,41.995368,0.0],[46.685234,41.995336,0.0],[46.685271,41.995327,0.0],[46.685502,41.995343,0.0],[46.685811,41.995434,0.0],[46.686069,41.995525,0.0],[46.686136,41.995602,0.0],[46.6862,41.995676,0.0],[46.686357,41.995788,0.0],[46.686512,41.995843,0.0],[46.686769,41.995915,0.0],[46.687077,41.995949,0.0],[46.687358,41.995945,0.0],[46.68769,41.99594,0.0],[46.687745,41.995902,0.0],[46.68789,41.995803,0.0],[46.688169,41.995723,0.0],[46.688425,41.995719,0.0],[46.688781,41.995657,0.0],[46.688845,41.995651,0.0]]]}},{"type":"Feature","properties":{"rgi_id":"RGI2000-v7.0-G-12-01891","o1region":"12"},"geometry":{"type":"Polygon","coordinates":[[[46.700295,41.962448,0.0],[46.700405,41.962511,0.0],[46.700412,41.962511,0.0],[46.700973,41.962484,0.0],[46.701384,41.962573,0.0],[46.701591,41.962665,0.0],[46.702005,41.96285,0.0],[46.702213,41.962999,0.0],[46.702372,41.963226,0.0],[46.702683,41.963374,0.0],[46.702835,41.963392,0.0],[46.702906,41.963375,0.0],[46.703426,41.963117,0.0],[46.703946,41.962859,0.0],[46.704372,41.962674,0.0],[46.70475,41.962489,0.0],[46.705221,41.962196,0.0],[46.705598,41.961976,0.0],[46.706122,41.961861,0.0],[46.706547,41.961641,0.0],[46.707164,41.961417,0.0],[46.707782,41.961265,0.0],[46.708214,41.961107,0.0],[46.708288,41.960945,0.0],[46.708283,41.960755,0.0],[46.708151,41.960585,0.0],[46.707918,41.960455,0.0],[46.707452,41.960233,0.0],[46.707116,41.960086,0.0],[46.706727,41.959863,0.0],[46.706543,41.959675,0.0],[46.706331,41.959373,0.0],[46.706223,41.959165,0.0],[46.706009,41.958787,0.0],[46.70585,41.95858,0.0],[46.70577,41.958498,0.0],[46.705599,41.958402,0.0],[46.705019,41.958196,0.0],[46.704443,41.958169,0.0],[46.703917,41.958177,0.0],[46.70334,41.958078,0.0],[46.702807,41.957872,0.0],[46.702371,41.957664,0.0],[46.701931,41.957348,0.0],[46.70121,41.957216,0.0],[46.700785,41.957222,0.0],[46.70025,41.957444,0.0],[46.699904,41.957791,0.0],[46.699628,41.957986,0.0],[46.699273,41.958105,0.0],[46.698946,41.958263,0.0],[46.698643,41.95842,0.0],[46.69842,41.958652,0.0],[46.69835,41.95892,0.0],[46.698359,41.959244,0.0],[46.698546,41.959546,0.0],[46.698969,41.960092,0.0],[46.699054,41.960415,0.0],[46.699116,41.960815,0.0],[46.699123,41.961082,0.0],[46.699209,41.961461,0.0],[46.69932,41.961765,0.0],[46.699468,41.962114,0.0],[46.699715,41.962242,0.0],[46.700295,41.962448,0.0]]]}},{"type":"Feature","properties":{"rgi_id":"RGI2000-v7.0-G-12-01892","o1region":"12"},"geometry":{"type":"Polygon","coordinates":[[[46.694879,41.95962,0.0],[46.695198,41.959662,0.0],[46.695395,41.959572,0.0],[46.695603,41.959361,0.0],[46.695776,41.95911,0.0],[46.695973,41.95884,0.0],[46.696094,41.958591,0.0],[46.696239,41.958303,0.0],[46.696403,41.958083,0.0],[46.69641,41.957976,0.0],[46.696455,41.957766,0.0],[46.696524,41.95746,0.0],[46.696596,41.957287,0.0],[46.696694,41.957133,0.0],[46.696798,41.957025,0.0],[46.696843,41.956978,0.0],[46.696966,41.956805,0.0],[46.697112,41.956555,0.0],[46.697121,41.956456,0.0],[46.697132,41.956326,0.0],[46.69715,41.95604,0.0],[46.697144,41.955811,0.0],[46.69701,41.955584,0.0],[46.696827,41.955416,0.0],[46.696668,41.955189,0.0],[46.696355,41.954946,0.0],[46.696069,41.954759,0.0],[46.695838,41.954706,0.0],[46.695328,41.954665,0.0],[46.69527,41.95468,0.0],[46.695098,41.954755,0.0],[46.694717,41.954837,0.0],[46.694363,41.954975,0.0],[46.694112,41.955112,0.0],[46.693985,41.955133,0.0],[46.693628,41.955177,0.0],[46.693299,41.955277,0.0],[46.693175,41.955412,0.0],[46.693127,41.955546,0.0],[46.693132,41.955571,0.0],[46.693156,41.955679,0.0],[46.693263,41.955849,0.0],[46.693397,41.956076,0.0],[46.693555,41.956264,0.0],[46.693712,41.956415,0.0],[46.694029,41.95681,0.0],[46.69405,41.956832,0.0],[46.694213,41.956998,0.0],[46.69445,41.957281,0.0],[46.694634,41.957488,0.0],[46.694847,41.957809,0.0],[46.69493,41.958036,0.0],[46.69496,41.958226,0.0],[46.694966,41.958455,0.0],[46.694896,41.958685,0.0],[46.694824,41.958877,0.0],[46.694765,41.958994,0.0],[46.694716,41.959222,0.0],[46.694879,41.95962,0.0]]]}},{"type":"Feature","properties":{"rgi_id":"RGI2000-v7.0-G-12-01893","o1region":"12"},"geometry":{"type":"Polygon","coordinates":[[[46.657408,41.95321,0.0],[46.656897,41.953217,0.0],[46.656412,41.953224,0.0],[46.655746,41.953157,0.0],[46.655181,41.953013,0.0],[46.654667,41.952887,0.0],[46.654166,41.952721,0.0],[46.652561,41.952631,0.0],[46.651845,41.952684,0.0],[46.651833,41.952822,0.0],[46.651849,41.952933,0.0],[46.652231,41.953388,0.0],[46.652815,41.953761,0.0],[46.653396,41.953991,0.0],[46.654048,41.954506,0.0],[46.654631,41.954831,0.0],[46.65534,41.955107,0.0],[46.655726,41.955197,0.0],[46.656364,41.955187,0.0],[46.656938,41.955179,0.0],[46.657577,41.95517,0.0],[46.657848,41.955239,0.0],[46.658176,41.95526,0.0],[46.658621,41.955492,0.0],[46.658641,41.955508,0.0],[46.658864,41.95558,0.0],[46.659387,41.956049,0.0],[46.659511,41.956161,0.0],[46.659611,41.956419,0.0],[46.65972,41.956684,0.0],[46.659956,41.956947,0.0],[46.660344,41.957113,0.0],[46.660574,41.957129,0.0],[46.660827,41.957107,0.0],[46.660829,41.957106,0.0],[46.661007,41.957066,0.0],[46.661182,41.95693,0.0],[46.661353,41.956622,0.0],[46.661499,41.956372,0.0],[46.661645,41.956065,0.0],[46.661815,41.955758,0.0],[46.662011,41.955431,0.0],[46.662071,41.955346,0.0],[46.662092,41.9551,0.0],[46.661917,41.954635,0.0],[46.661513,41.954303,0.0],[46.660932,41.954073,0.0],[46.66035,41.953795,0.0],[46.659766,41.953423,0.0],[46.65906,41.95329,0.0],[46.658291,41.953158,0.0],[46.658217,41.953141,0.0],[46.658147,41.953142,0.0],[46.657661,41.953149,0.0],[46.657408,41.95321,0.0]]]}},{"type":"Feature","properties":{"rgi_id":"RGI2000-v7.0-G-12-01894","o1region":"12"},"geometry":{"type":"Polygon","coordinates":[[[46.629634,41.950427,0.0],[46.629376,41.950317,0.0],[46.629168,41.950167,0.0],[46.628982,41.949903,0.0],[46.628899,41.949656,0.0],[46.628689,41.949411,0.0],[46.628274,41.949169,0.0],[46.62799,41.949059,0.0],[46.62777,41.949003,0.0],[46.627711,41.948953,0.0],[46.627367,41.9486,0.0],[46.626496,41.948219,0.0],[46.625683,41.948266,0.0],[46.625306,41.948486,0.0],[46.625221,41.948916,0.0],[46.625336,41.949191,0.0],[46.625572,41.94936,0.0],[46.625884,41.949565,0.0],[46.626167,41.949657,0.0],[46.626479,41.949881,0.0],[46.626612,41.950108,0.0],[46.62667,41.950374,0.0],[46.626731,41.950735,0.0],[46.626789,41.951021,0.0],[46.626882,41.951293,0.0],[46.626899,41.951343,0.0],[46.626969,41.951462,0.0],[46.626983,41.951628,0.0],[46.627058,41.951769,0.0],[46.627099,41.951845,0.0],[46.627144,41.951931,0.0],[46.627327,41.952099,0.0],[46.62744,41.952123,0.0],[46.627584,41.952153,0.0],[46.627631,41.952177,0.0],[46.627843,41.952283,0.0],[46.628051,41.952451,0.0],[46.62826,41.95262,0.0],[46.628442,41.95277,0.0],[46.628906,41.952916,0.0],[46.629213,41.95295,0.0],[46.629279,41.952949,0.0],[46.629519,41.952945,0.0],[46.62962,41.952887,0.0],[46.629742,41.952656,0.0],[46.629915,41.952425,0.0],[46.63004,41.952347,0.0],[46.63005,41.952343,0.0],[46.630268,41.952248,0.0],[46.630417,41.952075,0.0],[46.630411,41.951846,0.0],[46.630248,41.951467,0.0],[46.630038,41.951241,0.0],[46.62985,41.950901,0.0],[46.629849,41.95084,0.0],[46.629708,41.950487,0.0],[46.629634,41.950427,0.0]]]}},{"type":"Feature","properties":{"rgi_id":"RGI2000-v7.0-G-12-01895","o1region":"12"},"geometry":{"type":"Polygon","coordinates":[[[46.797051,41.974258,0.0],[46.797403,41.974101,0.0],[46.797675,41.973751,0.0],[46.797676,41.973748,0.0],[46.797703,41.973581,0.0],[46.797789,41.973246,0.0],[46.797793,41.973241,0.0],[46.79783,41.97298,0.0],[46.797781,41.972802,0.0],[46.797639,41.972518,0.0],[46.797422,41.972307,0.0],[46.797129,41.972111,0.0],[46.796818,41.971959,0.0],[46.79651,41.971892,0.0],[46.796182,41.971797,0.0],[46.795855,41.971774,0.0],[46.795568,41.971778,0.0],[46.795263,41.971826,0.0],[46.794957,41.971845,0.0],[46.79469,41.971826,0.0],[46.79463,41.971822,0.0],[46.794399,41.971754,0.0],[46.794393,41.971568,0.0],[46.79441,41.971501,0.0],[46.794462,41.971295,0.0],[46.794537,41.971127,0.0],[46.794533,41.971009,0.0],[46.794751,41.970791,0.0],[46.795194,41.970641,0.0],[46.795566,41.970254,0.0],[46.795525,41.969921,0.0],[46.795455,41.969708,0.0],[46.795222,41.969378,0.0],[46.795213,41.969044,0.0],[46.795204,41.968735,0.0],[46.794972,41.968452,0.0],[46.794615,41.968244,0.0],[46.79426,41.968106,0.0],[46.793878,41.968051,0.0],[46.793811,41.968042,0.0],[46.793524,41.968046,0.0],[46.793271,41.968145,0.0],[46.793083,41.968244,0.0],[46.792994,41.968483,0.0],[46.792743,41.968654,0.0],[46.792727,41.968683,0.0],[46.792655,41.968718,0.0],[46.791837,41.96916,0.0],[46.791657,41.969163,0.0],[46.791483,41.96927,0.0],[46.791327,41.969415,0.0],[46.791238,41.969655,0.0],[46.791246,41.969917,0.0],[46.791252,41.970155,0.0],[46.791072,41.970563,0.0],[46.790855,41.970804,0.0],[46.790602,41.97088,0.0],[46.790155,41.970887,0.0],[46.789674,41.970799,0.0],[46.78929,41.970781,0.0],[46.789004,41.970833,0.0],[46.788625,41.970958,0.0],[46.788212,41.97106,0.0],[46.787894,41.971102,0.0],[46.787717,41.971249,0.0],[46.787556,41.97166,0.0],[46.787385,41.972292,0.0],[46.787365,41.972364,0.0],[46.787261,41.972752,0.0],[46.787273,41.973166,0.0],[46.787358,41.973465,0.0],[46.787579,41.973862,0.0],[46.787777,41.974088,0.0],[46.787953,41.974199,0.0],[46.788187,41.974339,0.0],[46.788305,41.974455,0.0],[46.788344,41.974493,0.0],[46.788372,41.974807,0.0],[46.788149,41.97504,0.0],[46.787979,41.975128,0.0],[46.787654,41.975162,0.0],[46.787175,41.975169,0.0],[46.787003,41.975158,0.0],[46.786521,41.975079,0.0],[46.786269,41.974969,0.0],[46.786017,41.974858,0.0],[46.785821,41.97469,0.0],[46.785583,41.974408,0.0],[46.785347,41.974211,0.0],[46.785131,41.974014,0.0],[46.784913,41.97376,0.0],[46.784735,41.973563,0.0],[46.784502,41.973424,0.0],[46.784368,41.973426,0.0],[46.784253,41.973456,0.0],[46.784046,41.973588,0.0],[46.783859,41.973748,0.0],[46.783694,41.973994,0.0],[46.783634,41.97461,0.0],[46.783643,41.974924,0.0],[46.783713,41.975366,0.0],[46.783751,41.975439,0.0],[46.783843,41.975599,0.0],[46.784339,41.976235,0.0],[46.785052,41.976605,0.0],[46.785509,41.976932,0.0],[46.785656,41.977005,0.0],[46.786177,41.977144,0.0],[46.786429,41.977254,0.0],[46.786607,41.977451,0.0],[46.786613,41.97768,0.0],[46.786524,41.97791,0.0],[46.786433,41.978083,0.0],[46.78621,41.97833,0.0],[46.786127,41.978399,0.0],[46.786094,41.978448,0.0],[46.785875,41.978629,0.0],[46.785838,41.97875,0.0],[46.785862,41.978907,0.0],[46.785923,41.979049,0.0],[46.786077,41.979075,0.0],[46.786326,41.979071,0.0],[46.786575,41.979067,0.0],[46.786824,41.979049,0.0],[46.787224,41.978972,0.0],[46.787434,41.978925,0.0],[46.787798,41.978934,0.0],[46.788201,41.978942,0.0],[46.788433,41.979024,0.0],[46.788726,41.979234,0.0],[46.789005,41.979602,0.0],[46.789183,41.979813,0.0],[46.789454,41.979923,0.0],[46.789955,41.980016,0.0],[46.790242,41.980011,0.0],[46.790529,41.979978,0.0],[46.79068,41.97989,0.0],[46.790885,41.979701,0.0],[46.790975,41.979499,0.0],[46.791151,41.978925,0.0],[46.791182,41.978653,0.0],[46.791325,41.978307,0.0],[46.791416,41.978182,0.0],[46.791505,41.978014,0.0],[46.791624,41.977727,0.0],[46.791935,41.977412,0.0],[46.792056,41.977302,0.0],[46.792209,41.977163,0.0],[46.793068,41.976623,0.0],[46.793471,41.976448,0.0],[46.793659,41.976265,0.0],[46.793908,41.976023,0.0],[46.794249,41.97566,0.0],[46.794494,41.975299,0.0],[46.79487,41.975055,0.0],[46.795249,41.974882,0.0],[46.795533,41.974758,0.0],[46.79588,41.974634,0.0],[46.796098,41.974416,0.0],[46.796349,41.974269,0.0],[46.796605,41.974265,0.0],[46.797051,41.974258,0.0]]]}},{"type":"Feature","properties":{"rgi_id":"RGI2000-v7.0-G-12-01896","o1region":"12"},"geometry":{"type":"Polygon","coordinates":[[[46.798569,41.968362,0.0],[46.798639,41.96845,0.0],[46.798691,41.968619,0.0],[46.79889,41.968866,0.0],[46.799069,41.968994,0.0],[46.799345,41.969145,0.0],[46.799481,41.969154,0.0],[46.799617,41.969164,0.0],[46.799872,41.969148,0.0],[46.80007,41.969138,0.0],[46.800191,41.969131,0.0],[46.80059,41.969125,0.0],[46.800812,41.969086,0.0],[46.801033,41.969011,0.0],[46.80124,41.96896,0.0],[46.801639,41.968966,0.0],[46.80191,41.968973,0.0],[46.80226,41.96892,0.0],[46.802451,41.968881,0.0],[46.802656,41.968795,0.0],[46.80278,41.968686,0.0],[46.802902,41.968469,0.0],[46.80288,41.968267,0.0],[46.802731,41.968055,0.0],[46.802631,41.968005,0.0],[46.80255,41.967891,0.0],[46.802338,41.967727,0.0],[46.802205,41.967515,0.0],[46.802198,41.967277,0.0],[46.802271,41.967026,0.0],[46.802233,41.966812,0.0],[46.802067,41.966588,0.0],[46.801824,41.966461,0.0],[46.801597,41.966357,0.0],[46.801441,41.966342,0.0],[46.801165,41.966316,0.0],[46.800892,41.966273,0.0],[46.800605,41.966277,0.0],[46.800557,41.966278,0.0],[46.800394,41.966281,0.0],[46.800384,41.966286,0.0],[46.799842,41.966422,0.0],[46.799441,41.966466,0.0],[46.799364,41.966483,0.0],[46.798965,41.966569,0.0],[46.798427,41.966744,0.0],[46.798207,41.966867,0.0],[46.798086,41.967083,0.0],[46.798095,41.967417,0.0],[46.798199,41.967701,0.0],[46.798399,41.968008,0.0],[46.7985,41.968197,0.0],[46.798569,41.968362,0.0]]]}},{"type":"Feature","properties":{"rgi_id":"RGI2000-v7.0-G-12-01897","o1region":"12"},"geometry":{"type":"Polygon","coordinates":[[[46.79414,41.967592,0.0],[46.794242,41.967652,0.0],[46.794513,41.967647,0.0],[46.794535,41.967647,0.0],[46.794737,41.967644,0.0],[46.795037,41.967544,0.0],[46.795225,41.967398,0.0],[46.795378,41.967169,0.0],[46.795453,41.966989,0.0],[46.795606,41.966749,0.0],[46.795775,41.96652,0.0],[46.795931,41.966398,0.0],[46.796126,41.966343,0.0],[46.7962,41.966322,0.0],[46.796487,41.966306,0.0],[46.796807,41.966325,0.0],[46.797079,41.966344,0.0],[46.797191,41.966343,0.0],[46.797444,41.966279,0.0],[46.7976,41.966158,0.0],[46.797724,41.966001,0.0],[46.797751,41.965833,0.0],[46.797721,41.965698,0.0],[46.797584,41.965574,0.0],[46.797435,41.965398,0.0],[46.797257,41.965281,0.0],[46.797218,41.965248,0.0],[46.797109,41.965152,0.0],[46.797041,41.964987,0.0],[46.796972,41.964797,0.0],[46.796773,41.964562,0.0],[46.796758,41.964545,0.0],[46.796642,41.964416,0.0],[46.796625,41.964398,0.0],[46.796607,41.964391,0.0],[46.796076,41.964209,0.0],[46.796029,41.964192,0.0],[46.79555,41.964188,0.0],[46.795202,41.964301,0.0],[46.794967,41.964483,0.0],[46.794965,41.964485,0.0],[46.794842,41.96458,0.0],[46.79477,41.964855,0.0],[46.79477,41.964865,0.0],[46.794825,41.965093,0.0],[46.79485,41.965426,0.0],[46.794855,41.965605,0.0],[46.794845,41.965807,0.0],[46.794706,41.965976,0.0],[46.794535,41.966158,0.0],[46.794349,41.966363,0.0],[46.794227,41.966544,0.0],[46.794059,41.966809,0.0],[46.794,41.967,0.0],[46.794008,41.967262,0.0],[46.794044,41.96744,0.0],[46.79414,41.967592,0.0]]]}},{"type":"Feature","properties":{"rgi_id":"RGI2000-v7.0-G-12-01898","o1region":"12"},"geometry":{"type":"Polygon","coordinates":[[[46.808849,41.953287,0.0],[46.808591,41.953075,0.0],[46.808244,41.953009,0.0],[46.807919,41.953,0.0],[46.807596,41.95312,0.0],[46.807391,41.953309,0.0],[46.807301,41.95351,0.0],[46.807135,41.953742,0.0],[46.807008,41.953987,0.0],[46.806993,41.954144,0.0],[46.807001,41.954402,0.0],[46.807102,41.9546,0.0],[46.807319,41.954825,0.0],[46.807477,41.955009,0.0],[46.807598,41.955221,0.0],[46.807681,41.955449,0.0],[46.807784,41.955676,0.0],[46.807924,41.955888,0.0],[46.808045,41.955982,0.0],[46.808066,41.956021,0.0],[46.808204,41.956362,0.0],[46.80854,41.956671,0.0],[46.808713,41.956715,0.0],[46.809096,41.956709,0.0],[46.809578,41.956587,0.0],[46.809702,41.956451,0.0],[46.809979,41.956313,0.0],[46.810306,41.956156,0.0],[46.810689,41.956131,0.0],[46.810942,41.956069,0.0],[46.811142,41.955914,0.0],[46.811242,41.955817,0.0],[46.81139,41.955643,0.0],[46.811515,41.955546,0.0],[46.811741,41.955428,0.0],[46.811762,41.955256,0.0],[46.811678,41.95499,0.0],[46.811661,41.954955,0.0],[46.811283,41.954514,0.0],[46.811215,41.954465,0.0],[46.810928,41.95426,0.0],[46.810843,41.953976,0.0],[46.810783,41.953652,0.0],[46.810546,41.953389,0.0],[46.810059,41.95334,0.0],[46.809498,41.953349,0.0],[46.809013,41.953356,0.0],[46.808927,41.95332,0.0],[46.808849,41.953287,0.0]]]}},{"type":"Feature","properties":{"rgi_id":"RGI2000-v7.0-G-12-01899","o1region":"12"},"geometry":{"type":"Polygon","coordinates":[[[46.811568,41.94688,0.0],[46.811574,41.947109,0.0],[46.81155,41.947145,0.0],[46.811558,41.94745,0.0],[46.811585,41.947497,0.0],[46.81163,41.947575,0.0],[46.81172,41.947733,0.0],[46.811878,41.947902,0.0],[46.812291,41.948086,0.0],[46.812728,41.948175,0.0],[46.813238,41.948167,0.0],[46.813696,41.948083,0.0],[46.813973,41.947964,0.0],[46.814352,41.947806,0.0],[46.814478,41.947748,0.0],[46.81473,41.947643,0.0],[46.814805,41.947602,0.0],[46.815045,41.947471,0.0],[46.815328,41.947347,0.0],[46.815523,41.947209,0.0],[46.815672,41.947104,0.0],[46.816178,41.946905,0.0],[46.816398,41.946806,0.0],[46.81681,41.946704,0.0],[46.817069,41.946609,0.0],[46.81719,41.946506,0.0],[46.817415,41.94603,0.0],[46.817359,41.94579,0.0],[46.817286,41.945481,0.0],[46.817118,41.945174,0.0],[46.816857,41.944964,0.0],[46.816597,41.944825,0.0],[46.816241,41.94464,0.0],[46.815816,41.944289,0.0],[46.815646,41.943911,0.0],[46.815627,41.943815,0.0],[46.815626,41.943814,0.0],[46.815418,41.943519,0.0],[46.815168,41.943136,0.0],[46.814765,41.942993,0.0],[46.814284,41.942912,0.0],[46.813768,41.943009,0.0],[46.813374,41.943164,0.0],[46.812943,41.943469,0.0],[46.812317,41.943896,0.0],[46.812207,41.944225,0.0],[46.812244,41.944417,0.0],[46.812239,41.944427,0.0],[46.812147,41.94481,0.0],[46.812157,41.945153,0.0],[46.812166,41.945477,0.0],[46.812048,41.945822,0.0],[46.811955,41.946147,0.0],[46.811835,41.946416,0.0],[46.811566,41.946821,0.0],[46.811568,41.94688,0.0]]]}},{"type":"Feature","properties":{"rgi_id":"RGI2000-v7.0-G-12-01900","o1region":"12"},"geometry":{"type":"Polygon","coordinates":[[[46.825562,41.935465,0.0],[46.825434,41.935169,0.0],[46.825338,41.935034,0.0],[46.824905,41.93482,0.0],[46.824699,41.934585,0.0],[46.824293,41.934323,0.0],[46.824282,41.934319,0.0],[46.824123,41.934188,0.0],[46.823813,41.934059,0.0],[46.82353,41.933988,0.0],[46.823073,41.934071,0.0],[46.822849,41.934265,0.0],[46.822574,41.934479,0.0],[46.822261,41.934656,0.0],[46.822122,41.934734,0.0],[46.821657,41.934964,0.0],[46.821643,41.934971,0.0],[46.821626,41.934986,0.0],[46.821469,41.935126,0.0],[46.821274,41.935453,0.0],[46.821274,41.935454,0.0],[46.820899,41.935726,0.0],[46.820727,41.935977,0.0],[46.82061,41.936341,0.0],[46.820545,41.936742,0.0],[46.820505,41.937143,0.0],[46.820518,41.9376,0.0],[46.820606,41.93798,0.0],[46.820894,41.938224,0.0],[46.821103,41.93829,0.0],[46.821257,41.938393,0.0],[46.821442,41.938462,0.0],[46.821768,41.938438,0.0],[46.822408,41.938524,0.0],[46.822845,41.938612,0.0],[46.823282,41.9387,0.0],[46.823564,41.938753,0.0],[46.823846,41.938806,0.0],[46.82428,41.938799,0.0],[46.824433,41.938777,0.0],[46.824738,41.938734,0.0],[46.825066,41.938615,0.0],[46.825139,41.93848,0.0],[46.825139,41.938465,0.0],[46.825131,41.938194,0.0],[46.825126,41.938023,0.0],[46.82535,41.93781,0.0],[46.825576,41.937692,0.0],[46.825906,41.937629,0.0],[46.826313,41.937546,0.0],[46.826638,41.937332,0.0],[46.826736,41.937158,0.0],[46.82677,41.936978,0.0],[46.826727,41.936854,0.0],[46.826593,41.936627,0.0],[46.82633,41.936364,0.0],[46.826043,41.93614,0.0],[46.825702,41.935821,0.0],[46.825651,41.935579,0.0],[46.825562,41.935465,0.0]]]}},{"type":"Feature","properties":{"rgi_id":"RGI2000-v7.0-G-12-01901","o1region":"12"},"geometry":{"type":"Polygon","coordinates":[[[46.823861,41.92408,0.0],[46.823849,41.924175,0.0],[46.82386,41.924556,0.0],[46.823901,41.924719,0.0],[46.823946,41.924898,0.0],[46.824156,41.925085,0.0],[46.824416,41.925253,0.0],[46.824565,41.925336,0.0],[46.824649,41.925383,0.0],[46.825113,41.925528,0.0],[46.82534,41.925605,0.0],[46.825575,41.925616,0.0],[46.826162,41.925606,0.0],[46.826366,41.925603,0.0],[46.826589,41.925529,0.0],[46.826691,41.925369,0.0],[46.82692,41.925255,0.0],[46.82699,41.925106,0.0],[46.827183,41.924984,0.0],[46.827264,41.924673,0.0],[46.827569,41.924168,0.0],[46.827844,41.923734,0.0],[46.827912,41.923447,0.0],[46.827911,41.923405,0.0],[46.82788,41.923196,0.0],[46.827696,41.923027,0.0],[46.827412,41.922918,0.0],[46.827053,41.922866,0.0],[46.826824,41.92287,0.0],[46.826655,41.922883,0.0],[46.826518,41.922894,0.0],[46.826088,41.923015,0.0],[46.825952,41.923072,0.0],[46.825709,41.923173,0.0],[46.825329,41.923275,0.0],[46.824924,41.923281,0.0],[46.8248,41.923306,0.0],[46.824295,41.923505,0.0],[46.82409,41.923746,0.0],[46.823987,41.923867,0.0],[46.823861,41.92408,0.0]]]}},{"type":"Feature","properties":{"rgi_id":"RGI2000-v7.0-G-12-01902","o1region":"12"},"geometry":{"type":"Polygon","coordinates":[[[46.83675,41.930308,0.0],[46.837602,41.929961,0.0],[46.83851,41.929491,0.0],[46.838533,41.929468,0.0],[46.838947,41.929252,0.0],[46.838959,41.929239,0.0],[46.839106,41.929007,0.0],[46.839507,41.928548,0.0],[46.839782,41.928115,0.0],[46.839927,41.927588,0.0],[46.840039,41.927062,0.0],[46.840235,41.926825,0.0],[46.840249,41.926582,0.0],[46.8403,41.926153,0.0],[46.840259,41.92582,0.0],[46.839993,41.925466,0.0],[46.839689,41.925229,0.0],[46.839634,41.925186,0.0],[46.839464,41.925074,0.0],[46.839179,41.924884,0.0],[46.838764,41.924867,0.0],[46.838447,41.924967,0.0],[46.838202,41.925305,0.0],[46.837584,41.926029,0.0],[46.836988,41.926372,0.0],[46.836675,41.926592,0.0],[46.836107,41.926792,0.0],[46.835897,41.926874,0.0],[46.83551,41.927026,0.0],[46.835475,41.92704,0.0],[46.835094,41.927094,0.0],[46.834711,41.9271,0.0],[46.834166,41.927013,0.0],[46.833651,41.926855,0.0],[46.83314,41.926839,0.0],[46.832726,41.926869,0.0],[46.832577,41.926935,0.0],[46.832377,41.927165,0.0],[46.832326,41.927619,0.0],[46.832273,41.928001,0.0],[46.832278,41.928157,0.0],[46.832537,41.9286,0.0],[46.832617,41.928635,0.0],[46.833093,41.928874,0.0],[46.833168,41.928912,0.0],[46.833396,41.929075,0.0],[46.833728,41.929313,0.0],[46.833819,41.929378,0.0],[46.834021,41.929732,0.0],[46.83413,41.930207,0.0],[46.834206,41.930635,0.0],[46.834217,41.931016,0.0],[46.834291,41.931372,0.0],[46.834516,41.931416,0.0],[46.83477,41.931388,0.0],[46.83518,41.931215,0.0],[46.835557,41.930994,0.0],[46.836024,41.930606,0.0],[46.83675,41.930308,0.0]]]}},{"type":"Feature","properties":{"rgi_id":"RGI2000-v7.0-G-12-01903","o1region":"12"},"geometry":{"type":"Polygon","coordinates":[[[46.829643,41.914441,0.0],[46.829371,41.914467,0.0],[46.829226,41.914479,0.0],[46.829091,41.91449,0.0],[46.828714,41.914687,0.0],[46.828538,41.914785,0.0],[46.828138,41.915058,0.0],[46.827957,41.915199,0.0],[46.827875,41.915308,0.0],[46.827787,41.915426,0.0],[46.827565,41.915723,0.0],[46.827432,41.915902,0.0],[46.827347,41.915986,0.0],[46.827073,41.916219,0.0],[46.826824,41.916414,0.0],[46.826526,41.916704,0.0],[46.826458,41.91701,0.0],[46.826511,41.917177,0.0],[46.826542,41.917276,0.0],[46.826746,41.91739,0.0],[46.826775,41.917406,0.0],[46.827057,41.91742,0.0],[46.827285,41.917378,0.0],[46.82746,41.917261,0.0],[46.82762,41.917198,0.0],[46.827814,41.917122,0.0],[46.828117,41.917022,0.0],[46.828643,41.916671,0.0],[46.828963,41.916246,0.0],[46.829311,41.915916,0.0],[46.829599,41.915751,0.0],[46.829624,41.915699,0.0],[46.829736,41.915574,0.0],[46.82987,41.915362,0.0],[46.830058,41.915142,0.0],[46.830078,41.914834,0.0],[46.830073,41.914653,0.0],[46.829848,41.914472,0.0],[46.829643,41.914441,0.0]]]}},{"type":"Feature","properties":{"rgi_id":"RGI2000-v7.0-G-12-01904","o1region":"12"},"geometry":{"type":"Polygon","coordinates":[[[46.835345,41.916014,0.0],[46.835146,41.916188,0.0],[46.834845,41.916365,0.0],[46.834365,41.916544,0.0],[46.834012,41.916702,0.0],[46.833681,41.916745,0.0],[46.833248,41.916752,0.0],[46.833108,41.916783,0.0],[46.832867,41.916835,0.0],[46.832514,41.916993,0.0],[46.832239,41.917188,0.0],[46.83216,41.91724,0.0],[46.831914,41.917403,0.0],[46.831743,41.917691,0.0],[46.831649,41.91796,0.0],[46.83165,41.918012,0.0],[46.831637,41.918026,0.0],[46.831372,41.91825,0.0],[46.831267,41.918485,0.0],[46.831311,41.91889,0.0],[46.831701,41.919145,0.0],[46.831739,41.919359,0.0],[46.831588,41.919671,0.0],[46.831433,41.919753,0.0],[46.831211,41.919868,0.0],[46.83093,41.920087,0.0],[46.83094,41.920444,0.0],[46.831048,41.920848,0.0],[46.831311,41.921017,0.0],[46.831699,41.921056,0.0],[46.832298,41.921046,0.0],[46.832377,41.921045,0.0],[46.832826,41.92097,0.0],[46.832973,41.920976,0.0],[46.833531,41.920967,0.0],[46.834166,41.920867,0.0],[46.834561,41.920712,0.0],[46.834753,41.920471,0.0],[46.834746,41.920203,0.0],[46.834618,41.919937,0.0],[46.834611,41.919699,0.0],[46.834807,41.919546,0.0],[46.835082,41.919423,0.0],[46.835636,41.919265,0.0],[46.835989,41.919134,0.0],[46.836166,41.919098,0.0],[46.836738,41.918993,0.0],[46.836905,41.918928,0.0],[46.837495,41.918695,0.0],[46.838351,41.918515,0.0],[46.838492,41.918499,0.0],[46.839032,41.918438,0.0],[46.839237,41.918262,0.0],[46.83977,41.91792,0.0],[46.839849,41.917855,0.0],[46.840054,41.917556,0.0],[46.840441,41.917163,0.0],[46.840952,41.916886,0.0],[46.84166,41.916547,0.0],[46.842366,41.916149,0.0],[46.843094,41.915818,0.0],[46.843114,41.915809,0.0],[46.843742,41.915471,0.0],[46.844251,41.915136,0.0],[46.844563,41.914892,0.0],[46.844614,41.91476,0.0],[46.844749,41.914413,0.0],[46.844856,41.913994,0.0],[46.844967,41.913665,0.0],[46.845632,41.913237,0.0],[46.846383,41.912987,0.0],[46.846901,41.912978,0.0],[46.847542,41.913087,0.0],[46.847803,41.913207,0.0],[46.847864,41.913185,0.0],[46.848441,41.913255,0.0],[46.848699,41.913368,0.0],[46.848898,41.913478,0.0],[46.84899,41.913511,0.0],[46.849555,41.91374,0.0],[46.850401,41.914054,0.0],[46.850926,41.914254,0.0],[46.851854,41.914626,0.0],[46.8523,41.914887,0.0],[46.852585,41.915091,0.0],[46.852986,41.915174,0.0],[46.853504,41.915165,0.0],[46.854062,41.915156,0.0],[46.854418,41.915031,0.0],[46.85465,41.914789,0.0],[46.854838,41.914399,0.0],[46.854867,41.914011,0.0],[46.854817,41.913685,0.0],[46.854721,41.91312,0.0],[46.854707,41.912644,0.0],[46.854373,41.912113,0.0],[46.854109,41.91164,0.0],[46.854072,41.911614,0.0],[46.853812,41.911451,0.0],[46.853393,41.911315,0.0],[46.853195,41.911056,0.0],[46.852932,41.910798,0.0],[46.852574,41.910566,0.0],[46.852282,41.91038,0.0],[46.85208,41.909981,0.0],[46.852079,41.909978,0.0],[46.852045,41.909953,0.0],[46.85172,41.909721,0.0],[46.851203,41.909468,0.0],[46.850842,41.90914,0.0],[46.850674,41.908833,0.0],[46.850611,41.908513,0.0],[46.850599,41.908453,0.0],[46.850428,41.90805,0.0],[46.850135,41.907841,0.0],[46.85009,41.907823,0.0],[46.84949,41.907589,0.0],[46.848748,41.907315,0.0],[46.848174,41.907324,0.0],[46.847635,41.907428,0.0],[46.847197,41.907721,0.0],[46.847143,41.90776,0.0],[46.847047,41.908057,0.0],[46.846867,41.908465,0.0],[46.846626,41.908946,0.0],[46.846441,41.909187,0.0],[46.846157,41.909287,0.0],[46.845835,41.909173,0.0],[46.84567,41.908985,0.0],[46.845348,41.908895,0.0],[46.844774,41.908904,0.0],[46.84442,41.908791,0.0],[46.844066,41.908677,0.0],[46.84396,41.908576,0.0],[46.843869,41.90849,0.0],[46.843645,41.908446,0.0],[46.843325,41.908427,0.0],[46.842911,41.908457,0.0],[46.84237,41.90849,0.0],[46.842052,41.908519,0.0],[46.841671,41.908596,0.0],[46.841517,41.908789,0.0],[46.841549,41.908846,0.0],[46.841652,41.909026,0.0],[46.841815,41.909166,0.0],[46.841919,41.909248,0.0],[46.842171,41.909327,0.0],[46.842242,41.909588,0.0],[46.842058,41.909829,0.0],[46.841743,41.910001,0.0],[46.841395,41.910102,0.0],[46.840831,41.910445,0.0],[46.840728,41.910516,0.0],[46.840583,41.910897,0.0],[46.840475,41.911051,0.0],[46.840461,41.91107,0.0],[46.840184,41.911208,0.0],[46.839758,41.911463,0.0],[46.839757,41.911463,0.0],[46.83953,41.911543,0.0],[46.839356,41.911698,0.0],[46.839183,41.911924,0.0],[46.839134,41.911988,0.0],[46.839062,41.912141,0.0],[46.839045,41.912428,0.0],[46.839042,41.912436,0.0],[46.838975,41.912657,0.0],[46.83888,41.912888,0.0],[46.838783,41.913014,0.0],[46.838658,41.913177,0.0],[46.838511,41.913389,0.0],[46.838336,41.913506,0.0],[46.838112,41.913701,0.0],[46.838015,41.913736,0.0],[46.837783,41.91382,0.0],[46.837579,41.913824,0.0],[46.837347,41.913732,0.0],[46.837162,41.913525,0.0],[46.836855,41.913473,0.0],[46.836444,41.913384,0.0],[46.836268,41.913306,0.0],[46.836237,41.913292,0.0],[46.83595,41.913068,0.0],[46.835817,41.912899,0.0],[46.835633,41.912711,0.0],[46.835169,41.912528,0.0],[46.834633,41.912536,0.0],[46.834177,41.912658,0.0],[46.833825,41.912835,0.0],[46.833527,41.913126,0.0],[46.833359,41.913374,0.0],[46.833355,41.91338,0.0],[46.833331,41.913415,0.0],[46.833337,41.913625,0.0],[46.833362,41.913654,0.0],[46.833469,41.913775,0.0],[46.833709,41.914133,0.0],[46.833815,41.914265,0.0],[46.834076,41.91449,0.0],[46.834438,41.914655,0.0],[46.834953,41.9148,0.0],[46.835314,41.914927,0.0],[46.835626,41.915132,0.0],[46.835644,41.91517,0.0],[46.835707,41.915302,0.0],[46.835687,41.915474,0.0],[46.835541,41.915743,0.0],[46.83542,41.915955,0.0],[46.835345,41.916014,0.0]]]}},{"type":"Feature","properties":{"rgi_id":"RGI2000-v7.0-G-12-01905","o1region":"12"},"geometry":{"type":"Polygon","coordinates":[[[46.852668,41.904988,0.0],[46.852834,41.904985,0.0],[46.852954,41.905017,0.0],[46.853288,41.905088,0.0],[46.853622,41.905178,0.0],[46.853955,41.905229,0.0],[46.854211,41.905263,0.0],[46.85508,41.905287,0.0],[46.855615,41.905279,0.0],[46.855999,41.905311,0.0],[46.856116,41.905327,0.0],[46.856358,41.905362,0.0],[46.856755,41.905494,0.0],[46.856796,41.905507,0.0],[46.857462,41.905611,0.0],[46.857716,41.905687,0.0],[46.85818,41.905876,0.0],[46.858411,41.90611,0.0],[46.858732,41.906201,0.0],[46.859088,41.906385,0.0],[46.85948,41.906689,0.0],[46.859716,41.907138,0.0],[46.860049,41.907609,0.0],[46.860162,41.907794,0.0],[46.860351,41.908105,0.0],[46.86036,41.908118,0.0],[46.860675,41.908366,0.0],[46.861039,41.908837,0.0],[46.861338,41.909237,0.0],[46.861733,41.90966,0.0],[46.861997,41.909941,0.0],[46.862451,41.910196,0.0],[46.86284,41.910404,0.0],[46.863291,41.910564,0.0],[46.863611,41.910606,0.0],[46.863897,41.910578,0.0],[46.864181,41.910454,0.0],[46.864335,41.910285,0.0],[46.864455,41.909997,0.0],[46.864473,41.909544,0.0],[46.864402,41.909283,0.0],[46.864324,41.908784,0.0],[46.864284,41.908522,0.0],[46.864269,41.907998,0.0],[46.864287,41.907521,0.0],[46.864335,41.907294,0.0],[46.864449,41.906751,0.0],[46.864483,41.906589,0.0],[46.8645,41.90657,0.0],[46.864542,41.906421,0.0],[46.864942,41.905914,0.0],[46.865157,41.905625,0.0],[46.865468,41.905357,0.0],[46.866256,41.905035,0.0],[46.867016,41.904856,0.0],[46.867748,41.904772,0.0],[46.867854,41.904773,0.0],[46.868769,41.904779,0.0],[46.869279,41.904771,0.0],[46.86998,41.90476,0.0],[46.870647,41.904654,0.0],[46.871181,41.904383,0.0],[46.87168,41.903969,0.0],[46.871922,41.903537,0.0],[46.872068,41.903081,0.0],[46.872248,41.902697,0.0],[46.872366,41.902362,0.0],[46.873025,41.901994,0.0],[46.873082,41.901964,0.0],[46.873314,41.90196,0.0],[46.873693,41.901835,0.0],[46.874163,41.901541,0.0],[46.874315,41.901301,0.0],[46.874357,41.90111,0.0],[46.8744,41.900918,0.0],[46.87442,41.900536,0.0],[46.874252,41.900229,0.0],[46.874018,41.899876,0.0],[46.873819,41.899593,0.0],[46.873727,41.899556,0.0],[46.873367,41.89941,0.0],[46.872663,41.89935,0.0],[46.872084,41.899192,0.0],[46.871759,41.898959,0.0],[46.871531,41.89882,0.0],[46.871266,41.898467,0.0],[46.871208,41.898419,0.0],[46.871073,41.898399,0.0],[46.870593,41.898359,0.0],[46.870314,41.898388,0.0],[46.869832,41.898529,0.0],[46.869746,41.898599,0.0],[46.869708,41.898635,0.0],[46.869646,41.898708,0.0],[46.86918,41.89912,0.0],[46.868741,41.89939,0.0],[46.86817,41.899494,0.0],[46.867598,41.899551,0.0],[46.867371,41.899436,0.0],[46.867332,41.899174,0.0],[46.867354,41.89884,0.0],[46.867483,41.898725,0.0],[46.867505,41.898652,0.0],[46.867659,41.898435,0.0],[46.868061,41.898023,0.0],[46.868279,41.897829,0.0],[46.868271,41.897567,0.0],[46.86817,41.897378,0.0],[46.867909,41.897192,0.0],[46.867333,41.89713,0.0],[46.866843,41.897138,0.0],[46.866597,41.89721,0.0],[46.866318,41.897237,0.0],[46.865975,41.897394,0.0],[46.865941,41.89741,0.0],[46.865879,41.897422,0.0],[46.86556,41.897487,0.0],[46.865428,41.89759,0.0],[46.865279,41.897707,0.0],[46.865272,41.89773,0.0],[46.865146,41.897804,0.0],[46.864946,41.897941,0.0],[46.864644,41.898098,0.0],[46.864477,41.8982,0.0],[46.864432,41.898197,0.0],[46.864245,41.898319,0.0],[46.86407,41.898401,0.0],[46.86389,41.898486,0.0],[46.863773,41.898541,0.0],[46.863333,41.898763,0.0],[46.862635,41.898917,0.0],[46.862284,41.898899,0.0],[46.861931,41.898809,0.0],[46.86164,41.898695,0.0],[46.86159,41.898659,0.0],[46.861347,41.898485,0.0],[46.861122,41.898417,0.0],[46.860833,41.898351,0.0],[46.860451,41.898381,0.0],[46.860167,41.898504,0.0],[46.859823,41.898724,0.0],[46.859666,41.898822,0.0],[46.859514,41.898874,0.0],[46.859445,41.898897,0.0],[46.85922,41.898829,0.0],[46.859059,41.898761,0.0],[46.858958,41.898595,0.0],[46.85893,41.898575,0.0],[46.858765,41.898551,0.0],[46.858386,41.898652,0.0],[46.858007,41.898801,0.0],[46.857508,41.899191,0.0],[46.857264,41.899576,0.0],[46.857207,41.899815,0.0],[46.857217,41.900138,0.0],[46.857225,41.900434,0.0],[46.857202,41.900719,0.0],[46.8572,41.900726,0.0],[46.857112,41.901013,0.0],[46.857025,41.9013,0.0],[46.85684,41.901542,0.0],[46.856557,41.901665,0.0],[46.856429,41.901667,0.0],[46.856265,41.901503,0.0],[46.856196,41.901314,0.0],[46.856156,41.901052,0.0],[46.856057,41.900646,0.0],[46.856075,41.900358,0.0],[46.856061,41.899881,0.0],[46.855797,41.899576,0.0],[46.855505,41.899414,0.0],[46.855188,41.899467,0.0],[46.854783,41.899807,0.0],[46.85416,41.900341,0.0],[46.853855,41.900823,0.0],[46.853832,41.901109,0.0],[46.853864,41.901197,0.0],[46.853867,41.901304,0.0],[46.853906,41.901541,0.0],[46.853847,41.901709,0.0],[46.853533,41.901881,0.0],[46.853368,41.901925,0.0],[46.852777,41.901913,0.0],[46.852771,41.901912,0.0],[46.852357,41.901943,0.0],[46.852041,41.902043,0.0],[46.851725,41.902144,0.0],[46.851221,41.902366,0.0],[46.850938,41.902514,0.0],[46.850754,41.902779,0.0],[46.850541,41.90314,0.0],[46.850613,41.903425,0.0],[46.850909,41.903706,0.0],[46.851003,41.903774,0.0],[46.851143,41.904083,0.0],[46.851409,41.90446,0.0],[46.851735,41.904717,0.0],[46.852123,41.904901,0.0],[46.852668,41.904988,0.0]]]}},{"type":"Feature","properties":{"rgi_id":"RGI2000-v7.0-G-12-01906","o1region":"12"},"geometry":{"type":"Polygon","coordinates":[[[46.87771,41.90654,0.0],[46.877777,41.906548,0.0],[46.87826,41.906523,0.0],[46.878363,41.906493,0.0],[46.878648,41.906417,0.0],[46.878677,41.906411,0.0],[46.878996,41.90634,0.0],[46.879358,41.906232,0.0],[46.879422,41.906166,0.0],[46.879607,41.905949,0.0],[46.879696,41.905733,0.0],[46.879753,41.905505,0.0],[46.879907,41.9053,0.0],[46.88,41.905221,0.0],[46.880149,41.904987,0.0],[46.880262,41.904776,0.0],[46.880454,41.904505,0.0],[46.880528,41.904325,0.0],[46.880523,41.904154,0.0],[46.880521,41.904087,0.0],[46.880474,41.903849,0.0],[46.880347,41.903583,0.0],[46.880144,41.903467,0.0],[46.879864,41.903442,0.0],[46.879546,41.903448,0.0],[46.879347,41.903481,0.0],[46.879343,41.903487,0.0],[46.87912,41.90349,0.0],[46.878785,41.903484,0.0],[46.878544,41.903416,0.0],[46.878255,41.903361,0.0],[46.877918,41.903307,0.0],[46.877631,41.903288,0.0],[46.877136,41.903284,0.0],[46.876931,41.903359,0.0],[46.876711,41.90347,0.0],[46.876573,41.903651,0.0],[46.876571,41.903689,0.0],[46.876564,41.90389,0.0],[46.876621,41.904169,0.0],[46.87659,41.904235,0.0],[46.876501,41.904451,0.0],[46.876477,41.904725,0.0],[46.87645,41.904904,0.0],[46.876455,41.905059,0.0],[46.876498,41.905451,0.0],[46.876534,41.905594,0.0],[46.876602,41.905748,0.0],[46.876754,41.906019,0.0],[46.876919,41.906207,0.0],[46.877244,41.906428,0.0],[46.877469,41.906484,0.0],[46.87771,41.90654,0.0]]]}},{"type":"Feature","properties":{"rgi_id":"RGI2000-v7.0-G-12-01907","o1region":"12"},"geometry":{"type":"Polygon","coordinates":[[[46.881869,41.909832,0.0],[46.882012,41.910034,0.0],[46.882367,41.910242,0.0],[46.882369,41.910243,0.0],[46.882694,41.910476,0.0],[46.882833,41.910855,0.0],[46.882774,41.910985,0.0],[46.882686,41.911061,0.0],[46.882529,41.911147,0.0],[46.882278,41.911258,0.0],[46.882216,41.911298,0.0],[46.882105,41.911369,0.0],[46.881791,41.911529,0.0],[46.881587,41.911651,0.0],[46.881488,41.911744,0.0],[46.881432,41.911797,0.0],[46.881377,41.912095,0.0],[46.881387,41.912429,0.0],[46.881393,41.912643,0.0],[46.881448,41.912892,0.0],[46.881582,41.913117,0.0],[46.88183,41.913231,0.0],[46.881857,41.913243,0.0],[46.8821,41.913358,0.0],[46.882227,41.913382,0.0],[46.882516,41.913387,0.0],[46.882868,41.913429,0.0],[46.883285,41.91353,0.0],[46.883655,41.913607,0.0],[46.884118,41.913623,0.0],[46.8845,41.913617,0.0],[46.884771,41.913589,0.0],[46.88507,41.913453,0.0],[46.885239,41.913259,0.0],[46.885391,41.912995,0.0],[46.885462,41.912707,0.0],[46.885488,41.912481,0.0],[46.885577,41.912265,0.0],[46.8857,41.912108,0.0],[46.885813,41.912013,0.0],[46.885902,41.911938,0.0],[46.886136,41.911731,0.0],[46.886184,41.91165,0.0],[46.886272,41.911503,0.0],[46.886264,41.911229,0.0],[46.886216,41.91101,0.0],[46.886144,41.910945,0.0],[46.885964,41.910781,0.0],[46.885849,41.910652,0.0],[46.885668,41.910464,0.0],[46.885551,41.910299,0.0],[46.885451,41.910158,0.0],[46.885429,41.909944,0.0],[46.885423,41.909741,0.0],[46.88542,41.909646,0.0],[46.885354,41.909552,0.0],[46.8853,41.90935,0.0],[46.885169,41.909233,0.0],[46.88499,41.909117,0.0],[46.884666,41.908956,0.0],[46.884457,41.908899,0.0],[46.884216,41.908844,0.0],[46.883944,41.908801,0.0],[46.883703,41.908733,0.0],[46.883446,41.908678,0.0],[46.883141,41.908635,0.0],[46.882853,41.90858,0.0],[46.882533,41.908562,0.0],[46.88239,41.908564,0.0],[46.88228,41.908625,0.0],[46.882194,41.908673,0.0],[46.882123,41.908711,0.0],[46.882119,41.908715,0.0],[46.882068,41.908771,0.0],[46.881999,41.908844,0.0],[46.881989,41.908887,0.0],[46.881942,41.909084,0.0],[46.881868,41.909275,0.0],[46.881859,41.90949,0.0],[46.881869,41.909832,0.0]]]}},{"type":"Feature","properties":{"rgi_id":"RGI2000-v7.0-G-12-01908","o1region":"12"},"geometry":{"type":"Polygon","coordinates":[[[46.883655,41.895397,0.0],[46.883424,41.895669,0.0],[46.883109,41.895823,0.0],[46.882954,41.895975,0.0],[46.882942,41.895992,0.0],[46.882911,41.89605,0.0],[46.882791,41.89629,0.0],[46.882791,41.89629,0.0],[46.882791,41.896291,0.0],[46.882782,41.896528,0.0],[46.88287,41.896813,0.0],[46.882919,41.897022,0.0],[46.882943,41.897122,0.0],[46.883044,41.897311,0.0],[46.883223,41.897415,0.0],[46.883466,41.897554,0.0],[46.883644,41.897634,0.0],[46.883868,41.897678,0.0],[46.883911,41.897678,0.0],[46.884019,41.897676,0.0],[46.884187,41.897673,0.0],[46.884505,41.897644,0.0],[46.884759,41.897592,0.0],[46.884996,41.897517,0.0],[46.885135,41.89736,0.0],[46.88513,41.897181,0.0],[46.885123,41.896943,0.0],[46.885119,41.896816,0.0],[46.885226,41.896655,0.0],[46.885396,41.896497,0.0],[46.885679,41.896338,0.0],[46.885948,41.896274,0.0],[46.886328,41.896172,0.0],[46.886508,41.896043,0.0],[46.886515,41.896038,0.0],[46.886544,41.895919,0.0],[46.886523,41.895776,0.0],[46.886164,41.895472,0.0],[46.885841,41.895358,0.0],[46.885827,41.895354,0.0],[46.885667,41.895305,0.0],[46.88563,41.895293,0.0],[46.885486,41.895221,0.0],[46.884957,41.895111,0.0],[46.884905,41.8951,0.0],[46.884797,41.895078,0.0],[46.88435,41.895061,0.0],[46.883937,41.895116,0.0],[46.883867,41.895148,0.0],[46.883655,41.895397,0.0]]]}},{"type":"Feature","properties":{"rgi_id":"RGI2000-v7.0-G-12-01909","o1region":"12"},"geometry":{"type":"Polygon","coordinates":[[[46.872882,41.894183,0.0],[46.872923,41.894556,0.0],[46.873161,41.894852,0.0],[46.873303,41.895122,0.0],[46.873235,41.895423,0.0],[46.873087,41.895597,0.0],[46.872979,41.895813,0.0],[46.872891,41.896072,0.0],[46.872913,41.896137,0.0],[46.872931,41.896157,0.0],[46.873091,41.896398,0.0],[46.873176,41.896668,0.0],[46.873244,41.897053,0.0],[46.873366,41.897294,0.0],[46.873696,41.897446,0.0],[46.874158,41.897538,0.0],[46.874485,41.897576,0.0],[46.874906,41.897598,0.0],[46.87531,41.897648,0.0],[46.875674,41.897685,0.0],[46.875885,41.897682,0.0],[46.87617,41.89762,0.0],[46.876373,41.897373,0.0],[46.876424,41.897204,0.0],[46.87646,41.897086,0.0],[46.876471,41.896786,0.0],[46.876517,41.896413,0.0],[46.876582,41.896012,0.0],[46.876612,41.89574,0.0],[46.876686,41.89566,0.0],[46.876853,41.895478,0.0],[46.877101,41.895446,0.0],[46.877466,41.895483,0.0],[46.877871,41.89559,0.0],[46.878062,41.895587,0.0],[46.878348,41.89554,0.0],[46.878556,41.895465,0.0],[46.878724,41.895305,0.0],[46.87885,41.895031,0.0],[46.878804,41.894774,0.0],[46.878719,41.894504,0.0],[46.878745,41.894188,0.0],[46.878748,41.894161,0.0],[46.87877,41.894134,0.0],[46.87929,41.893539,0.0],[46.879844,41.893226,0.0],[46.880703,41.892616,0.0],[46.88149,41.892275,0.0],[46.881625,41.89223,0.0],[46.881728,41.892212,0.0],[46.882284,41.892143,0.0],[46.882495,41.892127,0.0],[46.882722,41.891994,0.0],[46.883126,41.891854,0.0],[46.883478,41.891695,0.0],[46.883806,41.891576,0.0],[46.884161,41.891493,0.0],[46.88477,41.891388,0.0],[46.885198,41.89119,0.0],[46.885498,41.890976,0.0],[46.885722,41.890762,0.0],[46.885995,41.89051,0.0],[46.886341,41.890123,0.0],[46.886584,41.889738,0.0],[46.887262,41.889346,0.0],[46.887665,41.889186,0.0],[46.888074,41.889199,0.0],[46.888871,41.889414,0.0],[46.889516,41.889671,0.0],[46.890112,41.889985,0.0],[46.890839,41.890411,0.0],[46.891359,41.890727,0.0],[46.891749,41.890968,0.0],[46.892167,41.891305,0.0],[46.89251,41.891699,0.0],[46.892724,41.892039,0.0],[46.89309,41.892338,0.0],[46.893575,41.892349,0.0],[46.893877,41.892191,0.0],[46.893942,41.891809,0.0],[46.893925,41.891237,0.0],[46.893869,41.890901,0.0],[46.893846,41.890851,0.0],[46.893754,41.890436,0.0],[46.893537,41.889843,0.0],[46.893398,41.889161,0.0],[46.893322,41.888778,0.0],[46.893236,41.888637,0.0],[46.893153,41.88841,0.0],[46.893093,41.888125,0.0],[46.893109,41.8878,0.0],[46.893152,41.887533,0.0],[46.893194,41.887227,0.0],[46.893213,41.886979,0.0],[46.89305,41.886658,0.0],[46.892481,41.886381,0.0],[46.892225,41.886347,0.0],[46.891868,41.886353,0.0],[46.891464,41.886512,0.0],[46.890983,41.886635,0.0],[46.890625,41.886602,0.0],[46.890238,41.886475,0.0],[46.890031,41.886345,0.0],[46.889797,41.886197,0.0],[46.889486,41.886049,0.0],[46.889101,41.88596,0.0],[46.888769,41.885947,0.0],[46.888336,41.885973,0.0],[46.888007,41.886054,0.0],[46.887702,41.886098,0.0],[46.887293,41.886085,0.0],[46.886935,41.886034,0.0],[46.886551,41.886002,0.0],[46.886196,41.886084,0.0],[46.88612,41.886099,0.0],[46.886107,41.886105,0.0],[46.885822,41.886167,0.0],[46.88544,41.886173,0.0],[46.885057,41.886179,0.0],[46.884752,41.886213,0.0],[46.884392,41.886333,0.0],[46.883897,41.886398,0.0],[46.883516,41.886462,0.0],[46.883001,41.886527,0.0],[46.882466,41.88655,0.0],[46.882294,41.886597,0.0],[46.882035,41.886872,0.0],[46.88189,41.887146,0.0],[46.881844,41.887533,0.0],[46.881844,41.887538,0.0],[46.881815,41.887819,0.0],[46.881857,41.888131,0.0],[46.881848,41.888159,0.0],[46.881694,41.88837,0.0],[46.881422,41.888583,0.0],[46.880944,41.888591,0.0],[46.880383,41.888511,0.0],[46.879987,41.888607,0.0],[46.879753,41.888789,0.0],[46.879238,41.888887,0.0],[46.87876,41.888895,0.0],[46.878597,41.888778,0.0],[46.878195,41.888666,0.0],[46.877959,41.888759,0.0],[46.877846,41.888999,0.0],[46.877534,41.889242,0.0],[46.877023,41.889459,0.0],[46.876444,41.889666,0.0],[46.876216,41.889815,0.0],[46.875601,41.889929,0.0],[46.875409,41.890171,0.0],[46.875097,41.890414,0.0],[46.874705,41.890629,0.0],[46.874269,41.890726,0.0],[46.874233,41.890845,0.0],[46.87424,41.891083,0.0],[46.874247,41.891322,0.0],[46.873932,41.891476,0.0],[46.87374,41.891717,0.0],[46.873667,41.891957,0.0],[46.873637,41.892285,0.0],[46.873646,41.892583,0.0],[46.873529,41.892915,0.0],[46.873339,41.893091,0.0],[46.873262,41.893213,0.0],[46.873227,41.893268,0.0],[46.873138,41.893409,0.0],[46.873048,41.89361,0.0],[46.872937,41.894,0.0],[46.872909,41.894099,0.0],[46.872882,41.894183,0.0]]]}},{"type":"Feature","properties":{"rgi_id":"RGI2000-v7.0-G-12-01910","o1region":"12"},"geometry":{"type":"Polygon","coordinates":[[[46.904471,41.888961,0.0],[46.904628,41.889116,0.0],[46.904792,41.88947,0.0],[46.904956,41.889839,0.0],[46.905155,41.890093,0.0],[46.905389,41.890247,0.0],[46.905621,41.890314,0.0],[46.905966,41.890337,0.0],[46.90631,41.890331,0.0],[46.906556,41.890227,0.0],[46.906724,41.890096,0.0],[46.90689,41.889879,0.0],[46.906957,41.889577,0.0],[46.906969,41.88932,0.0],[46.906979,41.889005,0.0],[46.906973,41.888805,0.0],[46.906813,41.888579,0.0],[46.906597,41.888396,0.0],[46.906557,41.888376,0.0],[46.90644,41.888285,0.0],[46.906187,41.888132,0.0],[46.906028,41.88792,0.0],[46.905887,41.887693,0.0],[46.905608,41.887326,0.0],[46.905407,41.886987,0.0],[46.905226,41.886704,0.0],[46.904953,41.886537,0.0],[46.904741,41.886454,0.0],[46.904489,41.886373,0.0],[46.904295,41.886261,0.0],[46.904193,41.886049,0.0],[46.904091,41.885836,0.0],[46.904064,41.885703,0.0],[46.904008,41.885623,0.0],[46.90383,41.885496,0.0],[46.903715,41.885413,0.0],[46.903464,41.88536,0.0],[46.903177,41.885351,0.0],[46.902794,41.885328,0.0],[46.902452,41.885406,0.0],[46.902283,41.885537,0.0],[46.902138,41.885783,0.0],[46.90205,41.886041,0.0],[46.902116,41.886355,0.0],[46.902276,41.886567,0.0],[46.902529,41.88672,0.0],[46.902731,41.88683,0.0],[46.902782,41.886858,0.0],[46.903017,41.887055,0.0],[46.903057,41.887163,0.0],[46.9031,41.887282,0.0],[46.903126,41.887496,0.0],[46.903211,41.887781,0.0],[46.903369,41.887964,0.0],[46.903583,41.888075,0.0],[46.903816,41.888171,0.0],[46.904012,41.888354,0.0],[46.904171,41.888551,0.0],[46.904274,41.888792,0.0],[46.904471,41.888961,0.0]]]}},{"type":"Feature","properties":{"rgi_id":"RGI2000-v7.0-G-12-01911","o1region":"12"},"geometry":{"type":"Polygon","coordinates":[[[46.908364,41.883919,0.0],[46.908201,41.884269,0.0],[46.908249,41.884566,0.0],[46.908479,41.884767,0.0],[46.908534,41.88477,0.0],[46.908935,41.884823,0.0],[46.909503,41.885171,0.0],[46.90963,41.885407,0.0],[46.909651,41.885505,0.0],[46.909676,41.885614,0.0],[46.90996,41.885788,0.0],[46.910218,41.885828,0.0],[46.910481,41.885869,0.0],[46.91068,41.885866,0.0],[46.91095,41.885936,0.0],[46.911052,41.885935,0.0],[46.911383,41.88591,0.0],[46.911635,41.885811,0.0],[46.911684,41.885753,0.0],[46.911916,41.885622,0.0],[46.912007,41.885464,0.0],[46.912003,41.885328,0.0],[46.91194,41.88491,0.0],[46.911804,41.884645,0.0],[46.911592,41.884363,0.0],[46.911406,41.884118,0.0],[46.911372,41.883832,0.0],[46.911366,41.883623,0.0],[46.911333,41.883395,0.0],[46.911098,41.883208,0.0],[46.91089,41.883078,0.0],[46.910559,41.883083,0.0],[46.910269,41.883154,0.0],[46.910241,41.883192,0.0],[46.910087,41.883374,0.0],[46.909692,41.88347,0.0],[46.909177,41.883597,0.0],[46.909123,41.883598,0.0],[46.908587,41.88376,0.0],[46.908364,41.883919,0.0]]]}},{"type":"Feature","properties":{"rgi_id":"RGI2000-v7.0-G-12-01912","o1region":"12"},"geometry":{"type":"Polygon","coordinates":[[[46.918902,41.865575,0.0],[46.918609,41.865514,0.0],[46.918211,41.865521,0.0],[46.917976,41.865674,0.0],[46.91776,41.866422,0.0],[46.917777,41.866988,0.0],[46.917828,41.867374,0.0],[46.918084,41.867936,0.0],[46.91812,41.867978,0.0],[46.918125,41.867995,0.0],[46.91838,41.868526,0.0],[46.91879,41.868907,0.0],[46.919249,41.869058,0.0],[46.919394,41.869105,0.0],[46.919837,41.869247,0.0],[46.920368,41.869685,0.0],[46.92114,41.870178,0.0],[46.921468,41.8705,0.0],[46.921754,41.870734,0.0],[46.922137,41.870831,0.0],[46.922233,41.870756,0.0],[46.922866,41.870596,0.0],[46.923456,41.870348,0.0],[46.923815,41.870342,0.0],[46.924943,41.87077,0.0],[46.925389,41.871167,0.0],[46.925435,41.871208,0.0],[46.925757,41.871406,0.0],[46.926003,41.871556,0.0],[46.926774,41.87202,0.0],[46.927212,41.872013,0.0],[46.927442,41.871681,0.0],[46.927742,41.87108,0.0],[46.927724,41.870455,0.0],[46.927623,41.869772,0.0],[46.927401,41.869001,0.0],[46.927303,41.868407,0.0],[46.927173,41.868052,0.0],[46.926841,41.86761,0.0],[46.926218,41.867098,0.0],[46.926107,41.867057,0.0],[46.925625,41.866916,0.0],[46.924942,41.866749,0.0],[46.924099,41.866524,0.0],[46.923653,41.866264,0.0],[46.923086,41.865975,0.0],[46.922681,41.865744,0.0],[46.922151,41.865366,0.0],[46.921589,41.865226,0.0],[46.920831,41.865179,0.0],[46.920316,41.865307,0.0],[46.919975,41.865452,0.0],[46.919254,41.865591,0.0],[46.918902,41.865575,0.0]]]}},{"type":"Feature","properties":{"rgi_id":"RGI2000-v7.0-G-12-01913","o1region":"12"},"geometry":{"type":"Polygon","coordinates":[[[46.925481,41.859809,0.0],[46.925137,41.860006,0.0],[46.924598,41.86011,0.0],[46.924058,41.860167,0.0],[46.923675,41.860149,0.0],[46.923259,41.860108,0.0],[46.922908,41.860091,0.0],[46.922586,41.859977,0.0],[46.922283,41.859939,0.0],[46.922238,41.859933,0.0],[46.921991,41.859954,0.0],[46.921381,41.860022,0.0],[46.921039,41.860085,0.0],[46.920774,41.860161,0.0],[46.920548,41.860293,0.0],[46.920345,41.860525,0.0],[46.920238,41.860799,0.0],[46.920171,41.8611,0.0],[46.920169,41.861263,0.0],[46.920341,41.861659,0.0],[46.920377,41.861703,0.0],[46.920859,41.862184,0.0],[46.920911,41.862203,0.0],[46.921411,41.862294,0.0],[46.92195,41.862386,0.0],[46.922507,41.862491,0.0],[46.922776,41.862529,0.0],[46.923159,41.862551,0.0],[46.923389,41.862547,0.0],[46.923849,41.862597,0.0],[46.923903,41.8626,0.0],[46.924322,41.862593,0.0],[46.9255,41.862549,0.0],[46.925654,41.862502,0.0],[46.92591,41.862423,0.0],[46.925997,41.862388,0.0],[46.926342,41.862169,0.0],[46.926605,41.862022,0.0],[46.926831,41.861903,0.0],[46.927072,41.861642,0.0],[46.927177,41.861311,0.0],[46.927186,41.860982,0.0],[46.927178,41.860711,0.0],[46.92717,41.860454,0.0],[46.927143,41.860168,0.0],[46.927041,41.859955,0.0],[46.926844,41.859773,0.0],[46.926592,41.859648,0.0],[46.926361,41.859624,0.0],[46.926172,41.859601,0.0],[46.925853,41.859662,0.0],[46.925481,41.859809,0.0]]]}},{"type":"Feature","properties":{"rgi_id":"RGI2000-v7.0-G-12-01914","o1region":"12"},"geometry":{"type":"Polygon","coordinates":[[[46.925292,41.858811,0.0],[46.92563,41.858669,0.0],[46.925631,41.858668,0.0],[46.925853,41.858398,0.0],[46.926023,41.858128,0.0],[46.926244,41.857838,0.0],[46.926469,41.857682,0.0],[46.926846,41.857523,0.0],[46.927123,41.857404,0.0],[46.927637,41.857237,0.0],[46.927706,41.857205,0.0],[46.928215,41.856968,0.0],[46.928535,41.856805,0.0],[46.928815,41.856586,0.0],[46.92898,41.856326,0.0],[46.928994,41.856169,0.0],[46.928893,41.855999,0.0],[46.928621,41.855846,0.0],[46.928447,41.855777,0.0],[46.92814,41.855754,0.0],[46.927947,41.8557,0.0],[46.927751,41.85566,0.0],[46.927525,41.855664,0.0],[46.927353,41.855667,0.0],[46.92716,41.855599,0.0],[46.92706,41.855458,0.0],[46.927036,41.855286,0.0],[46.926992,41.855087,0.0],[46.92693,41.854945,0.0],[46.926959,41.854814,0.0],[46.926962,41.854802,0.0],[46.926981,41.854715,0.0],[46.927054,41.8546,0.0],[46.927222,41.854483,0.0],[46.927234,41.854254,0.0],[46.927171,41.854055,0.0],[46.927085,41.853965,0.0],[46.926704,41.853831,0.0],[46.926035,41.853819,0.0],[46.92546,41.853781,0.0],[46.924949,41.853765,0.0],[46.924478,41.853711,0.0],[46.924406,41.853703,0.0],[46.924023,41.853709,0.0],[46.923836,41.853832,0.0],[46.923487,41.853885,0.0],[46.923072,41.853868,0.0],[46.922783,41.853802,0.0],[46.922337,41.853809,0.0],[46.921959,41.853958,0.0],[46.921874,41.854059,0.0],[46.921774,41.854176,0.0],[46.921782,41.854414,0.0],[46.921889,41.854818,0.0],[46.922075,41.855009,0.0],[46.922185,41.855122,0.0],[46.922319,41.855335,0.0],[46.922319,41.85534,0.0],[46.922373,41.855393,0.0],[46.922456,41.855621,0.0],[46.922461,41.855778,0.0],[46.922218,41.855982,0.0],[46.922097,41.856063,0.0],[46.922068,41.856083,0.0],[46.921956,41.856158,0.0],[46.921769,41.85629,0.0],[46.921662,41.856549,0.0],[46.921668,41.856778,0.0],[46.921769,41.856933,0.0],[46.921962,41.857057,0.0],[46.921964,41.857059,0.0],[46.922158,41.85717,0.0],[46.922301,41.857259,0.0],[46.922314,41.857267,0.0],[46.922338,41.857424,0.0],[46.922363,41.85761,0.0],[46.922271,41.857754,0.0],[46.922202,41.857998,0.0],[46.922209,41.858213,0.0],[46.922275,41.858497,0.0],[46.922293,41.858592,0.0],[46.922389,41.858717,0.0],[46.922686,41.85907,0.0],[46.922848,41.859162,0.0],[46.923136,41.859205,0.0],[46.923616,41.859245,0.0],[46.924034,41.859183,0.0],[46.924346,41.859137,0.0],[46.924883,41.858985,0.0],[46.925292,41.858811,0.0]]]}},{"type":"Feature","properties":{"rgi_id":"RGI2000-v7.0-G-12-01915","o1region":"12"},"geometry":{"type":"Polygon","coordinates":[[[46.925651,41.849,0.0],[46.925379,41.848958,0.0],[46.925235,41.848935,0.0],[46.925226,41.848935,0.0],[46.924959,41.848968,0.0],[46.924603,41.849189,0.0],[46.924387,41.849636,0.0],[46.924281,41.849938,0.0],[46.92425,41.850181,0.0],[46.924218,41.850396,0.0],[46.924167,41.850612,0.0],[46.924099,41.850884,0.0],[46.924106,41.851127,0.0],[46.924172,41.851412,0.0],[46.924292,41.851582,0.0],[46.924468,41.851722,0.0],[46.924563,41.851864,0.0],[46.924629,41.851962,0.0],[46.924691,41.852133,0.0],[46.92483,41.852316,0.0],[46.925063,41.852427,0.0],[46.925584,41.852575,0.0],[46.925794,41.852572,0.0],[46.925814,41.852569,0.0],[46.925822,41.852571,0.0],[46.926204,41.852565,0.0],[46.926371,41.85252,0.0],[46.926669,41.8524,0.0],[46.927105,41.852278,0.0],[46.927387,41.85213,0.0],[46.927705,41.851882,0.0],[46.928022,41.851619,0.0],[46.928418,41.851427,0.0],[46.928717,41.851207,0.0],[46.928825,41.850977,0.0],[46.928988,41.850659,0.0],[46.929173,41.85047,0.0],[46.929285,41.850414,0.0],[46.929334,41.850389,0.0],[46.929437,41.850337,0.0],[46.929894,41.850272,0.0],[46.930218,41.850238,0.0],[46.930466,41.850206,0.0],[46.93094,41.850069,0.0],[46.931282,41.849992,0.0],[46.931817,41.849983,0.0],[46.932316,41.850046,0.0],[46.932702,41.850168,0.0],[46.933129,41.850375,0.0],[46.933458,41.850527,0.0],[46.933632,41.850567,0.0],[46.934091,41.850559,0.0],[46.934454,41.850553,0.0],[46.934617,41.85052,0.0],[46.934758,41.850491,0.0],[46.935002,41.850358,0.0],[46.935286,41.850239,0.0],[46.935373,41.850171,0.0],[46.935472,41.850093,0.0],[46.935507,41.849963,0.0],[46.935444,41.849793,0.0],[46.935171,41.849597,0.0],[46.934957,41.849487,0.0],[46.934607,41.849307,0.0],[46.93437,41.849186,0.0],[46.934293,41.849164,0.0],[46.933999,41.848931,0.0],[46.933765,41.848554,0.0],[46.933731,41.848506,0.0],[46.933082,41.847883,0.0],[46.932879,41.847806,0.0],[46.932418,41.847728,0.0],[46.932207,41.847717,0.0],[46.931843,41.847695,0.0],[46.931555,41.847657,0.0],[46.931074,41.84755,0.0],[46.930765,41.847455,0.0],[46.930568,41.847259,0.0],[46.93024,41.84715,0.0],[46.929913,41.847084,0.0],[46.929588,41.847089,0.0],[46.929489,41.847114,0.0],[46.929284,41.847166,0.0],[46.928965,41.847343,0.0],[46.928549,41.847521,0.0],[46.928166,41.847705,0.0],[46.928062,41.847858,0.0],[46.927781,41.848259,0.0],[46.927677,41.848408,0.0],[46.927395,41.848556,0.0],[46.927323,41.848615,0.0],[46.927022,41.848862,0.0],[46.926995,41.848891,0.0],[46.926892,41.849007,0.0],[46.926724,41.849153,0.0],[46.926536,41.849242,0.0],[46.926325,41.849246,0.0],[46.926095,41.849207,0.0],[46.92594,41.849138,0.0],[46.925713,41.849044,0.0],[46.925651,41.849,0.0]]]}},{"type":"Feature","properties":{"rgi_id":"RGI2000-v7.0-G-12-01916","o1region":"12"},"geometry":{"type":"Polygon","coordinates":[[[46.944453,41.84662,0.0],[46.944486,41.846588,0.0],[46.944528,41.846408,0.0],[46.94452,41.846136,0.0],[46.944438,41.846048,0.0],[46.944155,41.845933,0.0],[46.94415,41.845928,0.0],[46.944075,41.845905,0.0],[46.943969,41.845882,0.0],[46.94382,41.845916,0.0],[46.94362,41.845927,0.0],[46.943495,41.845929,0.0],[46.943343,41.845946,0.0],[46.943152,41.845942,0.0],[46.942912,41.845917,0.0],[46.942605,41.845879,0.0],[46.942422,41.845832,0.0],[46.9422,41.845765,0.0],[46.941881,41.845728,0.0],[46.941521,41.845769,0.0],[46.940998,41.845827,0.0],[46.940876,41.845923,0.0],[46.940783,41.846032,0.0],[46.940777,41.846146,0.0],[46.940771,41.846268,0.0],[46.940745,41.846354,0.0],[46.94069,41.846401,0.0],[46.940615,41.846463,0.0],[46.940513,41.846565,0.0],[46.940421,41.846717,0.0],[46.940412,41.84679,0.0],[46.940398,41.846889,0.0],[46.940394,41.847068,0.0],[46.940428,41.847253,0.0],[46.940528,41.84738,0.0],[46.940685,41.847513,0.0],[46.940832,41.847639,0.0],[46.940979,41.84778,0.0],[46.941071,41.847957,0.0],[46.941123,41.848085,0.0],[46.941289,41.848211,0.0],[46.941425,41.84828,0.0],[46.941606,41.848329,0.0],[46.941656,41.848333,0.0],[46.941866,41.848315,0.0],[46.94198,41.848299,0.0],[46.942189,41.84826,0.0],[46.942258,41.848229,0.0],[46.942426,41.848018,0.0],[46.942535,41.847913,0.0],[46.94257,41.847903,0.0],[46.94275,41.847836,0.0],[46.942891,41.847762,0.0],[46.943061,41.847673,0.0],[46.943084,41.84766,0.0],[46.943164,41.847614,0.0],[46.943286,41.847541,0.0],[46.943417,41.847431,0.0],[46.943509,41.847322,0.0],[46.943557,41.847235,0.0],[46.943636,41.847092,0.0],[46.943713,41.847011,0.0],[46.943747,41.846975,0.0],[46.943878,41.846873,0.0],[46.944085,41.846777,0.0],[46.944246,41.846717,0.0],[46.944453,41.84662,0.0]]]}},{"type":"Feature","properties":{"rgi_id":"RGI2000-v7.0-G-12-01917","o1region":"12"},"geometry":{"type":"Polygon","coordinates":[[[46.945189,41.845227,0.0],[46.945143,41.84531,0.0],[46.945131,41.845429,0.0],[46.945137,41.84562,0.0],[46.945173,41.845774,0.0],[46.945273,41.845915,0.0],[46.945372,41.846021,0.0],[46.94555,41.846101,0.0],[46.945758,41.846133,0.0],[46.946063,41.846162,0.0],[46.9463,41.846136,0.0],[46.94657,41.846132,0.0],[46.946843,41.846198,0.0],[46.947036,41.846243,0.0],[46.94726,41.846263,0.0],[46.947355,41.846261,0.0],[46.947578,41.846245,0.0],[46.947719,41.846172,0.0],[46.947844,41.846086,0.0],[46.947936,41.845977,0.0],[46.948092,41.845856,0.0],[46.948312,41.845756,0.0],[46.948754,41.84563,0.0],[46.949054,41.845541,0.0],[46.949227,41.845467,0.0],[46.949795,41.845279,0.0],[46.949982,41.845144,0.0],[46.950089,41.844999,0.0],[46.950092,41.844996,0.0],[46.95002,41.844798,0.0],[46.949916,41.84455,0.0],[46.949768,41.844373,0.0],[46.949589,41.844257,0.0],[46.949285,41.844215,0.0],[46.949077,41.844206,0.0],[46.948725,41.844141,0.0],[46.948485,41.844109,0.0],[46.948135,41.844115,0.0],[46.94804,41.844141,0.0],[46.947983,41.844157,0.0],[46.94774,41.844229,0.0],[46.947655,41.844249,0.0],[46.947471,41.844293,0.0],[46.946866,41.844327,0.0],[46.946643,41.844319,0.0],[46.946407,41.84443,0.0],[46.946221,41.844577,0.0],[46.946052,41.844806,0.0],[46.945864,41.844904,0.0],[46.945645,41.845051,0.0],[46.945426,41.845162,0.0],[46.945189,41.845227,0.0]]]}},{"type":"Feature","properties":{"rgi_id":"RGI2000-v7.0-G-12-01918","o1region":"12"},"geometry":{"type":"Polygon","coordinates":[[[46.950804,41.84451,0.0],[46.950993,41.844744,0.0],[46.951183,41.844817,0.0],[46.95134,41.844836,0.0],[46.951731,41.844804,0.0],[46.951914,41.844729,0.0],[46.952128,41.84463,0.0],[46.952291,41.844541,0.0],[46.952402,41.844425,0.0],[46.952487,41.84428,0.0],[46.952533,41.844137,0.0],[46.952542,41.844003,0.0],[46.952546,41.843919,0.0],[46.952512,41.843861,0.0],[46.952457,41.843719,0.0],[46.952299,41.843569,0.0],[46.95213,41.843448,0.0],[46.952011,41.843316,0.0],[46.951879,41.843147,0.0],[46.95181,41.843005,0.0],[46.95181,41.842984,0.0],[46.951783,41.842948,0.0],[46.951615,41.842866,0.0],[46.951488,41.842877,0.0],[46.95126,41.842938,0.0],[46.951071,41.843008,0.0],[46.950896,41.843106,0.0],[46.950811,41.843241,0.0],[46.950701,41.843424,0.0],[46.950644,41.843635,0.0],[46.9506,41.843845,0.0],[46.950657,41.844045,0.0],[46.950739,41.844224,0.0],[46.950772,41.844409,0.0],[46.950804,41.84451,0.0]]]}},{"type":"Feature","properties":{"rgi_id":"RGI2000-v7.0-G-12-01919","o1region":"12"},"geometry":{"type":"Polygon","coordinates":[[[46.95346,41.843285,0.0],[46.953274,41.843455,0.0],[46.953279,41.843622,0.0],[46.953301,41.843648,0.0],[46.95352,41.843734,0.0],[46.95368,41.843717,0.0],[46.953999,41.843711,0.0],[46.95423,41.843765,0.0],[46.954448,41.843809,0.0],[46.954665,41.843805,0.0],[46.954957,41.843762,0.0],[46.954997,41.843751,0.0],[46.955182,41.843625,0.0],[46.955529,41.843467,0.0],[46.955558,41.843437,0.0],[46.955855,41.843117,0.0],[46.955964,41.842925,0.0],[46.956046,41.842704,0.0],[46.956167,41.842483,0.0],[46.956187,41.842302,0.0],[46.956144,41.842159,0.0],[46.95605,41.842008,0.0],[46.956009,41.841976,0.0],[46.955947,41.841963,0.0],[46.955743,41.841947,0.0],[46.95545,41.841952,0.0],[46.955221,41.841984,0.0],[46.955044,41.842045,0.0],[46.954856,41.842134,0.0],[46.954695,41.842298,0.0],[46.954536,41.842511,0.0],[46.954425,41.842637,0.0],[46.954288,41.842744,0.0],[46.954115,41.842909,0.0],[46.954016,41.842972,0.0],[46.953977,41.842997,0.0],[46.953801,41.843086,0.0],[46.953767,41.843107,0.0],[46.953689,41.843154,0.0],[46.953495,41.843239,0.0],[46.95346,41.843285,0.0]]]}},{"type":"Feature","properties":{"rgi_id":"RGI2000-v7.0-G-12-01933","o1region":"12"},"geometry":{"type":"Polygon","coordinates":[[[46.960779,41.935564,0.0],[46.960245,41.93563,0.0],[46.959994,41.935577,0.0],[46.959685,41.935497,0.0],[46.959318,41.935403,0.0],[46.958973,41.93538,0.0],[46.958478,41.935474,0.0],[46.958272,41.935621,0.0],[46.958085,41.935781,0.0],[46.957824,41.936,0.0],[46.957485,41.936192,0.0],[46.957282,41.936424,0.0],[46.957119,41.936727,0.0],[46.956906,41.937501,0.0],[46.956901,41.937508,0.0],[46.956428,41.937724,0.0],[46.95619,41.937758,0.0],[46.955955,41.937881,0.0],[46.9558,41.938033,0.0],[46.955666,41.938137,0.0],[46.955677,41.938205,0.0],[46.955652,41.938296,0.0],[46.955658,41.938487,0.0],[46.955726,41.938652,0.0],[46.955827,41.938794,0.0],[46.955956,41.938863,0.0],[46.956068,41.938873,0.0],[46.95626,41.93887,0.0],[46.956482,41.93883,0.0],[46.95664,41.938768,0.0],[46.956846,41.938741,0.0],[46.95702,41.938714,0.0],[46.957021,41.938714,0.0],[46.957035,41.938716,0.0],[46.957037,41.938717,0.0],[46.957326,41.938768,0.0],[46.957633,41.938894,0.0],[46.957892,41.939021,0.0],[46.958064,41.93913,0.0],[46.958169,41.939154,0.0],[46.958457,41.939178,0.0],[46.958726,41.939188,0.0],[46.959088,41.939124,0.0],[46.959312,41.938949,0.0],[46.959477,41.938717,0.0],[46.959492,41.938695,0.0],[46.95949,41.938685,0.0],[46.959562,41.938445,0.0],[46.959693,41.93826,0.0],[46.959768,41.938198,0.0],[46.960104,41.937934,0.0],[46.960443,41.937728,0.0],[46.960972,41.937491,0.0],[46.961295,41.937414,0.0],[46.961808,41.937291,0.0],[46.962127,41.937085,0.0],[46.962275,41.936897,0.0],[46.962277,41.936339,0.0],[46.962054,41.935928,0.0],[46.961759,41.93569,0.0],[46.961339,41.935542,0.0],[46.960998,41.935521,0.0],[46.960779,41.935564,0.0]]]}},{"type":"Feature","properties":{"rgi_id":"RGI2000-v7.0-G-12-01934","o1region":"12"},"geometry":{"type":"Polygon","coordinates":[[[46.926524,41.960584,0.0],[46.926294,41.960886,0.0],[46.926177,41.960992,0.0],[46.926184,41.961208,0.0],[46.926189,41.961394,0.0],[46.926198,41.961692,0.0],[46.926446,41.961956,0.0],[46.926771,41.962159,0.0],[46.927134,41.962302,0.0],[46.927463,41.962417,0.0],[46.927699,41.962501,0.0],[46.928146,41.962761,0.0],[46.928504,41.962913,0.0],[46.928886,41.963196,0.0],[46.929239,41.963462,0.0],[46.929549,41.9636,0.0],[46.929897,41.963708,0.0],[46.930168,41.963775,0.0],[46.93059,41.963797,0.0],[46.930896,41.963791,0.0],[46.931123,41.963702,0.0],[46.931348,41.963526,0.0],[46.931476,41.963324,0.0],[46.931718,41.963091,0.0],[46.93196,41.962858,0.0],[46.932185,41.962683,0.0],[46.932203,41.962668,0.0],[46.932332,41.962509,0.0],[46.932287,41.962295,0.0],[46.932145,41.962012,0.0],[46.931891,41.961844,0.0],[46.931706,41.961779,0.0],[46.931659,41.961777,0.0],[46.931292,41.961669,0.0],[46.931058,41.961544,0.0],[46.930882,41.961433,0.0],[46.930611,41.961323,0.0],[46.930414,41.961271,0.0],[46.930367,41.961258,0.0],[46.930205,41.961215,0.0],[46.929953,41.961119,0.0],[46.929739,41.961009,0.0],[46.929543,41.96084,0.0],[46.929249,41.960631,0.0],[46.929013,41.960435,0.0],[46.928548,41.960256,0.0],[46.928142,41.96012,0.0],[46.927755,41.960012,0.0],[46.927371,41.95999,0.0],[46.927106,41.960081,0.0],[46.926822,41.960185,0.0],[46.926781,41.960208,0.0],[46.926524,41.960584,0.0]]]}},{"type":"Feature","properties":{"rgi_id":"RGI2000-v7.0-G-12-01935","o1region":"12"},"geometry":{"type":"Polygon","coordinates":[[[46.920455,41.9632,0.0],[46.920544,41.963617,0.0],[46.920596,41.963861,0.0],[46.920598,41.96393,0.0],[46.920601,41.964009,0.0],[46.920609,41.964287,0.0],[46.920501,41.964676,0.0],[46.92027,41.964948,0.0],[46.920038,41.965191,0.0],[46.919766,41.965433,0.0],[46.919499,41.965855,0.0],[46.919453,41.965928,0.0],[46.919518,41.966012,0.0],[46.919694,41.966138,0.0],[46.919982,41.966133,0.0],[46.920248,41.966086,0.0],[46.920478,41.966082,0.0],[46.920807,41.966177,0.0],[46.920832,41.966376,0.0],[46.921065,41.966487,0.0],[46.921295,41.966483,0.0],[46.921717,41.966505,0.0],[46.922026,41.966585,0.0],[46.922222,41.966739,0.0],[46.922456,41.966878,0.0],[46.922764,41.96693,0.0],[46.923068,41.966825,0.0],[46.923462,41.966575,0.0],[46.923614,41.966465,0.0],[46.923895,41.966049,0.0],[46.924082,41.965629,0.0],[46.924349,41.965238,0.0],[46.924494,41.965009,0.0],[46.924817,41.964872,0.0],[46.925409,41.964654,0.0],[46.925927,41.964365,0.0],[46.926017,41.964245,0.0],[46.926236,41.963884,0.0],[46.926304,41.963611,0.0],[46.926295,41.963311,0.0],[46.92623,41.963055,0.0],[46.926051,41.962829,0.0],[46.925797,41.96269,0.0],[46.925507,41.962595,0.0],[46.925236,41.962485,0.0],[46.925001,41.962332,0.0],[46.924745,41.962107,0.0],[46.924508,41.961868,0.0],[46.924255,41.961715,0.0],[46.92383,41.961594,0.0],[46.923425,41.961515,0.0],[46.922984,41.961508,0.0],[46.922679,41.961542,0.0],[46.922203,41.96165,0.0],[46.921978,41.961811,0.0],[46.921678,41.96203,0.0],[46.921473,41.96222,0.0],[46.921308,41.962451,0.0],[46.921118,41.962526,0.0],[46.920854,41.962659,0.0],[46.920667,41.962805,0.0],[46.920501,41.963008,0.0],[46.920455,41.9632,0.0]]]}},{"type":"Feature","properties":{"rgi_id":"RGI2000-v7.0-G-12-01936","o1region":"12"},"geometry":{"type":"Polygon","coordinates":[[[46.925213,41.991622,0.0],[46.925215,41.991682,0.0],[46.925295,41.991795,0.0],[46.92549,41.991906,0.0],[46.925704,41.991988,0.0],[46.925901,41.992185,0.0],[46.925906,41.992328,0.0],[46.925699,41.992474,0.0],[46.925597,41.992554,0.0],[46.925456,41.992664,0.0],[46.925421,41.992715,0.0],[46.92536,41.992802,0.0],[46.925346,41.992823,0.0],[46.92534,41.992896,0.0],[46.925332,41.993009,0.0],[46.92538,41.993101,0.0],[46.925413,41.993165,0.0],[46.925533,41.99332,0.0],[46.925769,41.993531,0.0],[46.925925,41.993602,0.0],[46.926064,41.993755,0.0],[46.926554,41.994118,0.0],[46.926862,41.994185,0.0],[46.927111,41.99418,0.0],[46.927435,41.994118,0.0],[46.927698,41.993976,0.0],[46.927737,41.993955,0.0],[46.927943,41.99378,0.0],[46.928069,41.993535,0.0],[46.928061,41.993249,0.0],[46.927919,41.993009,0.0],[46.927816,41.992767,0.0],[46.927811,41.992582,0.0],[46.927842,41.992338,0.0],[46.92793,41.992093,0.0],[46.928154,41.991904,0.0],[46.928873,41.991606,0.0],[46.929099,41.991459,0.0],[46.929246,41.991256,0.0],[46.929221,41.991042,0.0],[46.929139,41.990872,0.0],[46.929019,41.990717,0.0],[46.92888,41.990562,0.0],[46.928701,41.990351,0.0],[46.928658,41.990165,0.0],[46.928708,41.989936,0.0],[46.928846,41.989718,0.0],[46.928834,41.989662,0.0],[46.928655,41.989436,0.0],[46.92842,41.989269,0.0],[46.928169,41.98923,0.0],[46.927748,41.989237,0.0],[46.927406,41.989343,0.0],[46.927084,41.989448,0.0],[46.9268,41.989568,0.0],[46.926652,41.989756,0.0],[46.926601,41.989971,0.0],[46.926609,41.990243,0.0],[46.926652,41.990385,0.0],[46.926658,41.990599,0.0],[46.926512,41.990831,0.0],[46.926268,41.990992,0.0],[46.925946,41.991112,0.0],[46.925623,41.991231,0.0],[46.925416,41.991349,0.0],[46.925304,41.991437,0.0],[46.925213,41.991622,0.0]]]}},{"type":"Feature","properties":{"rgi_id":"RGI2000-v7.0-G-12-01937","o1region":"12"},"geometry":{"type":"Polygon","coordinates":[[[46.931589,41.990929,0.0],[46.931577,41.991017,0.0],[46.931603,41.991231,0.0],[46.931616,41.991288,0.0],[46.931647,41.991416,0.0],[46.931708,41.991558,0.0],[46.931764,41.991673,0.0],[46.93179,41.991728,0.0],[46.93187,41.991841,0.0],[46.931988,41.991925,0.0],[46.932047,41.991981,0.0],[46.93243,41.991961,0.0],[46.932464,41.991958,0.0],[46.932525,41.99193,0.0],[46.932791,41.991869,0.0],[46.933059,41.991864,0.0],[46.933386,41.991902,0.0],[46.93377,41.991909,0.0],[46.934057,41.991905,0.0],[46.934553,41.991825,0.0],[46.934667,41.991806,0.0],[46.934819,41.991734,0.0],[46.935065,41.991645,0.0],[46.935272,41.991527,0.0],[46.935344,41.991354,0.0],[46.935336,41.991111,0.0],[46.935214,41.99087,0.0],[46.934975,41.990588,0.0],[46.934739,41.990378,0.0],[46.934542,41.990209,0.0],[46.934289,41.990085,0.0],[46.934095,41.989988,0.0],[46.934092,41.989987,0.0],[46.933812,41.98995,0.0],[46.93352,41.989788,0.0],[46.933166,41.989699,0.0],[46.932847,41.989728,0.0],[46.932443,41.990068,0.0],[46.932401,41.990109,0.0],[46.932257,41.990267,0.0],[46.932213,41.990293,0.0],[46.932056,41.990385,0.0],[46.93191,41.990646,0.0],[46.931762,41.990795,0.0],[46.931589,41.990929,0.0]]]}},{"type":"Feature","properties":{"rgi_id":"RGI2000-v7.0-G-12-01938","o1region":"12"},"geometry":{"type":"Polygon","coordinates":[[[46.805728,42.007884,0.0],[46.805733,42.00806,0.0],[46.805891,42.00821,0.0],[46.806028,42.008308,0.0],[46.8062,42.008305,0.0],[46.806353,42.008289,0.0],[46.806504,42.008201,0.0],[46.806653,42.008041,0.0],[46.806802,42.007896,0.0],[46.806952,42.007793,0.0],[46.807162,42.007733,0.0],[46.807371,42.007686,0.0],[46.807519,42.0076,0.0],[46.807536,42.007427,0.0],[46.807491,42.007184,0.0],[46.80733,42.006901,0.0],[46.807112,42.006661,0.0],[46.806856,42.006422,0.0],[46.806599,42.006155,0.0],[46.806365,42.006001,0.0],[46.806093,42.005862,0.0],[46.805914,42.005651,0.0],[46.805774,42.005438,0.0],[46.805616,42.005269,0.0],[46.805563,42.005222,0.0],[46.805383,42.005159,0.0],[46.805119,42.005095,0.0],[46.8049,42.005098,0.0],[46.804419,42.005258,0.0],[46.804222,42.005428,0.0],[46.804229,42.005484,0.0],[46.804185,42.005506,0.0],[46.804078,42.00578,0.0],[46.803991,42.00611,0.0],[46.804,42.006438,0.0],[46.804125,42.006794,0.0],[46.804182,42.006851,0.0],[46.804323,42.006991,0.0],[46.804595,42.007144,0.0],[46.804945,42.00731,0.0],[46.805391,42.007489,0.0],[46.805568,42.007643,0.0],[46.805728,42.007884,0.0]]]}},{"type":"Feature","properties":{"rgi_id":"RGI2000-v7.0-G-12-01939","o1region":"12"},"geometry":{"type":"Polygon","coordinates":[[[46.801805,41.893846,0.0],[46.801814,41.89417,0.0],[46.801745,41.894438,0.0],[46.801678,41.894763,0.0],[46.801792,41.8952,0.0],[46.801949,41.895361,0.0],[46.802028,41.895444,0.0],[46.802289,41.895649,0.0],[46.802577,41.895893,0.0],[46.80264,41.896311,0.0],[46.802681,41.896865,0.0],[46.802792,41.897145,0.0],[46.80318,41.897493,0.0],[46.803465,41.897641,0.0],[46.803723,41.897732,0.0],[46.804055,41.897727,0.0],[46.804563,41.897661,0.0],[46.804916,41.897503,0.0],[46.805242,41.897308,0.0],[46.80567,41.89711,0.0],[46.805947,41.896973,0.0],[46.806167,41.896851,0.0],[46.806322,41.8967,0.0],[46.806619,41.896371,0.0],[46.806611,41.896104,0.0],[46.806526,41.895801,0.0],[46.806392,41.895555,0.0],[46.806181,41.89531,0.0],[46.805945,41.895104,0.0],[46.805771,41.894827,0.0],[46.805736,41.894813,0.0],[46.805323,41.894648,0.0],[46.804938,41.894578,0.0],[46.804504,41.894547,0.0],[46.80417,41.894476,0.0],[46.804014,41.894364,0.0],[46.8039,41.894202,0.0],[46.803828,41.8941,0.0],[46.803621,41.893989,0.0],[46.803311,41.893879,0.0],[46.803079,41.893788,0.0],[46.803039,41.89378,0.0],[46.803001,41.893751,0.0],[46.802641,41.893623,0.0],[46.802053,41.893594,0.0],[46.802042,41.893594,0.0],[46.801812,41.893753,0.0],[46.801805,41.893846,0.0]]]}},{"type":"Feature","properties":{"rgi_id":"RGI2000-v7.0-G-12-01940","o1region":"12"},"geometry":{"type":"Polygon","coordinates":[[[46.757682,41.864542,0.0],[46.75774,41.864633,0.0],[46.757861,41.86486,0.0],[46.757886,41.865103,0.0],[46.757873,41.865317,0.0],[46.75788,41.865575,0.0],[46.757828,41.865761,0.0],[46.75774,41.866034,0.0],[46.757729,41.866335,0.0],[46.757755,41.866592,0.0],[46.757774,41.866645,0.0],[46.758145,41.866857,0.0],[46.758434,41.866953,0.0],[46.758684,41.866978,0.0],[46.758913,41.866974,0.0],[46.759237,41.866926,0.0],[46.759636,41.866835,0.0],[46.759783,41.866753,0.0],[46.759877,41.866559,0.0],[46.759967,41.866329,0.0],[46.760003,41.866246,0.0],[46.759997,41.866028,0.0],[46.760045,41.865713,0.0],[46.760189,41.865368,0.0],[46.760432,41.865164,0.0],[46.760828,41.864943,0.0],[46.761012,41.864683,0.0],[46.760984,41.864383,0.0],[46.76084,41.864014,0.0],[46.760619,41.863617,0.0],[46.76042,41.863348,0.0],[46.760206,41.863194,0.0],[46.759895,41.863027,0.0],[46.759821,41.863009,0.0],[46.759556,41.863013,0.0],[46.759277,41.863018,0.0],[46.758834,41.862846,0.0],[46.758117,41.862857,0.0],[46.757604,41.863014,0.0],[46.757329,41.863167,0.0],[46.757177,41.863437,0.0],[46.757224,41.863677,0.0],[46.75727,41.863912,0.0],[46.757556,41.864206,0.0],[46.757685,41.864531,0.0],[46.757682,41.864542,0.0]]]}}]}
