{"type":"FeatureCollection","features":[{"type":"Feature","properties":{"rgi_id":"RGI2000-v7.0-G-10-00183","o1region":"10"},"geometry":{"type":"Polygon","coordinates":[[[92.020431,69.801724,0.0],[92.020456,69.801186,0.0],[92.019677,69.801181,0.0],[92.01969,69.800912,0.0],[92.018911,69.800908,0.0],[92.018936,69.80037,0.0],[92.018158,69.800366,0.0],[92.018183,69.799828,0.0],[92.017405,69.799824,0.0],[92.017417,69.799555,0.0],[92.016639,69.79955,0.0],[92.016652,69.799281,0.0],[92.015873,69.799277,0.0],[92.015886,69.799008,0.0],[92.015107,69.799004,0.0],[92.01512,69.798735,0.0],[92.014342,69.79873,0.0],[92.014354,69.798461,0.0],[92.013576,69.798457,0.0],[92.013588,69.798188,0.0],[92.01281,69.798184,0.0],[92.012835,69.797646,0.0],[92.012057,69.797641,0.0],[92.012082,69.797103,0.0],[92.011304,69.797099,0.0],[92.011342,69.796292,0.0],[92.010564,69.796288,0.0],[92.010601,69.795481,0.0],[92.009823,69.795476,0.0],[92.009861,69.794669,0.0],[92.010639,69.794674,0.0],[92.010677,69.793867,0.0],[92.009899,69.793862,0.0],[92.009924,69.793324,0.0],[92.009146,69.79332,0.0],[92.009184,69.792513,0.0],[92.008406,69.792509,0.0],[92.008456,69.791433,0.0],[92.007678,69.791429,0.0],[92.007716,69.790622,0.0],[92.006938,69.790617,0.0],[92.006964,69.790079,0.0],[92.006186,69.790075,0.0],[92.006224,69.789268,0.0],[92.005446,69.789264,0.0],[92.005484,69.788457,0.0],[92.004706,69.788452,0.0],[92.004807,69.7863,0.0],[92.004029,69.786296,0.0],[92.004093,69.784951,0.0],[92.002537,69.784942,0.0],[92.002512,69.78548,0.0],[92.001734,69.785476,0.0],[92.001696,69.786283,0.0],[92.000918,69.786278,0.0],[92.00088,69.787085,0.0],[92.000102,69.787081,0.0],[92.000038,69.788426,0.0],[91.99926,69.788421,0.0],[91.999145,69.790842,0.0],[91.998367,69.790838,0.0],[91.998319,69.791864,0.0],[91.998304,69.792183,0.0],[91.997526,69.792178,0.0],[91.997487,69.792985,0.0],[91.998265,69.79299,0.0],[91.99824,69.793528,0.0],[91.999018,69.793532,0.0],[91.999005,69.793801,0.0],[92.000561,69.79381,0.0],[92.000549,69.794079,0.0],[92.001891,69.794086,0.0],[92.002883,69.794092,0.0],[92.00287,69.794361,0.0],[92.003649,69.794365,0.0],[92.003627,69.794811,0.0],[92.003623,69.794903,0.0],[92.003778,69.794904,0.0],[92.004401,69.794908,0.0],[92.004384,69.795272,0.0],[92.004376,69.795446,0.0],[92.004708,69.795448,0.0],[92.005154,69.79545,0.0],[92.005143,69.795678,0.0],[92.005141,69.795719,0.0],[92.005225,69.79572,0.0],[92.00592,69.795723,0.0],[92.005903,69.796085,0.0],[92.005894,69.796261,0.0],[92.006224,69.796263,0.0],[92.006673,69.796266,0.0],[92.006659,69.796557,0.0],[92.006647,69.796804,0.0],[92.007062,69.796806,0.0],[92.007425,69.796808,0.0],[92.007417,69.796987,0.0],[92.007413,69.797077,0.0],[92.007601,69.797078,0.0],[92.008191,69.797082,0.0],[92.008179,69.797332,0.0],[92.008178,69.797351,0.0],[92.008224,69.797351,0.0],[92.008957,69.797355,0.0],[92.008944,69.797624,0.0],[92.009722,69.797628,0.0],[92.00971,69.797897,0.0],[92.010488,69.797902,0.0],[92.01047,69.798277,0.0],[92.010463,69.79844,0.0],[92.010809,69.798441,0.0],[92.011241,69.798444,0.0],[92.011232,69.798628,0.0],[92.011228,69.798713,0.0],[92.011434,69.798714,0.0],[92.012007,69.798717,0.0],[92.011997,69.79892,0.0],[92.011994,69.798986,0.0],[92.012187,69.798987,0.0],[92.012772,69.798991,0.0],[92.012761,69.799232,0.0],[92.01276,69.79926,0.0],[92.012816,69.79926,0.0],[92.013538,69.799264,0.0],[92.01352,69.799651,0.0],[92.013513,69.799802,0.0],[92.013827,69.799804,0.0],[92.014291,69.799806,0.0],[92.014281,69.800024,0.0],[92.014279,69.800075,0.0],[92.014401,69.800076,0.0],[92.015057,69.80008,0.0],[92.015044,69.800355,0.0],[92.015032,69.800617,0.0],[92.015735,69.800621,0.0],[92.01581,69.800622,0.0],[92.015809,69.800649,0.0],[92.015798,69.800891,0.0],[92.016488,69.800895,0.0],[92.017355,69.800899,0.0],[92.017342,69.801165,0.0],[92.017342,69.801168,0.0],[92.017352,69.801169,0.0],[92.018121,69.801173,0.0],[92.018108,69.801442,0.0],[92.018886,69.801446,0.0],[92.018874,69.801715,0.0],[92.020431,69.801724,0.0]]]}},{"type":"Feature","properties":{"rgi_id":"RGI2000-v7.0-G-10-00184","o1region":"10"},"geometry":{"type":"Polygon","coordinates":[[[92.01724,69.786639,0.0],[92.017253,69.78637,0.0],[92.017584,69.786372,0.0],[92.018031,69.786374,0.0],[92.018043,69.786105,0.0],[92.018821,69.78611,0.0],[92.018834,69.785841,0.0],[92.019611,69.785845,0.0],[92.019661,69.784769,0.0],[92.018884,69.784765,0.0],[92.018896,69.784496,0.0],[92.017341,69.784487,0.0],[92.017353,69.784218,0.0],[92.00802,69.784166,0.0],[92.008007,69.784431,0.0],[92.008007,69.784435,0.0],[92.005962,69.784423,0.0],[92.005674,69.784422,0.0],[92.005671,69.784491,0.0],[92.005623,69.785498,0.0],[92.007957,69.785511,0.0],[92.007944,69.78578,0.0],[92.0095,69.785789,0.0],[92.009487,69.786058,0.0],[92.011043,69.786066,0.0],[92.01103,69.786335,0.0],[92.012326,69.786343,0.0],[92.012586,69.786344,0.0],[92.012577,69.786538,0.0],[92.012573,69.786613,0.0],[92.012624,69.786613,0.0],[92.01724,69.786639,0.0]]]}},{"type":"Feature","properties":{"rgi_id":"RGI2000-v7.0-G-10-00185","o1region":"10"},"geometry":{"type":"Polygon","coordinates":[[[92.055236,69.789537,0.0],[92.055272,69.78873,0.0],[92.052938,69.788717,0.0],[92.052926,69.788986,0.0],[92.049814,69.78897,0.0],[92.049802,69.789239,0.0],[92.049024,69.789235,0.0],[92.049012,69.789504,0.0],[92.048234,69.789499,0.0],[92.048222,69.789768,0.0],[92.047444,69.789764,0.0],[92.047432,69.790033,0.0],[92.045876,69.790025,0.0],[92.045864,69.790294,0.0],[92.045086,69.79029,0.0],[92.045074,69.790558,0.0],[92.044296,69.790554,0.0],[92.044283,69.790823,0.0],[92.042727,69.790815,0.0],[92.042715,69.791084,0.0],[92.041159,69.791075,0.0],[92.041147,69.791344,0.0],[92.040369,69.79134,0.0],[92.040344,69.791878,0.0],[92.039566,69.791874,0.0],[92.039554,69.792143,0.0],[92.038776,69.792139,0.0],[92.038751,69.792676,0.0],[92.038751,69.792677,0.0],[92.038753,69.792677,0.0],[92.041086,69.792689,0.0],[92.041098,69.79242,0.0],[92.042654,69.792429,0.0],[92.042666,69.79216,0.0],[92.043444,69.792164,0.0],[92.043457,69.791895,0.0],[92.044235,69.791899,0.0],[92.044247,69.79163,0.0],[92.045025,69.791634,0.0],[92.045037,69.791365,0.0],[92.045815,69.79137,0.0],[92.045827,69.791101,0.0],[92.048161,69.791113,0.0],[92.048174,69.790844,0.0],[92.050508,69.790857,0.0],[92.050532,69.790319,0.0],[92.05131,69.790323,0.0],[92.051322,69.790054,0.0],[92.053656,69.790067,0.0],[92.053668,69.789798,0.0],[92.054446,69.789802,0.0],[92.054458,69.789533,0.0],[92.055236,69.789537,0.0]]]}},{"type":"Feature","properties":{"rgi_id":"RGI2000-v7.0-G-10-00186","o1region":"10"},"geometry":{"type":"Polygon","coordinates":[[[92.090047,69.776267,0.0],[92.090071,69.775729,0.0],[92.089293,69.775725,0.0],[92.089316,69.775187,0.0],[92.090094,69.775191,0.0],[92.090117,69.774653,0.0],[92.093244,69.77467,0.0],[92.093247,69.774476,0.0],[92.093211,69.773203,0.0],[92.093211,69.773055,0.0],[92.088632,69.773031,0.0],[92.08864,69.772832,0.0],[92.088643,69.772762,0.0],[92.08849,69.772762,0.0],[92.086311,69.77275,0.0],[92.086322,69.772498,0.0],[92.086323,69.772481,0.0],[92.086128,69.77248,0.0],[92.082436,69.772461,0.0],[92.082424,69.77273,0.0],[92.079315,69.772714,0.0],[92.079303,69.772983,0.0],[92.076194,69.772967,0.0],[92.076182,69.773236,0.0],[92.074627,69.773228,0.0],[92.074615,69.773497,0.0],[92.073838,69.773493,0.0],[92.073814,69.774031,0.0],[92.073037,69.774026,0.0],[92.073025,69.774295,0.0],[92.072248,69.774291,0.0],[92.072236,69.77456,0.0],[92.069904,69.774548,0.0],[92.069892,69.774817,0.0],[92.069114,69.774813,0.0],[92.069102,69.775082,0.0],[92.06988,69.775086,0.0],[92.069868,69.775355,0.0],[92.070645,69.775359,0.0],[92.070634,69.775628,0.0],[92.072189,69.775636,0.0],[92.072224,69.774829,0.0],[92.073779,69.774837,0.0],[92.073767,69.775106,0.0],[92.074545,69.775111,0.0],[92.074533,69.77538,0.0],[92.076088,69.775388,0.0],[92.076076,69.775657,0.0],[92.083073,69.775693,0.0],[92.083062,69.775962,0.0],[92.084617,69.77597,0.0],[92.084605,69.776239,0.0],[92.090047,69.776267,0.0]]]}},{"type":"Feature","properties":{"rgi_id":"RGI2000-v7.0-G-10-00187","o1region":"10"},"geometry":{"type":"Polygon","coordinates":[[[92.103254,69.776604,0.0],[92.103265,69.776335,0.0],[92.104043,69.776339,0.0],[92.104054,69.77607,0.0],[92.104831,69.776074,0.0],[92.104843,69.775805,0.0],[92.104065,69.775801,0.0],[92.1041,69.774994,0.0],[92.105655,69.775002,0.0],[92.105677,69.774464,0.0],[92.1049,69.77446,0.0],[92.104911,69.774191,0.0],[92.101024,69.774171,0.0],[92.101036,69.773902,0.0],[92.098703,69.77389,0.0],[92.098715,69.773621,0.0],[92.097646,69.773616,0.0],[92.096383,69.773609,0.0],[92.096394,69.773353,0.0],[92.096394,69.77334,0.0],[92.09632,69.77334,0.0],[92.094062,69.773328,0.0],[92.094073,69.773059,0.0],[92.093211,69.773055,0.0],[92.093211,69.773203,0.0],[92.093247,69.774476,0.0],[92.093244,69.77467,0.0],[92.094004,69.774673,0.0],[92.093993,69.774942,0.0],[92.095548,69.77495,0.0],[92.095536,69.775219,0.0],[92.096314,69.775223,0.0],[92.096302,69.775492,0.0],[92.097079,69.775496,0.0],[92.097068,69.775765,0.0],[92.098623,69.775773,0.0],[92.098611,69.776042,0.0],[92.100166,69.77605,0.0],[92.100155,69.776319,0.0],[92.101626,69.776327,0.0],[92.10171,69.776327,0.0],[92.101703,69.776498,0.0],[92.101699,69.776596,0.0],[92.101762,69.776596,0.0],[92.103254,69.776604,0.0]]]}},{"type":"Feature","properties":{"rgi_id":"RGI2000-v7.0-G-10-00188","o1region":"10"},"geometry":{"type":"Polygon","coordinates":[[[92.144095,69.805057,0.0],[92.144106,69.804788,0.0],[92.144885,69.804791,0.0],[92.144918,69.803984,0.0],[92.145696,69.803988,0.0],[92.145707,69.803719,0.0],[92.148821,69.803734,0.0],[92.148832,69.803465,0.0],[92.149611,69.803469,0.0],[92.149632,69.802931,0.0],[92.148854,69.802927,0.0],[92.148886,69.80212,0.0],[92.149665,69.802124,0.0],[92.149687,69.801586,0.0],[92.150465,69.80159,0.0],[92.150476,69.801321,0.0],[92.152811,69.801332,0.0],[92.152822,69.801063,0.0],[92.1536,69.801067,0.0],[92.153611,69.800798,0.0],[92.15439,69.800801,0.0],[92.1544,69.800532,0.0],[92.155179,69.800536,0.0],[92.15519,69.800267,0.0],[92.155968,69.800271,0.0],[92.156033,69.798657,0.0],[92.155254,69.798653,0.0],[92.155297,69.797577,0.0],[92.154519,69.797574,0.0],[92.15453,69.797305,0.0],[92.152195,69.797293,0.0],[92.152184,69.797562,0.0],[92.151406,69.797559,0.0],[92.151384,69.798097,0.0],[92.150606,69.798093,0.0],[92.150584,69.798631,0.0],[92.149806,69.798627,0.0],[92.149784,69.799165,0.0],[92.149006,69.799161,0.0],[92.148995,69.79943,0.0],[92.148217,69.799427,0.0],[92.148206,69.799696,0.0],[92.146649,69.799688,0.0],[92.146638,69.799957,0.0],[92.14586,69.799953,0.0],[92.145849,69.800222,0.0],[92.14507,69.800218,0.0],[92.145049,69.800756,0.0],[92.14427,69.800753,0.0],[92.144248,69.801291,0.0],[92.14347,69.801287,0.0],[92.143448,69.801825,0.0],[92.14267,69.801821,0.0],[92.142626,69.802897,0.0],[92.141847,69.802893,0.0],[92.141814,69.8037,0.0],[92.141036,69.803697,0.0],[92.141003,69.804503,0.0],[92.141782,69.804507,0.0],[92.141771,69.804776,0.0],[92.142549,69.80478,0.0],[92.142538,69.805049,0.0],[92.144095,69.805057,0.0]]]}},{"type":"Feature","properties":{"rgi_id":"RGI2000-v7.0-G-10-00189","o1region":"10"},"geometry":{"type":"Polygon","coordinates":[[[92.092386,69.812332,0.0],[92.092398,69.812063,0.0],[92.093176,69.812067,0.0],[92.0932,69.811529,0.0],[92.096315,69.811545,0.0],[92.096361,69.810469,0.0],[92.09714,69.810473,0.0],[92.097151,69.810204,0.0],[92.09793,69.810208,0.0],[92.097964,69.809401,0.0],[92.098743,69.809405,0.0],[92.098755,69.809136,0.0],[92.099533,69.80914,0.0],[92.099556,69.808602,0.0],[92.101114,69.80861,0.0],[92.101125,69.808341,0.0],[92.10424,69.808357,0.0],[92.104263,69.807819,0.0],[92.105042,69.807823,0.0],[92.105053,69.807554,0.0],[92.10661,69.807561,0.0],[92.106622,69.807293,0.0],[92.108958,69.807304,0.0],[92.108969,69.807035,0.0],[92.112084,69.807051,0.0],[92.112095,69.806782,0.0],[92.112873,69.806786,0.0],[92.112885,69.806517,0.0],[92.113663,69.806521,0.0],[92.113675,69.806252,0.0],[92.115232,69.80626,0.0],[92.115243,69.805991,0.0],[92.116022,69.805995,0.0],[92.116056,69.805188,0.0],[92.115277,69.805184,0.0],[92.115288,69.804915,0.0],[92.11451,69.804911,0.0],[92.114521,69.804642,0.0],[92.108293,69.80461,0.0],[92.108304,69.804341,0.0],[92.107526,69.804338,0.0],[92.107537,69.804069,0.0],[92.10598,69.804061,0.0],[92.105991,69.803792,0.0],[92.104434,69.803784,0.0],[92.104423,69.804053,0.0],[92.103644,69.804049,0.0],[92.103633,69.804318,0.0],[92.102076,69.80431,0.0],[92.102064,69.804579,0.0],[92.098172,69.804559,0.0],[92.09816,69.804828,0.0],[92.097381,69.804824,0.0],[92.09737,69.805093,0.0],[92.096591,69.805089,0.0],[92.09658,69.805358,0.0],[92.095801,69.805354,0.0],[92.09579,69.805623,0.0],[92.094233,69.805615,0.0],[92.094198,69.806422,0.0],[92.093419,69.806418,0.0],[92.093396,69.806956,0.0],[92.092618,69.806952,0.0],[92.092571,69.808028,0.0],[92.091014,69.80802,0.0],[92.091037,69.807482,0.0],[92.08948,69.807474,0.0],[92.08941,69.809088,0.0],[92.090189,69.809092,0.0],[92.090177,69.809361,0.0],[92.090956,69.809365,0.0],[92.09091,69.810441,0.0],[92.090131,69.810437,0.0],[92.090119,69.810706,0.0],[92.08934,69.810702,0.0],[92.089306,69.811509,0.0],[92.090084,69.811513,0.0],[92.090073,69.811782,0.0],[92.090852,69.811786,0.0],[92.09084,69.812055,0.0],[92.091619,69.812059,0.0],[92.091607,69.812328,0.0],[92.092386,69.812332,0.0]],[[92.095744,69.806699,0.0],[92.097301,69.806707,0.0],[92.097278,69.807245,0.0],[92.096499,69.807241,0.0],[92.096465,69.808048,0.0],[92.094907,69.80804,0.0],[92.094942,69.807233,0.0],[92.095721,69.807237,0.0],[92.095744,69.806699,0.0]]]}},{"type":"Feature","properties":{"rgi_id":"RGI2000-v7.0-G-10-00190","o1region":"10"},"geometry":{"type":"Polygon","coordinates":[[[92.085514,69.827094,0.0],[92.085525,69.826825,0.0],[92.086305,69.826829,0.0],[92.086316,69.82656,0.0],[92.087096,69.826564,0.0],[92.087131,69.825757,0.0],[92.08791,69.825761,0.0],[92.087968,69.824416,0.0],[92.088747,69.82442,0.0],[92.088771,69.823882,0.0],[92.08955,69.823886,0.0],[92.089561,69.82364,0.0],[92.089562,69.823617,0.0],[92.090341,69.823621,0.0],[92.090399,69.822276,0.0],[92.08962,69.822272,0.0],[92.089678,69.820927,0.0],[92.088899,69.820923,0.0],[92.088922,69.820385,0.0],[92.088143,69.820381,0.0],[92.088154,69.820112,0.0],[92.087375,69.820108,0.0],[92.087503,69.81715,0.0],[92.086724,69.817146,0.0],[92.086736,69.816877,0.0],[92.085957,69.816873,0.0],[92.085945,69.817142,0.0],[92.085166,69.817138,0.0],[92.085131,69.817944,0.0],[92.08591,69.817948,0.0],[92.085864,69.819024,0.0],[92.085085,69.81902,0.0],[92.085026,69.820365,0.0],[92.084247,69.820361,0.0],[92.084212,69.821168,0.0],[92.083433,69.821164,0.0],[92.083402,69.821867,0.0],[92.083398,69.821971,0.0],[92.082716,69.821968,0.0],[92.082619,69.821967,0.0],[92.082618,69.821988,0.0],[92.082607,69.822236,0.0],[92.081828,69.822232,0.0],[92.081816,69.822501,0.0],[92.081037,69.822497,0.0],[92.081013,69.823035,0.0],[92.080234,69.823031,0.0],[92.080199,69.823838,0.0],[92.07942,69.823834,0.0],[92.079361,69.825179,0.0],[92.077802,69.825171,0.0],[92.07779,69.82544,0.0],[92.077011,69.825436,0.0],[92.076988,69.825974,0.0],[92.077767,69.825978,0.0],[92.077755,69.826247,0.0],[92.078534,69.826251,0.0],[92.078523,69.82652,0.0],[92.079302,69.826524,0.0],[92.07929,69.826793,0.0],[92.080849,69.826801,0.0],[92.080861,69.826532,0.0],[92.082419,69.82654,0.0],[92.082408,69.826809,0.0],[92.083187,69.826813,0.0],[92.083164,69.827351,0.0],[92.082384,69.827347,0.0],[92.082373,69.827616,0.0],[92.084711,69.827628,0.0],[92.084734,69.82709,0.0],[92.085514,69.827094,0.0]]]}},{"type":"Feature","properties":{"rgi_id":"RGI2000-v7.0-G-10-00191","o1region":"10"},"geometry":{"type":"Polygon","coordinates":[[[92.19,69.745276,0.0],[92.19001,69.745007,0.0],[92.190786,69.745011,0.0],[92.190797,69.744742,0.0],[92.19002,69.744738,0.0],[92.19003,69.744469,0.0],[92.189254,69.744466,0.0],[92.189316,69.742852,0.0],[92.190092,69.742855,0.0],[92.190082,69.743124,0.0],[92.192411,69.743135,0.0],[92.192431,69.742597,0.0],[92.195537,69.742611,0.0],[92.195526,69.74288,0.0],[92.197079,69.742887,0.0],[92.19713,69.741542,0.0],[92.198682,69.741549,0.0],[92.198693,69.74128,0.0],[92.199469,69.741284,0.0],[92.199489,69.740746,0.0],[92.200265,69.740749,0.0],[92.200286,69.740211,0.0],[92.19951,69.740208,0.0],[92.19952,69.739939,0.0],[92.198744,69.739935,0.0],[92.198754,69.739666,0.0],[92.197978,69.739663,0.0],[92.197967,69.739932,0.0],[92.197191,69.739928,0.0],[92.197171,69.740466,0.0],[92.197947,69.74047,0.0],[92.197916,69.741277,0.0],[92.195588,69.741266,0.0],[92.195598,69.740997,0.0],[92.194822,69.740994,0.0],[92.194832,69.740725,0.0],[92.193279,69.740718,0.0],[92.19329,69.740449,0.0],[92.191737,69.740441,0.0],[92.191727,69.74071,0.0],[92.190175,69.740703,0.0],[92.190164,69.740972,0.0],[92.188612,69.740965,0.0],[92.188602,69.741234,0.0],[92.187825,69.741231,0.0],[92.187815,69.7415,0.0],[92.186263,69.741492,0.0],[92.186252,69.741761,0.0],[92.185476,69.741758,0.0],[92.185466,69.742027,0.0],[92.183913,69.74202,0.0],[92.183903,69.742289,0.0],[92.181574,69.742278,0.0],[92.181584,69.742009,0.0],[92.180032,69.742002,0.0],[92.180021,69.742271,0.0],[92.178469,69.742263,0.0],[92.178448,69.742801,0.0],[92.180777,69.742812,0.0],[92.180766,69.743081,0.0],[92.181543,69.743085,0.0],[92.181532,69.743354,0.0],[92.182309,69.743357,0.0],[92.182298,69.743626,0.0],[92.183074,69.74363,0.0],[92.183064,69.743899,0.0],[92.18384,69.743903,0.0],[92.18383,69.744172,0.0],[92.184606,69.744175,0.0],[92.184596,69.744444,0.0],[92.185372,69.744448,0.0],[92.185362,69.744717,0.0],[92.186138,69.74472,0.0],[92.186128,69.744989,0.0],[92.186904,69.744993,0.0],[92.186894,69.745262,0.0],[92.19,69.745276,0.0]]]}},{"type":"Feature","properties":{"rgi_id":"RGI2000-v7.0-G-10-00192","o1region":"10"},"geometry":{"type":"Polygon","coordinates":[[[92.20961,69.739984,0.0],[92.20965,69.738908,0.0],[92.210427,69.738912,0.0],[92.210447,69.738374,0.0],[92.211223,69.738377,0.0],[92.211233,69.738108,0.0],[92.210457,69.738105,0.0],[92.210467,69.737836,0.0],[92.208138,69.737825,0.0],[92.208159,69.737287,0.0],[92.206606,69.73728,0.0],[92.206596,69.737549,0.0],[92.20582,69.737546,0.0],[92.20581,69.737815,0.0],[92.204258,69.737808,0.0],[92.204217,69.738884,0.0],[92.204994,69.738887,0.0],[92.204983,69.739156,0.0],[92.20576,69.73916,0.0],[92.20575,69.739429,0.0],[92.206526,69.739432,0.0],[92.206516,69.739701,0.0],[92.207292,69.739705,0.0],[92.207282,69.739974,0.0],[92.20961,69.739984,0.0]]]}},{"type":"Feature","properties":{"rgi_id":"RGI2000-v7.0-G-10-00193","o1region":"10"},"geometry":{"type":"Polygon","coordinates":[[[92.195894,69.733196,0.0],[92.195915,69.732658,0.0],[92.194363,69.732651,0.0],[92.194353,69.73292,0.0],[92.192801,69.732913,0.0],[92.192791,69.733182,0.0],[92.192015,69.733178,0.0],[92.191953,69.734792,0.0],[92.191177,69.734789,0.0],[92.191167,69.735058,0.0],[92.190391,69.735054,0.0],[92.19038,69.735323,0.0],[92.189604,69.73532,0.0],[92.189594,69.735589,0.0],[92.188818,69.735585,0.0],[92.188808,69.735854,0.0],[92.188032,69.735851,0.0],[92.188011,69.736389,0.0],[92.190339,69.736399,0.0],[92.19035,69.73613,0.0],[92.192678,69.736141,0.0],[92.192688,69.735872,0.0],[92.193464,69.735876,0.0],[92.193536,69.733993,0.0],[92.194312,69.733996,0.0],[92.194322,69.733727,0.0],[92.195098,69.733731,0.0],[92.195118,69.733193,0.0],[92.195894,69.733196,0.0]]]}},{"type":"Feature","properties":{"rgi_id":"RGI2000-v7.0-G-10-00194","o1region":"10"},"geometry":{"type":"Polygon","coordinates":[[[92.185693,69.71593,0.0],[92.187244,69.715938,0.0],[92.187234,69.716207,0.0],[92.19111,69.716225,0.0],[92.19112,69.715956,0.0],[92.192671,69.715963,0.0],[92.192692,69.715425,0.0],[92.193467,69.715428,0.0],[92.193498,69.714621,0.0],[92.194273,69.714625,0.0],[92.194283,69.714356,0.0],[92.195834,69.714363,0.0],[92.195844,69.714094,0.0],[92.196619,69.714097,0.0],[92.19665,69.71329,0.0],[92.195874,69.713287,0.0],[92.195885,69.713018,0.0],[92.194334,69.713011,0.0],[92.194365,69.712204,0.0],[92.19359,69.7122,0.0],[92.1936,69.711931,0.0],[92.192825,69.711928,0.0],[92.192814,69.712197,0.0],[92.188163,69.712175,0.0],[92.188153,69.712444,0.0],[92.186603,69.712437,0.0],[92.186592,69.712706,0.0],[92.185042,69.712699,0.0],[92.185032,69.712968,0.0],[92.184257,69.712964,0.0],[92.184246,69.713233,0.0],[92.183471,69.71323,0.0],[92.18344,69.714037,0.0],[92.182665,69.714033,0.0],[92.182613,69.715378,0.0],[92.183388,69.715382,0.0],[92.183357,69.716189,0.0],[92.185683,69.716199,0.0],[92.185693,69.71593,0.0]]]}},{"type":"Feature","properties":{"rgi_id":"RGI2000-v7.0-G-10-00195","o1region":"10"},"geometry":{"type":"Polygon","coordinates":[[[92.249677,69.7485,0.0],[92.249687,69.748231,0.0],[92.250463,69.748234,0.0],[92.250482,69.747696,0.0],[92.251259,69.747699,0.0],[92.251287,69.746892,0.0],[92.252064,69.746896,0.0],[92.252083,69.746358,0.0],[92.252859,69.746361,0.0],[92.252878,69.745823,0.0],[92.253655,69.745826,0.0],[92.253674,69.745288,0.0],[92.25445,69.745292,0.0],[92.254469,69.744754,0.0],[92.253693,69.74475,0.0],[92.253712,69.744212,0.0],[92.254488,69.744216,0.0],[92.254497,69.743947,0.0],[92.255274,69.74395,0.0],[92.255283,69.743681,0.0],[92.25606,69.743684,0.0],[92.256088,69.742877,0.0],[92.256864,69.74288,0.0],[92.256883,69.742342,0.0],[92.257659,69.742346,0.0],[92.257669,69.742077,0.0],[92.258445,69.74208,0.0],[92.258455,69.741811,0.0],[92.257678,69.741808,0.0],[92.257688,69.741539,0.0],[92.256911,69.741535,0.0],[92.256902,69.741804,0.0],[92.256126,69.741801,0.0],[92.256116,69.74207,0.0],[92.254564,69.742064,0.0],[92.254573,69.741795,0.0],[92.253021,69.741788,0.0],[92.252973,69.743133,0.0],[92.252197,69.74313,0.0],[92.252187,69.743399,0.0],[92.251411,69.743395,0.0],[92.251421,69.743126,0.0],[92.248315,69.743113,0.0],[92.248306,69.743382,0.0],[92.247529,69.743379,0.0],[92.24751,69.743917,0.0],[92.246734,69.743914,0.0],[92.246715,69.744452,0.0],[92.245938,69.744448,0.0],[92.2459,69.745524,0.0],[92.245124,69.745521,0.0],[92.245114,69.74579,0.0],[92.244338,69.745787,0.0],[92.244328,69.746056,0.0],[92.241222,69.746042,0.0],[92.241203,69.74658,0.0],[92.241979,69.746584,0.0],[92.24197,69.746853,0.0],[92.242746,69.746856,0.0],[92.242737,69.747125,0.0],[92.243513,69.747128,0.0],[92.243503,69.747397,0.0],[92.24428,69.747401,0.0],[92.24427,69.74767,0.0],[92.245047,69.747673,0.0],[92.245037,69.747942,0.0],[92.245814,69.747945,0.0],[92.245804,69.748214,0.0],[92.246581,69.748218,0.0],[92.246571,69.748487,0.0],[92.249677,69.7485,0.0]]]}},{"type":"Feature","properties":{"rgi_id":"RGI2000-v7.0-G-10-00196","o1region":"10"},"geometry":{"type":"Polygon","coordinates":[[[92.335695,69.729743,0.0],[92.335703,69.729474,0.0],[92.337255,69.72948,0.0],[92.337263,69.729211,0.0],[92.338815,69.729217,0.0],[92.338823,69.728948,0.0],[92.339599,69.728951,0.0],[92.339616,69.728413,0.0],[92.340392,69.728416,0.0],[92.3404,69.728147,0.0],[92.341176,69.72815,0.0],[92.341193,69.727612,0.0],[92.341969,69.727615,0.0],[92.341977,69.727346,0.0],[92.342753,69.727348,0.0],[92.342761,69.727079,0.0],[92.343537,69.727082,0.0],[92.343603,69.72493,0.0],[92.343757,69.724931,0.0],[92.344379,69.724933,0.0],[92.344387,69.724664,0.0],[92.345163,69.724667,0.0],[92.34518,69.724129,0.0],[92.345955,69.724132,0.0],[92.345972,69.723594,0.0],[92.345196,69.723591,0.0],[92.345213,69.723053,0.0],[92.344437,69.72305,0.0],[92.344454,69.722512,0.0],[92.343678,69.722509,0.0],[92.343695,69.721971,0.0],[92.34292,69.721968,0.0],[92.342953,69.720892,0.0],[92.342177,69.720889,0.0],[92.342186,69.72062,0.0],[92.34141,69.720617,0.0],[92.341427,69.720079,0.0],[92.340651,69.720077,0.0],[92.34066,69.719808,0.0],[92.339884,69.719805,0.0],[92.339893,69.719536,0.0],[92.339117,69.719533,0.0],[92.339134,69.718995,0.0],[92.33991,69.718998,0.0],[92.339926,69.71846,0.0],[92.339151,69.718457,0.0],[92.339159,69.718188,0.0],[92.338384,69.718185,0.0],[92.338401,69.717647,0.0],[92.337625,69.717644,0.0],[92.337634,69.717375,0.0],[92.336858,69.717372,0.0],[92.33685,69.717641,0.0],[92.336074,69.717638,0.0],[92.336049,69.718445,0.0],[92.335274,69.718442,0.0],[92.335257,69.71898,0.0],[92.336032,69.718983,0.0],[92.336015,69.719521,0.0],[92.336791,69.719524,0.0],[92.336782,69.719793,0.0],[92.337558,69.719796,0.0],[92.337541,69.720334,0.0],[92.338317,69.720337,0.0],[92.338308,69.720606,0.0],[92.337533,69.720603,0.0],[92.337524,69.720872,0.0],[92.339851,69.720881,0.0],[92.339831,69.721521,0.0],[92.339826,69.721688,0.0],[92.340002,69.721688,0.0],[92.340601,69.721691,0.0],[92.340587,69.722144,0.0],[92.340585,69.722229,0.0],[92.340706,69.722229,0.0],[92.34136,69.722232,0.0],[92.341344,69.722761,0.0],[92.341343,69.72277,0.0],[92.341351,69.72277,0.0],[92.342119,69.722772,0.0],[92.342084,69.723888,0.0],[92.342077,69.724117,0.0],[92.342414,69.724119,0.0],[92.342853,69.72412,0.0],[92.342845,69.724385,0.0],[92.342836,69.724658,0.0],[92.34206,69.724655,0.0],[92.342052,69.724924,0.0],[92.341276,69.724922,0.0],[92.341268,69.725191,0.0],[92.340492,69.725188,0.0],[92.340484,69.725457,0.0],[92.339708,69.725454,0.0],[92.3397,69.725723,0.0],[92.338924,69.72572,0.0],[92.338899,69.726527,0.0],[92.338123,69.726524,0.0],[92.338115,69.726793,0.0],[92.336563,69.726787,0.0],[92.336555,69.727056,0.0],[92.335779,69.727053,0.0],[92.335771,69.727322,0.0],[92.334995,69.727319,0.0],[92.334987,69.727588,0.0],[92.334211,69.727585,0.0],[92.334202,69.727854,0.0],[92.333427,69.727851,0.0],[92.333376,69.729465,0.0],[92.334152,69.729468,0.0],[92.334143,69.729737,0.0],[92.335695,69.729743,0.0]]]}},{"type":"Feature","properties":{"rgi_id":"RGI2000-v7.0-G-10-00197","o1region":"10"},"geometry":{"type":"Polygon","coordinates":[[[92.316994,69.65999,0.0],[92.317003,69.659721,0.0],[92.317776,69.659724,0.0],[92.317802,69.658917,0.0],[92.318575,69.65892,0.0],[92.318584,69.658651,0.0],[92.319357,69.658654,0.0],[92.319365,69.658385,0.0],[92.318592,69.658382,0.0],[92.318601,69.658113,0.0],[92.316281,69.658104,0.0],[92.316273,69.658373,0.0],[92.314726,69.658367,0.0],[92.314717,69.658636,0.0],[92.313171,69.65863,0.0],[92.313162,69.658899,0.0],[92.309296,69.658884,0.0],[92.309278,69.659422,0.0],[92.310825,69.659428,0.0],[92.310816,69.659697,0.0],[92.313909,69.659709,0.0],[92.313901,69.659978,0.0],[92.316994,69.65999,0.0]]]}},{"type":"Feature","properties":{"rgi_id":"RGI2000-v7.0-G-10-00198","o1region":"10"},"geometry":{"type":"Polygon","coordinates":[[[92.330989,69.657623,0.0],[92.331006,69.657085,0.0],[92.330233,69.657082,0.0],[92.33025,69.656544,0.0],[92.329477,69.656541,0.0],[92.329494,69.656003,0.0],[92.327948,69.655997,0.0],[92.327939,69.656266,0.0],[92.326393,69.65626,0.0],[92.326384,69.656529,0.0],[92.324838,69.656523,0.0],[92.324829,69.656792,0.0],[92.324056,69.656789,0.0],[92.324048,69.657058,0.0],[92.323274,69.657055,0.0],[92.323266,69.657324,0.0],[92.322493,69.657321,0.0],[92.322484,69.65759,0.0],[92.321711,69.657587,0.0],[92.321702,69.657856,0.0],[92.320929,69.657853,0.0],[92.320912,69.658391,0.0],[92.325551,69.658409,0.0],[92.32556,69.65814,0.0],[92.32788,69.658149,0.0],[92.327888,69.65788,0.0],[92.330208,69.657889,0.0],[92.330216,69.65762,0.0],[92.330989,69.657623,0.0]]]}},{"type":"Feature","properties":{"rgi_id":"RGI2000-v7.0-G-10-00199","o1region":"10"},"geometry":{"type":"Polygon","coordinates":[[[92.351932,69.655549,0.0],[92.35194,69.65528,0.0],[92.361217,69.655314,0.0],[92.361234,69.654776,0.0],[92.36046,69.654773,0.0],[92.360469,69.654504,0.0],[92.356603,69.65449,0.0],[92.356611,69.654221,0.0],[92.355065,69.654215,0.0],[92.355057,69.654484,0.0],[92.354284,69.654482,0.0],[92.354276,69.654751,0.0],[92.352729,69.654745,0.0],[92.352721,69.655014,0.0],[92.351948,69.655011,0.0],[92.351956,69.654742,0.0],[92.35041,69.654736,0.0],[92.350418,69.654467,0.0],[92.348872,69.654462,0.0],[92.348856,69.655,0.0],[92.349629,69.655002,0.0],[92.349621,69.655271,0.0],[92.350394,69.655274,0.0],[92.350385,69.655543,0.0],[92.351932,69.655549,0.0]]]}},{"type":"Feature","properties":{"rgi_id":"RGI2000-v7.0-G-10-00200","o1region":"10"},"geometry":{"type":"Polygon","coordinates":[[[92.096307,69.393166,0.0],[92.096318,69.392897,0.0],[92.097846,69.392905,0.0],[92.097857,69.392636,0.0],[92.099384,69.392644,0.0],[92.099395,69.392375,0.0],[92.100923,69.392383,0.0],[92.100934,69.392114,0.0],[92.102461,69.392122,0.0],[92.102472,69.391853,0.0],[92.103236,69.391857,0.0],[92.103247,69.391588,0.0],[92.104774,69.391596,0.0],[92.104786,69.391327,0.0],[92.10784,69.391342,0.0],[92.107851,69.391073,0.0],[92.109378,69.391081,0.0],[92.10939,69.390812,0.0],[92.110153,69.390816,0.0],[92.110164,69.390547,0.0],[92.110928,69.390551,0.0],[92.110939,69.390282,0.0],[92.111702,69.390286,0.0],[92.111714,69.390017,0.0],[92.11095,69.390013,0.0],[92.110961,69.389744,0.0],[92.107907,69.389728,0.0],[92.107896,69.389997,0.0],[92.107132,69.389993,0.0],[92.107121,69.390262,0.0],[92.10254,69.390239,0.0],[92.102528,69.390508,0.0],[92.101765,69.390504,0.0],[92.101754,69.390773,0.0],[92.10099,69.390769,0.0],[92.100979,69.391038,0.0],[92.099452,69.39103,0.0],[92.09944,69.391299,0.0],[92.098677,69.391295,0.0],[92.098666,69.391564,0.0],[92.097138,69.391556,0.0],[92.097127,69.391825,0.0],[92.096363,69.391821,0.0],[92.096352,69.39209,0.0],[92.095589,69.392086,0.0],[92.095577,69.392355,0.0],[92.094814,69.392351,0.0],[92.094791,69.392889,0.0],[92.095555,69.392893,0.0],[92.095543,69.393162,0.0],[92.096307,69.393166,0.0]]]}},{"type":"Feature","properties":{"rgi_id":"RGI2000-v7.0-G-10-00201","o1region":"10"},"geometry":{"type":"Polygon","coordinates":[[[92.21971,69.381388,0.0],[92.21972,69.381119,0.0],[92.220483,69.381122,0.0],[92.220502,69.380584,0.0],[92.221266,69.380587,0.0],[92.221275,69.380318,0.0],[92.222039,69.380322,0.0],[92.222058,69.379784,0.0],[92.219768,69.379773,0.0],[92.219759,69.380043,0.0],[92.217469,69.380032,0.0],[92.217459,69.380301,0.0],[92.215933,69.380294,0.0],[92.215923,69.380563,0.0],[92.214396,69.380556,0.0],[92.214406,69.380287,0.0],[92.213643,69.380284,0.0],[92.213653,69.380015,0.0],[92.21289,69.380012,0.0],[92.212899,69.379742,0.0],[92.21061,69.379732,0.0],[92.2106,69.380001,0.0],[92.209837,69.379998,0.0],[92.209827,69.380267,0.0],[92.21059,69.38027,0.0],[92.21057,69.380808,0.0],[92.211334,69.380812,0.0],[92.211324,69.381081,0.0],[92.212087,69.381084,0.0],[92.212097,69.380815,0.0],[92.213623,69.380822,0.0],[92.213614,69.381091,0.0],[92.214377,69.381094,0.0],[92.214367,69.381363,0.0],[92.21971,69.381388,0.0]]]}},{"type":"Feature","properties":{"rgi_id":"RGI2000-v7.0-G-10-00202","o1region":"10"},"geometry":{"type":"Polygon","coordinates":[[[92.364831,69.300995,0.0],[92.364839,69.300726,0.0],[92.365599,69.300729,0.0],[92.365607,69.30046,0.0],[92.366368,69.300463,0.0],[92.366376,69.300194,0.0],[92.367136,69.300196,0.0],[92.367144,69.299927,0.0],[92.367904,69.29993,0.0],[92.367912,69.299661,0.0],[92.370193,69.299669,0.0],[92.370201,69.2994,0.0],[92.374003,69.299414,0.0],[92.373996,69.299683,0.0],[92.375516,69.299689,0.0],[92.375524,69.29942,0.0],[92.380087,69.299436,0.0],[92.380094,69.299167,0.0],[92.380855,69.29917,0.0],[92.380862,69.298901,0.0],[92.382383,69.298906,0.0],[92.382391,69.298637,0.0],[92.383912,69.298643,0.0],[92.383919,69.298374,0.0],[92.38468,69.298376,0.0],[92.384687,69.298107,0.0],[92.385448,69.29811,0.0],[92.385455,69.297841,0.0],[92.386216,69.297844,0.0],[92.386223,69.297575,0.0],[92.386984,69.297577,0.0],[92.387029,69.295963,0.0],[92.38779,69.295966,0.0],[92.387797,69.295697,0.0],[92.388558,69.2957,0.0],[92.388565,69.295431,0.0],[92.389325,69.295433,0.0],[92.389356,69.294357,0.0],[92.391636,69.294365,0.0],[92.391644,69.294096,0.0],[92.392404,69.294099,0.0],[92.392412,69.29383,0.0],[92.391652,69.293827,0.0],[92.391659,69.293558,0.0],[92.38886,69.293548,0.0],[92.387858,69.293545,0.0],[92.387853,69.293725,0.0],[92.38785,69.293814,0.0],[92.387373,69.293812,0.0],[92.38709,69.293811,0.0],[92.387089,69.293859,0.0],[92.387083,69.29408,0.0],[92.385916,69.294076,0.0],[92.385562,69.294075,0.0],[92.38556,69.294153,0.0],[92.385555,69.294344,0.0],[92.384794,69.294341,0.0],[92.384787,69.29461,0.0],[92.38349,69.294605,0.0],[92.383266,69.294605,0.0],[92.383265,69.294658,0.0],[92.383259,69.294874,0.0],[92.382498,69.294871,0.0],[92.382491,69.29514,0.0],[92.380297,69.295132,0.0],[92.38021,69.295132,0.0],[92.380209,69.295146,0.0],[92.380202,69.295401,0.0],[92.378312,69.295394,0.0],[92.377921,69.295393,0.0],[92.37792,69.295446,0.0],[92.377914,69.295662,0.0],[92.376751,69.295657,0.0],[92.376393,69.295656,0.0],[92.376391,69.295726,0.0],[92.376385,69.295925,0.0],[92.375535,69.295922,0.0],[92.374865,69.29592,0.0],[92.374859,69.296127,0.0],[92.374857,69.296189,0.0],[92.374669,69.296188,0.0],[92.374097,69.296186,0.0],[92.37409,69.296397,0.0],[92.374081,69.296724,0.0],[92.373321,69.296721,0.0],[92.373313,69.29699,0.0],[92.372553,69.296988,0.0],[92.372545,69.297257,0.0],[92.37187,69.297254,0.0],[92.371784,69.297254,0.0],[92.371784,69.297287,0.0],[92.371777,69.297523,0.0],[92.37119,69.297521,0.0],[92.371016,69.29752,0.0],[92.371014,69.297585,0.0],[92.371009,69.297789,0.0],[92.370463,69.297787,0.0],[92.370248,69.297786,0.0],[92.370246,69.297865,0.0],[92.37024,69.298055,0.0],[92.369651,69.298053,0.0],[92.36948,69.298053,0.0],[92.369478,69.298108,0.0],[92.369472,69.298322,0.0],[92.368712,69.298319,0.0],[92.368704,69.298588,0.0],[92.367404,69.298583,0.0],[92.367183,69.298582,0.0],[92.367182,69.298626,0.0],[92.367175,69.298851,0.0],[92.365918,69.298847,0.0],[92.365654,69.298846,0.0],[92.365653,69.298895,0.0],[92.365647,69.299115,0.0],[92.364126,69.299109,0.0],[92.364118,69.299378,0.0],[92.361837,69.29937,0.0],[92.361829,69.299639,0.0],[92.361068,69.299636,0.0],[92.36106,69.299905,0.0],[92.3603,69.299902,0.0],[92.360276,69.300709,0.0],[92.361797,69.300715,0.0],[92.361789,69.300984,0.0],[92.364831,69.300995,0.0]]]}},{"type":"Feature","properties":{"rgi_id":"RGI2000-v7.0-G-10-00203","o1region":"10"},"geometry":{"type":"Polygon","coordinates":[[[92.412178,69.293898,0.0],[92.412192,69.29336,0.0],[92.411432,69.293357,0.0],[92.411439,69.293088,0.0],[92.410679,69.293086,0.0],[92.410686,69.292817,0.0],[92.409926,69.292814,0.0],[92.409934,69.292545,0.0],[92.406133,69.292532,0.0],[92.406125,69.292801,0.0],[92.403685,69.292793,0.0],[92.403085,69.292791,0.0],[92.403078,69.293048,0.0],[92.403077,69.29306,0.0],[92.403062,69.29306,0.0],[92.401557,69.293054,0.0],[92.401549,69.293324,0.0],[92.400789,69.293321,0.0],[92.400774,69.293859,0.0],[92.400014,69.293856,0.0],[92.400007,69.294125,0.0],[92.399246,69.294123,0.0],[92.399231,69.294661,0.0],[92.402779,69.294673,0.0],[92.406074,69.294684,0.0],[92.406081,69.294415,0.0],[92.409122,69.294426,0.0],[92.409129,69.294157,0.0],[92.41141,69.294164,0.0],[92.411417,69.293895,0.0],[92.412178,69.293898,0.0]]]}},{"type":"Feature","properties":{"rgi_id":"RGI2000-v7.0-G-10-00204","o1region":"10"},"geometry":{"type":"Polygon","coordinates":[[[92.428487,69.223193,0.0],[92.428494,69.222924,0.0],[92.429252,69.222926,0.0],[92.429259,69.222657,0.0],[92.431532,69.222665,0.0],[92.431539,69.222396,0.0],[92.432297,69.222398,0.0],[92.432304,69.222129,0.0],[92.433062,69.222132,0.0],[92.433069,69.221863,0.0],[92.433827,69.221865,0.0],[92.433834,69.221596,0.0],[92.434591,69.221598,0.0],[92.434605,69.22106,0.0],[92.433848,69.221058,0.0],[92.433869,69.220251,0.0],[92.433111,69.220248,0.0],[92.433153,69.218634,0.0],[92.432395,69.218632,0.0],[92.432402,69.218363,0.0],[92.431645,69.21836,0.0],[92.431652,69.218091,0.0],[92.430137,69.218086,0.0],[92.43013,69.218355,0.0],[92.428614,69.21835,0.0],[92.428607,69.218619,0.0],[92.427092,69.218614,0.0],[92.427057,69.219959,0.0],[92.426299,69.219957,0.0],[92.426292,69.220226,0.0],[92.425534,69.220223,0.0],[92.425492,69.221837,0.0],[92.426249,69.22184,0.0],[92.426235,69.222378,0.0],[92.426993,69.222381,0.0],[92.426979,69.222919,0.0],[92.427737,69.222921,0.0],[92.427729,69.22319,0.0],[92.428487,69.223193,0.0]]]}},{"type":"Feature","properties":{"rgi_id":"RGI2000-v7.0-G-10-00205","o1region":"10"},"geometry":{"type":"Polygon","coordinates":[[[91.966766,69.24311,0.0],[91.966778,69.242841,0.0],[91.968295,69.24285,0.0],[91.968308,69.242581,0.0],[91.969066,69.242586,0.0],[91.969079,69.242317,0.0],[91.972112,69.242335,0.0],[91.972125,69.242066,0.0],[91.972883,69.24207,0.0],[91.972896,69.241801,0.0],[91.973654,69.241806,0.0],[91.973667,69.241537,0.0],[91.974425,69.241541,0.0],[91.974438,69.241272,0.0],[91.977471,69.24129,0.0],[91.977484,69.241021,0.0],[91.979001,69.24103,0.0],[91.979013,69.240761,0.0],[91.98053,69.24077,0.0],[91.980542,69.240501,0.0],[91.981301,69.240506,0.0],[91.981313,69.240237,0.0],[91.984346,69.240255,0.0],[91.984359,69.239986,0.0],[91.98815,69.240008,0.0],[91.988163,69.239739,0.0],[91.992712,69.239765,0.0],[91.992725,69.239496,0.0],[91.993483,69.239501,0.0],[91.993496,69.239232,0.0],[91.997287,69.239254,0.0],[91.997312,69.238716,0.0],[91.989729,69.238672,0.0],[91.989717,69.238941,0.0],[91.986684,69.238923,0.0],[91.986671,69.239192,0.0],[91.981364,69.239161,0.0],[91.981351,69.23943,0.0],[91.979076,69.239416,0.0],[91.979064,69.239685,0.0],[91.977547,69.239676,0.0],[91.977535,69.239945,0.0],[91.97526,69.239932,0.0],[91.975247,69.240201,0.0],[91.974489,69.240196,0.0],[91.974476,69.240465,0.0],[91.973718,69.240461,0.0],[91.973705,69.24073,0.0],[91.972189,69.240721,0.0],[91.972176,69.24099,0.0],[91.971418,69.240985,0.0],[91.971405,69.241254,0.0],[91.970647,69.24125,0.0],[91.970634,69.241519,0.0],[91.969876,69.241514,0.0],[91.969863,69.241783,0.0],[91.968346,69.241774,0.0],[91.968333,69.242043,0.0],[91.967575,69.242039,0.0],[91.967562,69.242308,0.0],[91.964529,69.242289,0.0],[91.964516,69.242558,0.0],[91.963758,69.242554,0.0],[91.963745,69.242823,0.0],[91.964503,69.242827,0.0],[91.96449,69.243096,0.0],[91.966766,69.24311,0.0]]]}},{"type":"Feature","properties":{"rgi_id":"RGI2000-v7.0-G-10-00227","o1region":"10"},"geometry":{"type":"Polygon","coordinates":[[[92.959587,69.28978,0.0],[92.959587,69.289511,0.0],[92.960347,69.289511,0.0],[92.960348,69.289242,0.0],[92.962628,69.289242,0.0],[92.962628,69.289511,0.0],[92.966428,69.289512,0.0],[92.966429,69.289243,0.0],[92.968709,69.289244,0.0],[92.968709,69.288974,0.0],[92.97023,69.288975,0.0],[92.97023,69.288706,0.0],[92.97251,69.288706,0.0],[92.972511,69.288437,0.0],[92.974031,69.288437,0.0],[92.97403,69.288706,0.0],[92.975551,69.288707,0.0],[92.97555,69.288976,0.0],[92.979351,69.288976,0.0],[92.979351,69.288707,0.0],[92.980111,69.288707,0.0],[92.980111,69.288976,0.0],[92.981631,69.288976,0.0],[92.981631,69.289245,0.0],[92.982391,69.289245,0.0],[92.982391,69.288976,0.0],[92.984671,69.288977,0.0],[92.984672,69.288708,0.0],[92.985432,69.288708,0.0],[92.985433,69.286824,0.0],[92.986193,69.286824,0.0],[92.986193,69.286017,0.0],[92.984673,69.286017,0.0],[92.984673,69.286555,0.0],[92.983913,69.286555,0.0],[92.983913,69.286824,0.0],[92.982393,69.286824,0.0],[92.982393,69.287093,0.0],[92.981633,69.287093,0.0],[92.981632,69.287362,0.0],[92.980112,69.287362,0.0],[92.980112,69.287631,0.0],[92.978592,69.287631,0.0],[92.978592,69.2879,0.0],[92.977832,69.2879,0.0],[92.977831,69.288169,0.0],[92.976311,69.288169,0.0],[92.976312,69.287092,0.0],[92.969472,69.287091,0.0],[92.969472,69.28736,0.0],[92.964912,69.28736,0.0],[92.964911,69.287629,0.0],[92.963391,69.287628,0.0],[92.963391,69.287897,0.0],[92.95883,69.287896,0.0],[92.95883,69.288165,0.0],[92.95807,69.288165,0.0],[92.958069,69.288434,0.0],[92.957309,69.288434,0.0],[92.957308,69.288703,0.0],[92.956548,69.288703,0.0],[92.956547,69.289241,0.0],[92.957307,69.289241,0.0],[92.957307,69.28951,0.0],[92.958067,69.28951,0.0],[92.958066,69.289779,0.0],[92.959587,69.28978,0.0]]]}},{"type":"Feature","properties":{"rgi_id":"RGI2000-v7.0-G-10-00228","o1region":"10"},"geometry":{"type":"Polygon","coordinates":[[[92.995319,69.260997,0.0],[92.995319,69.260459,0.0],[92.996078,69.260459,0.0],[92.996078,69.26019,0.0],[92.999114,69.26019,0.0],[92.999114,69.260459,0.0],[93.000633,69.260459,0.0],[93.000633,69.26019,0.0],[93.001392,69.26019,0.0],[93.001392,69.258519,0.0],[93.001392,69.258307,0.0],[93.000761,69.258307,0.0],[93.000633,69.258307,0.0],[93.000633,69.258576,0.0],[92.999873,69.258576,0.0],[92.999873,69.258783,0.0],[92.999873,69.258845,0.0],[92.999543,69.258845,0.0],[92.999114,69.258845,0.0],[92.999114,69.258921,0.0],[92.999114,69.259114,0.0],[92.998355,69.259114,0.0],[92.998355,69.259383,0.0],[92.995319,69.259383,0.0],[92.995319,69.259114,0.0],[92.993801,69.259114,0.0],[92.993801,69.258874,0.0],[92.993801,69.258845,0.0],[92.990765,69.258845,0.0],[92.990765,69.259114,0.0],[92.99079,69.259114,0.0],[92.991524,69.259114,0.0],[92.991524,69.259383,0.0],[92.990765,69.259383,0.0],[92.990765,69.259652,0.0],[92.988677,69.259652,0.0],[92.984692,69.259651,0.0],[92.984692,69.259382,0.0],[92.983933,69.259382,0.0],[92.983933,69.259651,0.0],[92.983174,69.259651,0.0],[92.983174,69.260189,0.0],[92.983933,69.260189,0.0],[92.983932,69.260458,0.0],[92.985451,69.260459,0.0],[92.98545,69.260728,0.0],[92.987721,69.260728,0.0],[92.987728,69.260728,0.0],[92.987728,69.260997,0.0],[92.995319,69.260997,0.0]]]}},{"type":"Feature","properties":{"rgi_id":"RGI2000-v7.0-G-10-00229","o1region":"10"},"geometry":{"type":"Polygon","coordinates":[[[93.015046,69.247276,0.0],[93.015046,69.247007,0.0],[93.016563,69.247006,0.0],[93.016563,69.246468,0.0],[93.017322,69.246468,0.0],[93.017322,69.246737,0.0],[93.018839,69.246737,0.0],[93.018839,69.247006,0.0],[93.021115,69.247006,0.0],[93.021115,69.247275,0.0],[93.022633,69.247275,0.0],[93.022632,69.247006,0.0],[93.023391,69.247006,0.0],[93.023391,69.246737,0.0],[93.022632,69.246737,0.0],[93.022632,69.246468,0.0],[93.021873,69.246468,0.0],[93.021873,69.246199,0.0],[93.021114,69.246199,0.0],[93.021114,69.24593,0.0],[93.020356,69.24593,0.0],[93.020355,69.245661,0.0],[93.019597,69.245661,0.0],[93.019596,69.245392,0.0],[93.015804,69.245392,0.0],[93.015804,69.245661,0.0],[93.014287,69.245661,0.0],[93.014287,69.24593,0.0],[93.010363,69.245931,0.0],[93.006701,69.245931,0.0],[93.006701,69.2462,0.0],[93.004425,69.2462,0.0],[93.004425,69.246469,0.0],[93.002908,69.246469,0.0],[93.002908,69.247007,0.0],[93.004425,69.247007,0.0],[93.004425,69.247276,0.0],[93.008794,69.247276,0.0],[93.015046,69.247276,0.0]]]}},{"type":"Feature","properties":{"rgi_id":"RGI2000-v7.0-G-10-00230","o1region":"10"},"geometry":{"type":"Polygon","coordinates":[[[93.053046,69.275248,0.0],[93.053046,69.274979,0.0],[93.053805,69.274979,0.0],[93.053804,69.274441,0.0],[93.053045,69.274441,0.0],[93.053044,69.274172,0.0],[93.052284,69.274172,0.0],[93.052284,69.273903,0.0],[93.051524,69.273903,0.0],[93.051523,69.273634,0.0],[93.050004,69.273635,0.0],[93.050004,69.273366,0.0],[93.049244,69.273366,0.0],[93.049242,69.27229,0.0],[93.048482,69.27229,0.0],[93.048475,69.269062,0.0],[93.046956,69.269062,0.0],[93.046962,69.271752,0.0],[93.043165,69.271753,0.0],[93.043164,69.271484,0.0],[93.038607,69.271485,0.0],[93.038607,69.271216,0.0],[93.027214,69.271219,0.0],[93.027215,69.271488,0.0],[93.026455,69.271488,0.0],[93.026456,69.271757,0.0],[93.027215,69.271757,0.0],[93.027216,69.272026,0.0],[93.027975,69.272026,0.0],[93.027976,69.272564,0.0],[93.028735,69.272564,0.0],[93.028736,69.272833,0.0],[93.034812,69.272831,0.0],[93.034811,69.272562,0.0],[93.03709,69.272562,0.0],[93.03709,69.272293,0.0],[93.040887,69.272292,0.0],[93.040888,69.272561,0.0],[93.044685,69.27256,0.0],[93.044686,69.272829,0.0],[93.046205,69.272829,0.0],[93.046205,69.273098,0.0],[93.046965,69.273098,0.0],[93.046965,69.273367,0.0],[93.047725,69.273366,0.0],[93.047726,69.273636,0.0],[93.048485,69.273635,0.0],[93.048486,69.273904,0.0],[93.049245,69.273904,0.0],[93.049246,69.274173,0.0],[93.050006,69.274173,0.0],[93.050007,69.274711,0.0],[93.050766,69.274711,0.0],[93.050767,69.27498,0.0],[93.051527,69.27498,0.0],[93.051527,69.275249,0.0],[93.053046,69.275248,0.0]]]}}]}
