{"type":"FeatureCollection","features":[{"type":"Feature","properties":{"rgi_id":"RGI2000-v7.0-G-09-00382","o1region":"09"},"geometry":{"type":"Polygon","coordinates":[[[63.55167,80.787076,0.0],[63.544709,80.779739,0.0],[63.463746,80.751406,0.0],[63.369609,80.724564,0.0],[63.291209,80.684712,0.0],[63.264554,80.670889,0.0],[63.263645,80.670966,0.0],[63.233234,80.667685,0.0],[63.204211,80.661136,0.0],[63.187954,80.656079,0.0],[63.163125,80.654031,0.0],[63.137076,80.650095,0.0],[63.109154,80.645046,0.0],[63.082846,80.642447,0.0],[63.062151,80.644897,0.0],[63.053587,80.649809,0.0],[63.049954,80.656924,0.0],[63.045344,80.662531,0.0],[63.02537,80.668016,0.0],[62.997492,80.675316,0.0],[62.991131,80.67698,0.0],[62.94231,80.689041,0.0],[62.892553,80.701681,0.0],[62.847207,80.712144,0.0],[62.809955,80.724374,0.0],[62.773894,80.73677,0.0],[62.748439,80.743466,0.0],[62.708762,80.748289,0.0],[62.630658,80.760188,0.0],[62.57552,80.767141,0.0],[62.546695,80.772538,0.0],[62.547291,80.781481,0.0],[62.544915,80.791423,0.0],[62.548307,80.797085,0.0],[62.543665,80.803251,0.0],[62.557353,80.808185,0.0],[62.579786,80.813745,0.0],[62.609649,80.821665,0.0],[62.640431,80.827094,0.0],[62.670529,80.833293,0.0],[62.689302,80.838524,0.0],[62.730589,80.849117,0.0],[62.758805,80.854006,0.0],[62.793109,80.860893,0.0],[62.821515,80.865966,0.0],[62.868868,80.872448,0.0],[62.91471,80.878849,0.0],[63.043894,80.856878,0.0],[63.189322,80.831521,0.0],[63.314664,80.812251,0.0],[63.403261,80.803382,0.0],[63.55167,80.787076,0.0]]]}},{"type":"Feature","properties":{"rgi_id":"RGI2000-v7.0-G-09-00383","o1region":"09"},"geometry":{"type":"Polygon","coordinates":[[[64.584695,80.736856,0.0],[64.579945,80.734473,0.0],[64.561807,80.729693,0.0],[64.537453,80.726,0.0],[64.514484,80.723997,0.0],[64.490706,80.723922,0.0],[64.47505,80.722146,0.0],[64.46955,80.718246,0.0],[64.448644,80.715815,0.0],[64.417082,80.711883,0.0],[64.38193,80.709361,0.0],[64.33604,80.708203,0.0],[64.296266,80.705768,0.0],[64.258689,80.701565,0.0],[64.231475,80.700015,0.0],[64.199464,80.701425,0.0],[64.170053,80.704691,0.0],[64.137585,80.705532,0.0],[64.105434,80.703689,0.0],[64.069542,80.700007,0.0],[64.032514,80.696345,0.0],[63.994492,80.69289,0.0],[63.956455,80.690959,0.0],[63.934999,80.689085,0.0],[63.88281,80.685512,0.0],[63.840312,80.683847,0.0],[63.784836,80.680515,0.0],[63.747647,80.677975,0.0],[63.719614,80.678314,0.0],[63.710688,80.682299,0.0],[63.720019,80.687086,0.0],[63.726082,80.690599,0.0],[63.706024,80.690594,0.0],[63.679829,80.688604,0.0],[63.645231,80.686387,0.0],[63.606129,80.68444,0.0],[63.574128,80.680833,0.0],[63.551454,80.677052,0.0],[63.515881,80.673315,0.0],[63.479314,80.671501,0.0],[63.429332,80.667255,0.0],[63.395519,80.664238,0.0],[63.348162,80.66375,0.0],[63.300362,80.66784,0.0],[63.264554,80.670889,0.0],[63.291209,80.684712,0.0],[63.369609,80.724564,0.0],[63.463746,80.751406,0.0],[63.544709,80.779739,0.0],[63.55167,80.787076,0.0],[63.554614,80.786752,0.0],[63.558969,80.78717,0.0],[63.635314,80.784326,0.0],[63.82558,80.780253,0.0],[64.075714,80.775852,0.0],[64.234789,80.766865,0.0],[64.391772,80.748182,0.0],[64.507627,80.73983,0.0],[64.584695,80.736856,0.0]]]}},{"type":"Feature","properties":{"rgi_id":"RGI2000-v7.0-G-09-00384","o1region":"09"},"geometry":{"type":"Polygon","coordinates":[[[64.584695,80.736856,0.0],[64.507627,80.73983,0.0],[64.391772,80.748182,0.0],[64.234789,80.766865,0.0],[64.075714,80.775852,0.0],[63.82558,80.780253,0.0],[63.635314,80.784326,0.0],[63.558969,80.78717,0.0],[63.770999,80.807462,0.0],[63.933153,80.823606,0.0],[64.046387,80.835421,0.0],[64.163499,80.854966,0.0],[64.258476,80.878648,0.0],[64.340298,80.898108,0.0],[64.436191,80.921744,0.0],[64.481353,80.936348,0.0],[64.557244,80.945045,0.0],[64.673789,80.955733,0.0],[64.737194,80.965019,0.0],[64.788284,80.973895,0.0],[64.788846,80.973992,0.0],[64.845394,80.978296,0.0],[64.952436,80.980985,0.0],[65.045761,80.985215,0.0],[65.102419,80.987266,0.0],[65.12003,80.983966,0.0],[65.135979,80.979975,0.0],[65.171238,80.974406,0.0],[65.207124,80.973606,0.0],[65.234975,80.974705,0.0],[65.276658,80.972236,0.0],[65.28516,80.965532,0.0],[65.285284,80.957677,0.0],[65.297364,80.953573,0.0],[65.323758,80.950484,0.0],[65.346574,80.948815,0.0],[65.358442,80.944521,0.0],[65.359596,80.941813,0.0],[65.346439,80.938091,0.0],[65.349787,80.9338,0.0],[65.363841,80.929264,0.0],[65.365816,80.924813,0.0],[65.352456,80.916882,0.0],[65.34476,80.91246,0.0],[65.342476,80.905999,0.0],[65.337136,80.898843,0.0],[65.334362,80.89316,0.0],[65.321114,80.889249,0.0],[65.295683,80.883892,0.0],[65.283471,80.878424,0.0],[65.269751,80.872608,0.0],[65.257065,80.867917,0.0],[65.24439,80.861885,0.0],[65.234937,80.856738,0.0],[65.213352,80.852823,0.0],[65.195164,80.847298,0.0],[65.180192,80.842658,0.0],[65.16608,80.837615,0.0],[65.14676,80.833455,0.0],[65.1219,80.829802,0.0],[65.100961,80.823763,0.0],[65.064945,80.816911,0.0],[65.033551,80.808423,0.0],[65.003647,80.802962,0.0],[64.983135,80.798632,0.0],[64.981221,80.795038,0.0],[64.976675,80.789779,0.0],[64.963564,80.785668,0.0],[64.935958,80.779962,0.0],[64.898421,80.772368,0.0],[64.8577,80.766563,0.0],[64.807924,80.762674,0.0],[64.760934,80.760631,0.0],[64.731669,80.758393,0.0],[64.707092,80.753183,0.0],[64.689008,80.751466,0.0],[64.678477,80.75743,0.0],[64.670288,80.757605,0.0],[64.674346,80.753888,0.0],[64.674126,80.749299,0.0],[64.659489,80.745977,0.0],[64.628112,80.743969,0.0],[64.602744,80.742021,0.0],[64.58799,80.738509,0.0],[64.584695,80.736856,0.0]]]}},{"type":"Feature","properties":{"rgi_id":"RGI2000-v7.0-G-09-00385","o1region":"09"},"geometry":{"type":"Polygon","coordinates":[[[64.792467,81.036247,0.0],[64.785943,81.012189,0.0],[64.784184,80.984398,0.0],[64.788284,80.973895,0.0],[64.737194,80.965019,0.0],[64.673789,80.955733,0.0],[64.557244,80.945045,0.0],[64.481353,80.936348,0.0],[64.436191,80.921744,0.0],[64.340298,80.898108,0.0],[64.258476,80.878648,0.0],[64.163499,80.854966,0.0],[64.046387,80.835421,0.0],[63.933153,80.823606,0.0],[63.770999,80.807462,0.0],[63.558969,80.78717,0.0],[63.554614,80.786752,0.0],[63.55167,80.787076,0.0],[63.403261,80.803382,0.0],[63.314664,80.812251,0.0],[63.189322,80.831521,0.0],[63.043894,80.856878,0.0],[62.91471,80.878849,0.0],[62.919033,80.879451,0.0],[62.961235,80.883339,0.0],[62.991814,80.887794,0.0],[63.041035,80.893083,0.0],[63.105933,80.898295,0.0],[63.145916,80.902201,0.0],[63.181762,80.903503,0.0],[63.202669,80.904102,0.0],[63.218207,80.902122,0.0],[63.23396,80.902235,0.0],[63.254321,80.903794,0.0],[63.281609,80.903136,0.0],[63.298519,80.899753,0.0],[63.304624,80.894538,0.0],[63.331734,80.895404,0.0],[63.371284,80.896814,0.0],[63.410051,80.898807,0.0],[63.456508,80.899705,0.0],[63.511983,80.901392,0.0],[63.565366,80.903489,0.0],[63.628267,80.903689,0.0],[63.692311,80.90214,0.0],[63.730636,80.900099,0.0],[63.761803,80.898187,0.0],[63.795896,80.896981,0.0],[63.839358,80.895406,0.0],[63.892549,80.895551,0.0],[63.938845,80.897728,0.0],[63.955601,80.899128,0.0],[63.941946,80.903398,0.0],[63.935379,80.909061,0.0],[63.935479,80.915551,0.0],[63.943812,80.92013,0.0],[63.95805,80.923716,0.0],[63.971443,80.926184,0.0],[63.998767,80.931789,0.0],[64.026853,80.93647,0.0],[64.058273,80.936695,0.0],[64.079502,80.934375,0.0],[64.085787,80.933108,0.0],[64.096552,80.931371,0.0],[64.108471,80.932668,0.0],[64.106506,80.934807,0.0],[64.096787,80.936333,0.0],[64.107518,80.937653,0.0],[64.123503,80.936388,0.0],[64.13904,80.934557,0.0],[64.147568,80.931525,0.0],[64.16115,80.930304,0.0],[64.180992,80.929342,0.0],[64.190533,80.930684,0.0],[64.196643,80.933811,0.0],[64.210369,80.935834,0.0],[64.222012,80.93828,0.0],[64.229033,80.941008,0.0],[64.228442,80.944841,0.0],[64.238606,80.946933,0.0],[64.262679,80.949706,0.0],[64.279148,80.953583,0.0],[64.293377,80.956167,0.0],[64.319107,80.956419,0.0],[64.330654,80.958673,0.0],[64.357331,80.96158,0.0],[64.37488,80.963713,0.0],[64.378527,80.966698,0.0],[64.39652,80.967865,0.0],[64.421089,80.968134,0.0],[64.439941,80.96737,0.0],[64.45686,80.967219,0.0],[64.481208,80.970165,0.0],[64.501042,80.972055,0.0],[64.51291,80.977548,0.0],[64.526618,80.983768,0.0],[64.52161,80.990945,0.0],[64.517429,81.00059,0.0],[64.519673,81.009148,0.0],[64.530344,81.013137,0.0],[64.58575,81.020798,0.0],[64.63299,81.025945,0.0],[64.673617,81.030459,0.0],[64.723606,81.034391,0.0],[64.787849,81.036296,0.0],[64.792467,81.036247,0.0]]]}}]}
