{"type":"FeatureCollection","features":[{"type":"Feature","properties":{"rgi_id":"RGI2000-v7.0-G-19-00418","o1region":"19"},"geometry":{"type":"Polygon","coordinates":[[[-37.920916,-54.008562,0.0],[-37.920911,-54.008727,0.0],[-37.921197,-54.008901,0.0],[-37.921193,-54.009037,0.0],[-37.920726,-54.00917,0.0],[-37.920262,-54.009166,0.0],[-37.919976,-54.009026,0.0],[-37.919749,-54.008819,0.0],[-37.919696,-54.008614,0.0],[-37.919722,-54.008562,0.0],[-37.919069,-54.008562,0.0],[-37.919037,-54.008558,0.0],[-37.918972,-54.008564,0.0],[-37.918884,-54.008579,0.0],[-37.918786,-54.008607,0.0],[-37.918686,-54.00865,0.0],[-37.918389,-54.008823,0.0],[-37.918093,-54.008977,0.0],[-37.918026,-54.009028,0.0],[-37.917975,-54.009087,0.0],[-37.917937,-54.009154,0.0],[-37.917816,-54.009439,0.0],[-37.917774,-54.009504,0.0],[-37.917719,-54.009561,0.0],[-37.917649,-54.00961,0.0],[-37.917406,-54.009736,0.0],[-37.917196,-54.009882,0.0],[-37.917115,-54.009924,0.0],[-37.917019,-54.009957,0.0],[-37.91691,-54.009983,0.0],[-37.91643,-54.010063,0.0],[-37.916319,-54.010088,0.0],[-37.916219,-54.010119,0.0],[-37.916133,-54.010159,0.0],[-37.915979,-54.010248,0.0],[-37.915896,-54.010288,0.0],[-37.915798,-54.010321,0.0],[-37.915688,-54.010347,0.0],[-37.915329,-54.010407,0.0],[-37.915209,-54.010437,0.0],[-37.915097,-54.010482,0.0],[-37.915003,-54.010544,0.0],[-37.914935,-54.010623,0.0],[-37.914889,-54.010712,0.0],[-37.914861,-54.010806,0.0],[-37.914848,-54.010898,0.0],[-37.914844,-54.010981,0.0],[-37.914855,-54.01111,0.0],[-37.91505,-54.011108,0.0],[-37.915056,-54.010861,0.0],[-37.915235,-54.010692,0.0],[-37.915583,-54.010695,0.0],[-37.915574,-54.011036,0.0],[-37.915582,-54.011102,0.0],[-37.917658,-54.01108,0.0],[-37.918341,-54.011083,0.0],[-37.918779,-54.011096,0.0],[-37.918988,-54.011108,0.0],[-37.919188,-54.011126,0.0],[-37.919374,-54.011152,0.0],[-37.919544,-54.011188,0.0],[-37.919941,-54.011313,0.0],[-37.920121,-54.011349,0.0],[-37.92032,-54.011375,0.0],[-37.920533,-54.011392,0.0],[-37.920756,-54.011403,0.0],[-37.92122,-54.011413,0.0],[-37.921935,-54.011418,0.0],[-37.922403,-54.011427,0.0],[-37.922628,-54.011436,0.0],[-37.922843,-54.011451,0.0],[-37.923045,-54.011475,0.0],[-37.923225,-54.011512,0.0],[-37.923358,-54.011553,0.0],[-37.923608,-54.011645,0.0],[-37.923754,-54.011687,0.0],[-37.924305,-54.011816,0.0],[-37.92449,-54.011866,0.0],[-37.924659,-54.01192,0.0],[-37.925046,-54.012073,0.0],[-37.925142,-54.012099,0.0],[-37.925213,-54.012111,0.0],[-37.92525,-54.012108,0.0],[-37.925281,-54.012112,0.0],[-37.925341,-54.012106,0.0],[-37.925423,-54.012091,0.0],[-37.925516,-54.012064,0.0],[-37.925613,-54.012024,0.0],[-37.925917,-54.01186,0.0],[-37.926248,-54.011712,0.0],[-37.926296,-54.011687,0.0],[-37.926217,-54.011673,0.0],[-37.926127,-54.011645,0.0],[-37.926083,-54.011591,0.0],[-37.92588,-54.011432,0.0],[-37.925616,-54.011308,0.0],[-37.925526,-54.01128,0.0],[-37.925482,-54.011227,0.0],[-37.925279,-54.011068,0.0],[-37.925015,-54.010943,0.0],[-37.924913,-54.010922,0.0],[-37.924811,-54.010861,0.0],[-37.924583,-54.010757,0.0],[-37.92441,-54.010728,0.0],[-37.924255,-54.010692,0.0],[-37.924128,-54.010662,0.0],[-37.924039,-54.010634,0.0],[-37.923804,-54.010567,0.0],[-37.923721,-54.010541,0.0],[-37.92368,-54.010491,0.0],[-37.923673,-54.010434,0.0],[-37.92367,-54.01041,0.0],[-37.923629,-54.01024,0.0],[-37.923618,-54.010131,0.0],[-37.923686,-54.010054,0.0],[-37.923818,-54.010017,0.0],[-37.924017,-54.010018,0.0],[-37.924227,-54.010018,0.0],[-37.924429,-54.010019,0.0],[-37.924711,-54.009947,0.0],[-37.924851,-54.009895,0.0],[-37.925044,-54.009831,0.0],[-37.925118,-54.009829,0.0],[-37.925516,-54.0098,0.0],[-37.925641,-54.009675,0.0],[-37.925762,-54.009639,0.0],[-37.925836,-54.009535,0.0],[-37.925868,-54.009432,0.0],[-37.925948,-54.009269,0.0],[-37.925958,-54.009243,0.0],[-37.925829,-54.009181,0.0],[-37.925368,-54.009075,0.0],[-37.925255,-54.008971,0.0],[-37.92485,-54.008933,0.0],[-37.924444,-54.00893,0.0],[-37.923922,-54.008925,0.0],[-37.923053,-54.008883,0.0],[-37.922998,-54.00878,0.0],[-37.922422,-54.008604,0.0],[-37.922073,-54.008669,0.0],[-37.921888,-54.008557,0.0],[-37.921844,-54.008531,0.0],[-37.921267,-54.008423,0.0],[-37.920917,-54.008488,0.0],[-37.920916,-54.008562,0.0]]]}},{"type":"Feature","properties":{"rgi_id":"RGI2000-v7.0-G-19-00419","o1region":"19"},"geometry":{"type":"Polygon","coordinates":[[[-37.913809,-54.005151,0.0],[-37.913615,-54.00518,0.0],[-37.913352,-54.005038,0.0],[-37.913182,-54.0049,0.0],[-37.912721,-54.004793,0.0],[-37.912488,-54.004825,0.0],[-37.912367,-54.004995,0.0],[-37.912358,-54.005337,0.0],[-37.912177,-54.005608,0.0],[-37.911824,-54.00581,0.0],[-37.911357,-54.005943,0.0],[-37.911239,-54.00601,0.0],[-37.910828,-54.006211,0.0],[-37.910477,-54.00631,0.0],[-37.910361,-54.006343,0.0],[-37.910179,-54.006615,0.0],[-37.910169,-54.007025,0.0],[-37.910162,-54.007264,0.0],[-37.910484,-54.007607,0.0],[-37.910452,-54.007615,0.0],[-37.910263,-54.007606,0.0],[-37.909978,-54.007508,0.0],[-37.90993,-54.007491,0.0],[-37.909881,-54.00747,0.0],[-37.909846,-54.007464,0.0],[-37.909813,-54.007471,0.0],[-37.909788,-54.00749,0.0],[-37.909757,-54.007541,0.0],[-37.909609,-54.007712,0.0],[-37.909555,-54.007847,0.0],[-37.909585,-54.007993,0.0],[-37.909592,-54.008067,0.0],[-37.909611,-54.008171,0.0],[-37.909618,-54.008207,0.0],[-37.909685,-54.00829,0.0],[-37.909823,-54.008332,0.0],[-37.910098,-54.008408,0.0],[-37.910427,-54.008574,0.0],[-37.910768,-54.008734,0.0],[-37.911031,-54.008805,0.0],[-37.911162,-54.008808,0.0],[-37.911253,-54.008811,0.0],[-37.911431,-54.008819,0.0],[-37.911641,-54.008825,0.0],[-37.911805,-54.008849,0.0],[-37.912071,-54.008949,0.0],[-37.912167,-54.008997,0.0],[-37.912247,-54.009012,0.0],[-37.912395,-54.009039,0.0],[-37.912607,-54.009099,0.0],[-37.912854,-54.009129,0.0],[-37.913001,-54.009132,0.0],[-37.913154,-54.009135,0.0],[-37.913464,-54.009141,0.0],[-37.914075,-54.009147,0.0],[-37.914288,-54.009202,0.0],[-37.914432,-54.00933,0.0],[-37.91448,-54.009446,0.0],[-37.914673,-54.009619,0.0],[-37.914781,-54.009628,0.0],[-37.914761,-54.009692,0.0],[-37.914808,-54.009774,0.0],[-37.914918,-54.009904,0.0],[-37.914946,-54.009991,0.0],[-37.914967,-54.010053,0.0],[-37.91494,-54.010102,0.0],[-37.91489,-54.01019,0.0],[-37.914654,-54.010337,0.0],[-37.914571,-54.010361,0.0],[-37.914528,-54.010409,0.0],[-37.914462,-54.010444,0.0],[-37.91427,-54.010544,0.0],[-37.914037,-54.010584,0.0],[-37.912817,-54.010573,0.0],[-37.912529,-54.01056,0.0],[-37.912489,-54.010557,0.0],[-37.912207,-54.010543,0.0],[-37.911999,-54.010509,0.0],[-37.911936,-54.010483,0.0],[-37.911699,-54.010383,0.0],[-37.911657,-54.01035,0.0],[-37.911602,-54.010337,0.0],[-37.911511,-54.010328,0.0],[-37.911175,-54.010272,0.0],[-37.910994,-54.010257,0.0],[-37.910774,-54.010146,0.0],[-37.910722,-54.01006,0.0],[-37.910436,-54.010102,0.0],[-37.909799,-54.010062,0.0],[-37.909445,-54.010298,0.0],[-37.909499,-54.010469,0.0],[-37.909492,-54.010742,0.0],[-37.909313,-54.010911,0.0],[-37.908735,-54.010838,0.0],[-37.908392,-54.010664,0.0],[-37.907929,-54.010626,0.0],[-37.907502,-54.010815,0.0],[-37.907775,-54.010874,0.0],[-37.907942,-54.010919,0.0],[-37.908197,-54.011007,0.0],[-37.908331,-54.011048,0.0],[-37.908516,-54.011086,0.0],[-37.908722,-54.011112,0.0],[-37.908941,-54.011129,0.0],[-37.909172,-54.01114,0.0],[-37.909653,-54.011148,0.0],[-37.910897,-54.011146,0.0],[-37.911382,-54.011153,0.0],[-37.911615,-54.011162,0.0],[-37.911836,-54.011178,0.0],[-37.912041,-54.011204,0.0],[-37.912226,-54.011246,0.0],[-37.912371,-54.011298,0.0],[-37.912973,-54.011565,0.0],[-37.913116,-54.011632,0.0],[-37.913355,-54.011757,0.0],[-37.913457,-54.011802,0.0],[-37.913545,-54.011831,0.0],[-37.913612,-54.011843,0.0],[-37.91365,-54.011838,0.0],[-37.913639,-54.011625,0.0],[-37.913648,-54.011564,0.0],[-37.913672,-54.011523,0.0],[-37.913694,-54.011508,0.0],[-37.913758,-54.01149,0.0],[-37.913839,-54.011482,0.0],[-37.9141,-54.011469,0.0],[-37.914171,-54.011455,0.0],[-37.914198,-54.011443,0.0],[-37.914217,-54.011427,0.0],[-37.914239,-54.011385,0.0],[-37.91426,-54.011206,0.0],[-37.914278,-54.011162,0.0],[-37.914296,-54.011144,0.0],[-37.914352,-54.011122,0.0],[-37.914437,-54.011111,0.0],[-37.914615,-54.011107,0.0],[-37.914855,-54.01111,0.0],[-37.914844,-54.010981,0.0],[-37.914848,-54.010898,0.0],[-37.914861,-54.010806,0.0],[-37.914889,-54.010712,0.0],[-37.914935,-54.010623,0.0],[-37.915003,-54.010544,0.0],[-37.915097,-54.010482,0.0],[-37.915209,-54.010437,0.0],[-37.915329,-54.010407,0.0],[-37.915688,-54.010347,0.0],[-37.915798,-54.010321,0.0],[-37.915896,-54.010288,0.0],[-37.915979,-54.010248,0.0],[-37.916133,-54.010159,0.0],[-37.916219,-54.010119,0.0],[-37.916319,-54.010088,0.0],[-37.91643,-54.010063,0.0],[-37.91691,-54.009983,0.0],[-37.917019,-54.009957,0.0],[-37.917115,-54.009924,0.0],[-37.917196,-54.009882,0.0],[-37.917406,-54.009736,0.0],[-37.917649,-54.00961,0.0],[-37.917719,-54.009561,0.0],[-37.917774,-54.009504,0.0],[-37.917816,-54.009439,0.0],[-37.917937,-54.009154,0.0],[-37.917975,-54.009087,0.0],[-37.918026,-54.009028,0.0],[-37.918093,-54.008977,0.0],[-37.918389,-54.008823,0.0],[-37.918686,-54.00865,0.0],[-37.918786,-54.008607,0.0],[-37.918884,-54.008579,0.0],[-37.918972,-54.008564,0.0],[-37.919037,-54.008558,0.0],[-37.919069,-54.008562,0.0],[-37.919722,-54.008562,0.0],[-37.91988,-54.00824,0.0],[-37.920232,-54.008072,0.0],[-37.920524,-54.008007,0.0],[-37.920699,-54.007974,0.0],[-37.92105,-54.00784,0.0],[-37.921576,-54.007709,0.0],[-37.922043,-54.007576,0.0],[-37.922372,-54.007424,0.0],[-37.922349,-54.007423,0.0],[-37.92237,-54.00742,0.0],[-37.923152,-54.007279,0.0],[-37.922807,-54.007173,0.0],[-37.922518,-54.007136,0.0],[-37.92188,-54.007131,0.0],[-37.92136,-54.007092,0.0],[-37.920896,-54.007088,0.0],[-37.920549,-54.00705,0.0],[-37.920026,-54.00708,0.0],[-37.919673,-54.007281,0.0],[-37.919493,-54.007519,0.0],[-37.919197,-54.007721,0.0],[-37.919046,-54.007757,0.0],[-37.918497,-54.007886,0.0],[-37.918375,-54.008124,0.0],[-37.918308,-54.008465,0.0],[-37.918069,-54.008736,0.0],[-37.917774,-54.008938,0.0],[-37.917482,-54.009038,0.0],[-37.91678,-54.009237,0.0],[-37.916587,-54.009517,0.0],[-37.916535,-54.009524,0.0],[-37.916506,-54.009528,0.0],[-37.915896,-54.009523,0.0],[-37.915639,-54.009492,0.0],[-37.915467,-54.009445,0.0],[-37.915288,-54.009412,0.0],[-37.915148,-54.009418,0.0],[-37.91512,-54.009336,0.0],[-37.915182,-54.009272,0.0],[-37.915294,-54.009206,0.0],[-37.915477,-54.009085,0.0],[-37.9156,-54.008981,0.0],[-37.915764,-54.008894,0.0],[-37.915903,-54.00887,0.0],[-37.915945,-54.008801,0.0],[-37.915984,-54.008773,0.0],[-37.916026,-54.008756,0.0],[-37.916327,-54.008823,0.0],[-37.916903,-54.008999,0.0],[-37.917141,-54.008762,0.0],[-37.917089,-54.008522,0.0],[-37.917082,-54.008494,0.0],[-37.917105,-54.0083,0.0],[-37.917107,-54.008275,0.0],[-37.917109,-54.008251,0.0],[-37.917158,-54.007916,0.0],[-37.917268,-54.007757,0.0],[-37.917336,-54.007658,0.0],[-37.917366,-54.007558,0.0],[-37.91738,-54.007529,0.0],[-37.917443,-54.007399,0.0],[-37.917459,-54.007368,0.0],[-37.917536,-54.0072,0.0],[-37.917547,-54.007056,0.0],[-37.917548,-54.006985,0.0],[-37.917558,-54.006841,0.0],[-37.917593,-54.006719,0.0],[-37.917707,-54.00654,0.0],[-37.91773,-54.006483,0.0],[-37.917731,-54.006438,0.0],[-37.917807,-54.006432,0.0],[-37.918075,-54.006282,0.0],[-37.918212,-54.006183,0.0],[-37.918601,-54.00611,0.0],[-37.918747,-54.006069,0.0],[-37.918952,-54.006011,0.0],[-37.91942,-54.005844,0.0],[-37.919369,-54.005571,0.0],[-37.918972,-54.005226,0.0],[-37.918861,-54.005054,0.0],[-37.918512,-54.004842,0.0],[-37.918461,-54.004811,0.0],[-37.918169,-54.004911,0.0],[-37.917759,-54.005044,0.0],[-37.917639,-54.005214,0.0],[-37.917634,-54.005384,0.0],[-37.917727,-54.00578,0.0],[-37.917515,-54.005942,0.0],[-37.917205,-54.006119,0.0],[-37.916941,-54.005916,0.0],[-37.916815,-54.005756,0.0],[-37.916885,-54.005593,0.0],[-37.916892,-54.005563,0.0],[-37.916992,-54.005398,0.0],[-37.916852,-54.005258,0.0],[-37.916842,-54.005168,0.0],[-37.916776,-54.005036,0.0],[-37.916873,-54.004899,0.0],[-37.917186,-54.004765,0.0],[-37.917252,-54.004493,0.0],[-37.916909,-54.004285,0.0],[-37.916735,-54.004283,0.0],[-37.916387,-54.00428,0.0],[-37.915865,-54.004275,0.0],[-37.915171,-54.004235,0.0],[-37.914651,-54.004162,0.0],[-37.914132,-54.004055,0.0],[-37.913611,-54.004016,0.0],[-37.913493,-54.004083,0.0],[-37.913603,-54.004323,0.0],[-37.913771,-54.00453,0.0],[-37.913822,-54.004803,0.0],[-37.914095,-54.005032,0.0],[-37.913809,-54.005151,0.0]]]}},{"type":"Feature","properties":{"rgi_id":"RGI2000-v7.0-G-19-00423","o1region":"19"},"geometry":{"type":"Polygon","coordinates":[[[-37.904519,-54.012371,0.0],[-37.904815,-54.012037,0.0],[-37.905387,-54.011587,0.0],[-37.905351,-54.011593,0.0],[-37.905354,-54.01149,0.0],[-37.905475,-54.011321,0.0],[-37.90577,-54.011118,0.0],[-37.90589,-54.010949,0.0],[-37.906303,-54.010713,0.0],[-37.90683,-54.010615,0.0],[-37.907177,-54.01055,0.0],[-37.907528,-54.010417,0.0],[-37.908407,-54.010083,0.0],[-37.9087,-54.009984,0.0],[-37.908823,-54.009711,0.0],[-37.908597,-54.00947,0.0],[-37.908642,-54.009193,0.0],[-37.908028,-54.009055,0.0],[-37.907626,-54.008915,0.0],[-37.90728,-54.008809,0.0],[-37.906703,-54.008701,0.0],[-37.906243,-54.008561,0.0],[-37.905899,-54.008421,0.0],[-37.905378,-54.008382,0.0],[-37.905204,-54.00838,0.0],[-37.904925,-54.008378,0.0],[-37.904624,-54.008375,0.0],[-37.904274,-54.00844,0.0],[-37.903983,-54.008506,0.0],[-37.903112,-54.008532,0.0],[-37.902415,-54.00856,0.0],[-37.902124,-54.008626,0.0],[-37.901718,-54.008622,0.0],[-37.90143,-54.008551,0.0],[-37.900674,-54.008612,0.0],[-37.900262,-54.008848,0.0],[-37.899579,-54.009074,0.0],[-37.899427,-54.009073,0.0],[-37.899283,-54.009072,0.0],[-37.899248,-54.009096,0.0],[-37.898808,-54.009005,0.0],[-37.898634,-54.009004,0.0],[-37.898289,-54.008898,0.0],[-37.897821,-54.00903,0.0],[-37.897815,-54.009269,0.0],[-37.897632,-54.009609,0.0],[-37.897859,-54.009816,0.0],[-37.89809,-54.009853,0.0],[-37.898086,-54.009989,0.0],[-37.898024,-54.010218,0.0],[-37.898022,-54.010228,0.0],[-37.898132,-54.010434,0.0],[-37.898362,-54.010504,0.0],[-37.898366,-54.010503,0.0],[-37.898537,-54.010472,0.0],[-37.898602,-54.010233,0.0],[-37.898707,-54.010227,0.0],[-37.898768,-54.010266,0.0],[-37.898785,-54.010276,0.0],[-37.898895,-54.010344,0.0],[-37.899075,-54.010454,0.0],[-37.899323,-54.01063,0.0],[-37.899306,-54.010677,0.0],[-37.899186,-54.010875,0.0],[-37.899156,-54.010988,0.0],[-37.899021,-54.011108,0.0],[-37.898695,-54.011088,0.0],[-37.898231,-54.011084,0.0],[-37.897879,-54.011251,0.0],[-37.897875,-54.011388,0.0],[-37.898152,-54.011658,0.0],[-37.898138,-54.011667,0.0],[-37.898099,-54.011675,0.0],[-37.897516,-54.011794,0.0],[-37.897167,-54.01186,0.0],[-37.896871,-54.012062,0.0],[-37.896573,-54.012367,0.0],[-37.896508,-54.012639,0.0],[-37.896617,-54.012914,0.0],[-37.896905,-54.012985,0.0],[-37.897193,-54.013055,0.0],[-37.897128,-54.013328,0.0],[-37.897177,-54.01367,0.0],[-37.896996,-54.013942,0.0],[-37.897223,-54.014115,0.0],[-37.897748,-54.014017,0.0],[-37.897866,-54.013916,0.0],[-37.898449,-54.013819,0.0],[-37.898794,-54.013924,0.0],[-37.899022,-54.014063,0.0],[-37.899136,-54.014166,0.0],[-37.899016,-54.014302,0.0],[-37.899011,-54.014507,0.0],[-37.899182,-54.014611,0.0],[-37.899469,-54.014716,0.0],[-37.899816,-54.014753,0.0],[-37.900279,-54.014792,0.0],[-37.900456,-54.014691,0.0],[-37.900809,-54.014489,0.0],[-37.90122,-54.014322,0.0],[-37.901286,-54.014015,0.0],[-37.90124,-54.013804,0.0],[-37.901376,-54.013666,0.0],[-37.901432,-54.013526,0.0],[-37.901532,-54.013396,0.0],[-37.901757,-54.013299,0.0],[-37.901906,-54.013257,0.0],[-37.901981,-54.013171,0.0],[-37.90214,-54.013034,0.0],[-37.902377,-54.012954,0.0],[-37.902576,-54.012934,0.0],[-37.90298,-54.012827,0.0],[-37.902996,-54.012824,0.0],[-37.903336,-54.012666,0.0],[-37.903607,-54.01259,0.0],[-37.903875,-54.012628,0.0],[-37.90394,-54.012633,0.0],[-37.904215,-54.012682,0.0],[-37.904213,-54.012679,0.0],[-37.904338,-54.012643,0.0],[-37.904517,-54.012439,0.0],[-37.904519,-54.012371,0.0]]]}},{"type":"Feature","properties":{"rgi_id":"RGI2000-v7.0-G-19-00424","o1region":"19"},"geometry":{"type":"Polygon","coordinates":[[[-37.8951,-54.008869,0.0],[-37.894575,-54.008966,0.0],[-37.894459,-54.008965,0.0],[-37.893877,-54.009062,0.0],[-37.89364,-54.009231,0.0],[-37.893516,-54.009537,0.0],[-37.893394,-54.009775,0.0],[-37.892981,-54.010045,0.0],[-37.892161,-54.010345,0.0],[-37.891694,-54.010443,0.0],[-37.891628,-54.01075,0.0],[-37.891504,-54.011056,0.0],[-37.891149,-54.011326,0.0],[-37.89114,-54.011668,0.0],[-37.891307,-54.011908,0.0],[-37.891647,-54.012219,0.0],[-37.891934,-54.012324,0.0],[-37.892286,-54.01219,0.0],[-37.892354,-54.011815,0.0],[-37.892456,-54.011463,0.0],[-37.892651,-54.011386,0.0],[-37.892953,-54.011471,0.0],[-37.893257,-54.011573,0.0],[-37.893295,-54.011572,0.0],[-37.893287,-54.011619,0.0],[-37.893223,-54.011858,0.0],[-37.893451,-54.011996,0.0],[-37.893921,-54.011761,0.0],[-37.894326,-54.011799,0.0],[-37.894437,-54.012005,0.0],[-37.894723,-54.012145,0.0],[-37.895073,-54.01208,0.0],[-37.895196,-54.011807,0.0],[-37.894912,-54.0116,0.0],[-37.894684,-54.011427,0.0],[-37.894254,-54.011263,0.0],[-37.894279,-54.01118,0.0],[-37.89427,-54.011074,0.0],[-37.894297,-54.010944,0.0],[-37.894356,-54.010877,0.0],[-37.894365,-54.010867,0.0],[-37.894497,-54.010829,0.0],[-37.894655,-54.010854,0.0],[-37.894723,-54.010881,0.0],[-37.894772,-54.0109,0.0],[-37.894981,-54.011156,0.0],[-37.895324,-54.011364,0.0],[-37.895785,-54.011471,0.0],[-37.896597,-54.011479,0.0],[-37.896607,-54.011426,0.0],[-37.89678,-54.011411,0.0],[-37.896924,-54.011405,0.0],[-37.897018,-54.011383,0.0],[-37.897089,-54.011329,0.0],[-37.897238,-54.011152,0.0],[-37.897342,-54.010972,0.0],[-37.897352,-54.010612,0.0],[-37.897305,-54.010462,0.0],[-37.897299,-54.010406,0.0],[-37.897249,-54.010292,0.0],[-37.897196,-54.010247,0.0],[-37.897128,-54.010179,0.0],[-37.897105,-54.010163,0.0],[-37.896958,-54.010129,0.0],[-37.896795,-54.010152,0.0],[-37.896553,-54.010245,0.0],[-37.89644,-54.010301,0.0],[-37.896342,-54.010318,0.0],[-37.896204,-54.010324,0.0],[-37.895914,-54.010348,0.0],[-37.895731,-54.010354,0.0],[-37.8956,-54.010314,0.0],[-37.895536,-54.010236,0.0],[-37.895538,-54.010119,0.0],[-37.895538,-54.009995,0.0],[-37.89554,-54.009877,0.0],[-37.895544,-54.009707,0.0],[-37.895779,-54.00949,0.0],[-37.895907,-54.009047,0.0],[-37.895681,-54.008806,0.0],[-37.895392,-54.008803,0.0],[-37.8951,-54.008869,0.0]]]}},{"type":"Feature","properties":{"rgi_id":"RGI2000-v7.0-G-19-00425","o1region":"19"},"geometry":{"type":"Polygon","coordinates":[[[-37.85056,-54.014681,0.0],[-37.850824,-54.014782,0.0],[-37.851116,-54.014837,0.0],[-37.851506,-54.014948,0.0],[-37.851893,-54.014945,0.0],[-37.852379,-54.014999,0.0],[-37.852863,-54.014996,0.0],[-37.853252,-54.01505,0.0],[-37.853834,-54.015103,0.0],[-37.854609,-54.015097,0.0],[-37.85519,-54.015093,0.0],[-37.855675,-54.01509,0.0],[-37.856159,-54.015086,0.0],[-37.857031,-54.01508,0.0],[-37.857321,-54.015078,0.0],[-37.857902,-54.015074,0.0],[-37.858677,-54.015068,0.0],[-37.859258,-54.015064,0.0],[-37.859646,-54.015061,0.0],[-37.860518,-54.015055,0.0],[-37.861293,-54.015049,0.0],[-37.862166,-54.0151,0.0],[-37.862748,-54.015153,0.0],[-37.863429,-54.015319,0.0],[-37.864111,-54.015485,0.0],[-37.864697,-54.015709,0.0],[-37.865476,-54.015875,0.0],[-37.866158,-54.016098,0.0],[-37.866743,-54.016265,0.0],[-37.86683,-54.016298,0.0],[-37.866947,-54.016199,0.0],[-37.867182,-54.016098,0.0],[-37.867362,-54.015894,0.0],[-37.867365,-54.01578,0.0],[-37.867367,-54.015723,0.0],[-37.867516,-54.015497,0.0],[-37.867512,-54.015496,0.0],[-37.867703,-54.015482,0.0],[-37.868055,-54.015373,0.0],[-37.8681,-54.015359,0.0],[-37.868126,-54.015355,0.0],[-37.868249,-54.015355,0.0],[-37.868654,-54.015427,0.0],[-37.868884,-54.015498,0.0],[-37.868883,-54.015566,0.0],[-37.868821,-54.015703,0.0],[-37.868529,-54.015734,0.0],[-37.868403,-54.01577,0.0],[-37.86924,-54.015768,0.0],[-37.869628,-54.015763,0.0],[-37.869876,-54.015753,0.0],[-37.869992,-54.015744,0.0],[-37.870102,-54.015731,0.0],[-37.870201,-54.015712,0.0],[-37.870285,-54.015684,0.0],[-37.870348,-54.015649,0.0],[-37.870399,-54.015608,0.0],[-37.870493,-54.015519,0.0],[-37.87055,-54.015475,0.0],[-37.87079,-54.015341,0.0],[-37.870867,-54.015291,0.0],[-37.870928,-54.015238,0.0],[-37.87097,-54.015182,0.0],[-37.870995,-54.015127,0.0],[-37.871006,-54.01508,0.0],[-37.871005,-54.01506,0.0],[-37.870799,-54.014959,0.0],[-37.87086,-54.014952,0.0],[-37.870921,-54.014881,0.0],[-37.871197,-54.014684,0.0],[-37.871207,-54.014324,0.0],[-37.871337,-54.014127,0.0],[-37.871379,-54.014064,0.0],[-37.871424,-54.014041,0.0],[-37.871429,-54.013844,0.0],[-37.87149,-54.013742,0.0],[-37.871664,-54.013744,0.0],[-37.871897,-54.013746,0.0],[-37.871952,-54.013849,0.0],[-37.872184,-54.013851,0.0],[-37.872478,-54.013751,0.0],[-37.872768,-54.013754,0.0],[-37.872981,-54.013783,0.0],[-37.872905,-54.01371,0.0],[-37.872895,-54.01368,0.0],[-37.87324,-54.013519,0.0],[-37.873245,-54.013517,0.0],[-37.873369,-54.013422,0.0],[-37.873865,-54.01314,0.0],[-37.874362,-54.012816,0.0],[-37.874715,-54.012655,0.0],[-37.875137,-54.012494,0.0],[-37.875698,-54.012376,0.0],[-37.876189,-54.012299,0.0],[-37.876962,-54.01206,0.0],[-37.877386,-54.011858,0.0],[-37.877413,-54.011825,0.0],[-37.877418,-54.011826,0.0],[-37.877742,-54.011574,0.0],[-37.877816,-54.01141,0.0],[-37.878034,-54.011084,0.0],[-37.878041,-54.010838,0.0],[-37.877975,-54.010714,0.0],[-37.877909,-54.010549,0.0],[-37.878262,-54.010388,0.0],[-37.878266,-54.010265,0.0],[-37.8782,-54.0101,0.0],[-37.878066,-54.009893,0.0],[-37.877654,-54.009684,0.0],[-37.877662,-54.009356,0.0],[-37.877949,-54.009071,0.0],[-37.878093,-54.008908,0.0],[-37.878311,-54.008581,0.0],[-37.878314,-54.008458,0.0],[-37.878389,-54.008253,0.0],[-37.878607,-54.007927,0.0],[-37.87868,-54.007804,0.0],[-37.879177,-54.00748,0.0],[-37.878691,-54.007394,0.0],[-37.878199,-54.007553,0.0],[-37.877851,-54.00755,0.0],[-37.877432,-54.007546,0.0],[-37.877293,-54.007545,0.0],[-37.87708,-54.007666,0.0],[-37.876524,-54.00762,0.0],[-37.876035,-54.007656,0.0],[-37.875752,-54.007818,0.0],[-37.875467,-54.008021,0.0],[-37.875051,-54.007935,0.0],[-37.874916,-54.007769,0.0],[-37.874153,-54.007639,0.0],[-37.874008,-54.007843,0.0],[-37.873721,-54.008128,0.0],[-37.87337,-54.008206,0.0],[-37.873087,-54.008368,0.0],[-37.872804,-54.00853,0.0],[-37.872656,-54.008857,0.0],[-37.872539,-54.008979,0.0],[-37.872421,-54.008991,0.0],[-37.872371,-54.009044,0.0],[-37.872339,-54.009078,0.0],[-37.87229,-54.009137,0.0],[-37.872089,-54.009299,0.0],[-37.872027,-54.009343,0.0],[-37.871952,-54.009359,0.0],[-37.871659,-54.009466,0.0],[-37.87164,-54.009473,0.0],[-37.871335,-54.00958,0.0],[-37.871254,-54.009603,0.0],[-37.871212,-54.009651,0.0],[-37.87099,-54.009808,0.0],[-37.87083,-54.00988,0.0],[-37.870675,-54.009906,0.0],[-37.870321,-54.010108,0.0],[-37.869619,-54.010266,0.0],[-37.868848,-54.010423,0.0],[-37.868081,-54.010416,0.0],[-37.867596,-54.010288,0.0],[-37.867459,-54.010204,0.0],[-37.867252,-54.01012,0.0],[-37.866769,-54.009952,0.0],[-37.866136,-54.010151,0.0],[-37.865858,-54.010107,0.0],[-37.86565,-54.010064,0.0],[-37.865634,-54.010064,0.0],[-37.865588,-54.009957,0.0],[-37.865536,-54.009835,0.0],[-37.865515,-54.009786,0.0],[-37.86551,-54.009764,0.0],[-37.865505,-54.009751,0.0],[-37.865099,-54.009813,0.0],[-37.864954,-54.010017,0.0],[-37.864881,-54.010139,0.0],[-37.865013,-54.010428,0.0],[-37.86508,-54.010511,0.0],[-37.865072,-54.010798,0.0],[-37.864788,-54.011001,0.0],[-37.864291,-54.011325,0.0],[-37.86393,-54.011773,0.0],[-37.863714,-54.012017,0.0],[-37.86315,-54.012258,0.0],[-37.862518,-54.012417,0.0],[-37.862233,-54.012619,0.0],[-37.861811,-54.01278,0.0],[-37.861112,-54.012814,0.0],[-37.860693,-54.012851,0.0],[-37.86006,-54.013051,0.0],[-37.859707,-54.013211,0.0],[-37.859423,-54.013373,0.0],[-37.858582,-54.013529,0.0],[-37.858234,-54.013526,0.0],[-37.858022,-54.013606,0.0],[-37.856972,-54.01376,0.0],[-37.856727,-54.013758,0.0],[-37.856754,-54.0138,0.0],[-37.855993,-54.013874,0.0],[-37.855435,-54.013869,0.0],[-37.855086,-54.013866,0.0],[-37.854741,-54.013739,0.0],[-37.854325,-54.013653,0.0],[-37.853838,-54.013607,0.0],[-37.852437,-54.013841,0.0],[-37.851869,-54.014205,0.0],[-37.851307,-54.014364,0.0],[-37.850672,-54.014645,0.0],[-37.85056,-54.014681,0.0]]]}},{"type":"Feature","properties":{"rgi_id":"RGI2000-v7.0-G-19-00441","o1region":"19"},"geometry":{"type":"Polygon","coordinates":[[[-37.752336,-54.008586,0.0],[-37.751882,-54.008844,0.0],[-37.751574,-54.009192,0.0],[-37.751179,-54.009934,0.0],[-37.750573,-54.010278,0.0],[-37.750561,-54.010673,0.0],[-37.750627,-54.010937,0.0],[-37.751066,-54.011205,0.0],[-37.751133,-54.011469,0.0],[-37.751121,-54.011863,0.0],[-37.751145,-54.011907,0.0],[-37.751793,-54.011826,0.0],[-37.752239,-54.011831,0.0],[-37.752523,-54.012161,0.0],[-37.752603,-54.012142,0.0],[-37.752972,-54.012234,0.0],[-37.75342,-54.012194,0.0],[-37.753499,-54.012064,0.0],[-37.753879,-54.011804,0.0],[-37.753739,-54.011496,0.0],[-37.753744,-54.01132,0.0],[-37.754127,-54.010973,0.0],[-37.754277,-54.010931,0.0],[-37.754808,-54.010629,0.0],[-37.75489,-54.010367,0.0],[-37.754824,-54.010103,0.0],[-37.754237,-54.00979,0.0],[-37.753794,-54.009654,0.0],[-37.75283,-54.009512,0.0],[-37.752685,-54.009379,0.0],[-37.752914,-54.009206,0.0],[-37.753509,-54.009212,0.0],[-37.754262,-54.008956,0.0],[-37.754863,-54.008787,0.0],[-37.755012,-54.008789,0.0],[-37.755609,-54.008751,0.0],[-37.756058,-54.008668,0.0],[-37.755992,-54.008404,0.0],[-37.75555,-54.008224,0.0],[-37.754585,-54.008126,0.0],[-37.75384,-54.008119,0.0],[-37.753094,-54.008155,0.0],[-37.752719,-54.008239,0.0],[-37.752336,-54.008586,0.0]]]}},{"type":"Feature","properties":{"rgi_id":"RGI2000-v7.0-G-19-00442","o1region":"19"},"geometry":{"type":"Polygon","coordinates":[[[-37.737225,-54.01291,0.0],[-37.737542,-54.012795,0.0],[-37.738218,-54.012677,0.0],[-37.739184,-54.012557,0.0],[-37.739763,-54.012439,0.0],[-37.740828,-54.012375,0.0],[-37.741796,-54.012369,0.0],[-37.74315,-54.012247,0.0],[-37.743925,-54.012242,0.0],[-37.744896,-54.01235,0.0],[-37.745673,-54.012459,0.0],[-37.746449,-54.012512,0.0],[-37.747154,-54.012507,0.0],[-37.747157,-54.012392,0.0],[-37.74791,-54.012137,0.0],[-37.74799,-54.011962,0.0],[-37.747775,-54.011653,0.0],[-37.747111,-54.011471,0.0],[-37.745936,-54.010888,0.0],[-37.745496,-54.010664,0.0],[-37.744834,-54.010394,0.0],[-37.743797,-54.010208,0.0],[-37.742537,-54.009975,0.0],[-37.741645,-54.009922,0.0],[-37.74068,-54.009824,0.0],[-37.740234,-54.009775,0.0],[-37.739945,-54.009509,0.0],[-37.740246,-54.009381,0.0],[-37.741373,-54.009085,0.0],[-37.742117,-54.009093,0.0],[-37.742867,-54.008926,0.0],[-37.742646,-54.008836,0.0],[-37.741754,-54.008782,0.0],[-37.740039,-54.008852,0.0],[-37.739294,-54.008844,0.0],[-37.739004,-54.008578,0.0],[-37.739608,-54.008321,0.0],[-37.740056,-54.008282,0.0],[-37.740878,-54.008203,0.0],[-37.741699,-54.008124,0.0],[-37.741999,-54.008083,0.0],[-37.742597,-54.008001,0.0],[-37.742758,-54.007608,0.0],[-37.742468,-54.007342,0.0],[-37.742328,-54.007033,0.0],[-37.742341,-54.006595,0.0],[-37.742497,-54.006377,0.0],[-37.742659,-54.00594,0.0],[-37.742438,-54.00585,0.0],[-37.74192,-54.005757,0.0],[-37.741478,-54.005577,0.0],[-37.740526,-54.00504,0.0],[-37.741195,-54.005091,0.0],[-37.74142,-54.00505,0.0],[-37.74217,-54.004882,0.0],[-37.743066,-54.004804,0.0],[-37.743667,-54.004634,0.0],[-37.744115,-54.004595,0.0],[-37.744264,-54.004597,0.0],[-37.744857,-54.004691,0.0],[-37.745378,-54.004696,0.0],[-37.745981,-54.004439,0.0],[-37.745913,-54.004219,0.0],[-37.74577,-54.004042,0.0],[-37.745331,-54.003774,0.0],[-37.74504,-54.003552,0.0],[-37.74438,-54.003194,0.0],[-37.743265,-54.003139,0.0],[-37.742967,-54.003135,0.0],[-37.74252,-54.003131,0.0],[-37.741999,-54.003125,0.0],[-37.741846,-54.003255,0.0],[-37.741311,-54.003732,0.0],[-37.740784,-54.003902,0.0],[-37.739612,-54.003276,0.0],[-37.739253,-54.002833,0.0],[-37.73904,-54.00248,0.0],[-37.738451,-54.002255,0.0],[-37.737862,-54.002029,0.0],[-37.738468,-54.001684,0.0],[-37.738472,-54.001559,0.0],[-37.737902,-54.001552,0.0],[-37.73707,-54.001534,0.0],[-37.736669,-54.001516,0.0],[-37.736285,-54.001487,0.0],[-37.735925,-54.001444,0.0],[-37.735599,-54.001381,0.0],[-37.735394,-54.001323,0.0],[-37.735012,-54.001189,0.0],[-37.734831,-54.001117,0.0],[-37.73466,-54.001038,0.0],[-37.734156,-54.000796,0.0],[-37.733828,-54.00063,0.0],[-37.733655,-54.000553,0.0],[-37.733464,-54.000475,0.0],[-37.733247,-54.000393,0.0],[-37.733001,-54.000314,0.0],[-37.732628,-54.000222,0.0],[-37.732222,-54.000144,0.0],[-37.732096,-54.000123,0.0],[-37.731508,-54.000383,0.0],[-37.731357,-54.000425,0.0],[-37.730904,-54.00064,0.0],[-37.729712,-54.000918,0.0],[-37.72979,-54.000837,0.0],[-37.729831,-54.000754,0.0],[-37.729976,-54.000642,0.0],[-37.7301,-54.000553,0.0],[-37.730137,-54.000481,0.0],[-37.730212,-54.000348,0.0],[-37.730259,-54.000284,0.0],[-37.73027,-54.000259,0.0],[-37.730327,-54.000124,0.0],[-37.730413,-54.000011,0.0],[-37.730607,-53.999938,0.0],[-37.730761,-53.99989,0.0],[-37.730379,-53.9998,0.0],[-37.730344,-53.999794,0.0],[-37.730279,-53.9998,0.0],[-37.730196,-53.999817,0.0],[-37.730106,-53.99985,0.0],[-37.730021,-53.999901,0.0],[-37.729946,-53.999968,0.0],[-37.729879,-54.000046,0.0],[-37.729664,-54.000365,0.0],[-37.729609,-54.000422,0.0],[-37.72954,-54.000471,0.0],[-37.729391,-54.000563,0.0],[-37.729328,-54.000616,0.0],[-37.729278,-54.000682,0.0],[-37.729244,-54.000757,0.0],[-37.729206,-54.000925,0.0],[-37.729172,-54.001474,0.0],[-37.729171,-54.001484,0.0],[-37.72918,-54.001455,0.0],[-37.729348,-54.001215,0.0],[-37.729363,-54.001201,0.0],[-37.729422,-54.001151,0.0],[-37.729452,-54.001129,0.0],[-37.729678,-54.001767,0.0],[-37.729747,-54.001944,0.0],[-37.729964,-54.002165,0.0],[-37.730703,-54.002349,0.0],[-37.731074,-54.002396,0.0],[-37.731667,-54.00249,0.0],[-37.731962,-54.002581,0.0],[-37.732254,-54.00276,0.0],[-37.732321,-54.003024,0.0],[-37.732389,-54.003244,0.0],[-37.73149,-54.00341,0.0],[-37.730897,-54.003316,0.0],[-37.730529,-54.00318,0.0],[-37.729561,-54.00317,0.0],[-37.729108,-54.003385,0.0],[-37.728794,-54.003908,0.0],[-37.728856,-54.004303,0.0],[-37.728994,-54.004656,0.0],[-37.72928,-54.005054,0.0],[-37.729789,-54.005454,0.0],[-37.730007,-54.005632,0.0],[-37.729998,-54.005939,0.0],[-37.729765,-54.006243,0.0],[-37.729082,-54.006675,0.0],[-37.728271,-54.007157,0.0],[-37.728348,-54.007281,0.0],[-37.728019,-54.007278,0.0],[-37.728019,-54.007289,0.0],[-37.728046,-54.007532,0.0],[-37.728086,-54.007767,0.0],[-37.728146,-54.007991,0.0],[-37.728232,-54.008198,0.0],[-37.728354,-54.008384,0.0],[-37.728523,-54.008542,0.0],[-37.728759,-54.008672,0.0],[-37.729037,-54.008778,0.0],[-37.729619,-54.008972,0.0],[-37.730336,-54.009268,0.0],[-37.730681,-54.009423,0.0],[-37.731402,-54.009717,0.0],[-37.731662,-54.009802,0.0],[-37.732199,-54.009964,0.0],[-37.732583,-54.010096,0.0],[-37.733117,-54.01026,0.0],[-37.733374,-54.010348,0.0],[-37.733553,-54.010422,0.0],[-37.734074,-54.010655,0.0],[-37.734728,-54.010991,0.0],[-37.735363,-54.01134,0.0],[-37.735981,-54.011701,0.0],[-37.736421,-54.011987,0.0],[-37.736562,-54.012085,0.0],[-37.736692,-54.01219,0.0],[-37.736932,-54.01241,0.0],[-37.737037,-54.012528,0.0],[-37.737145,-54.012702,0.0],[-37.737221,-54.012893,0.0],[-37.737225,-54.01291,0.0]]]}},{"type":"Feature","properties":{"rgi_id":"RGI2000-v7.0-G-19-00443","o1region":"19"},"geometry":{"type":"Polygon","coordinates":[[[-37.709189,-54.002443,0.0],[-37.709251,-54.002493,0.0],[-37.709692,-54.002673,0.0],[-37.710209,-54.00281,0.0],[-37.71028,-54.002943,0.0],[-37.711166,-54.003172,0.0],[-37.711464,-54.003175,0.0],[-37.712131,-54.00327,0.0],[-37.712421,-54.003536,0.0],[-37.712482,-54.003975,0.0],[-37.71285,-54.004111,0.0],[-37.713742,-54.004164,0.0],[-37.714262,-54.004214,0.0],[-37.714634,-54.004218,0.0],[-37.715458,-54.004051,0.0],[-37.715966,-54.004057,0.0],[-37.715981,-54.004061,0.0],[-37.716043,-54.004138,0.0],[-37.716032,-54.004498,0.0],[-37.716013,-54.004603,0.0],[-37.715949,-54.004786,0.0],[-37.715934,-54.004856,0.0],[-37.715903,-54.004901,0.0],[-37.715824,-54.004937,0.0],[-37.715538,-54.005019,0.0],[-37.715511,-54.005029,0.0],[-37.715209,-54.00508,0.0],[-37.714996,-54.00508,0.0],[-37.714849,-54.005081,0.0],[-37.714806,-54.005082,0.0],[-37.714599,-54.005082,0.0],[-37.714449,-54.005112,0.0],[-37.714318,-54.005198,0.0],[-37.714202,-54.005311,0.0],[-37.714192,-54.005321,0.0],[-37.713977,-54.005471,0.0],[-37.713905,-54.005512,0.0],[-37.71388,-54.005553,0.0],[-37.713867,-54.005577,0.0],[-37.713546,-54.005698,0.0],[-37.713392,-54.005872,0.0],[-37.713309,-54.006134,0.0],[-37.713379,-54.006266,0.0],[-37.713371,-54.00653,0.0],[-37.713067,-54.006746,0.0],[-37.712545,-54.00674,0.0],[-37.711873,-54.006821,0.0],[-37.711569,-54.006993,0.0],[-37.711564,-54.007168,0.0],[-37.71216,-54.007175,0.0],[-37.713649,-54.007191,0.0],[-37.71402,-54.007238,0.0],[-37.714167,-54.007284,0.0],[-37.714688,-54.007289,0.0],[-37.715284,-54.007296,0.0],[-37.715656,-54.0073,0.0],[-37.716027,-54.007348,0.0],[-37.716775,-54.007268,0.0],[-37.716933,-54.007204,0.0],[-37.716975,-54.007204,0.0],[-37.717177,-54.007266,0.0],[-37.717275,-54.007387,0.0],[-37.71724,-54.007465,0.0],[-37.71721,-54.007531,0.0],[-37.716991,-54.007721,0.0],[-37.71631,-54.007833,0.0],[-37.716008,-54.007962,0.0],[-37.715331,-54.008174,0.0],[-37.714883,-54.008213,0.0],[-37.714284,-54.008338,0.0],[-37.713386,-54.00846,0.0],[-37.713155,-54.008721,0.0],[-37.713225,-54.008853,0.0],[-37.713891,-54.008992,0.0],[-37.713959,-54.009212,0.0],[-37.714779,-54.009177,0.0],[-37.715307,-54.008963,0.0],[-37.715911,-54.008706,0.0],[-37.716495,-54.008559,0.0],[-37.716495,-54.008559,0.0],[-37.716762,-54.008561,0.0],[-37.716933,-54.008563,0.0],[-37.717096,-54.008569,0.0],[-37.717112,-54.008569,0.0],[-37.717347,-54.008582,0.0],[-37.717543,-54.008589,0.0],[-37.718153,-54.008595,0.0],[-37.718234,-54.008605,0.0],[-37.718584,-54.008976,0.0],[-37.718874,-54.009243,0.0],[-37.719387,-54.009511,0.0],[-37.719686,-54.009471,0.0],[-37.720064,-54.009299,0.0],[-37.720079,-54.009299,0.0],[-37.719995,-54.009101,0.0],[-37.719779,-54.008879,0.0],[-37.719787,-54.008616,0.0],[-37.720089,-54.008488,0.0],[-37.720473,-54.008097,0.0],[-37.720327,-54.008008,0.0],[-37.719881,-54.007959,0.0],[-37.719811,-54.007827,0.0],[-37.71982,-54.00752,0.0],[-37.720343,-54.007481,0.0],[-37.720721,-54.00731,0.0],[-37.720726,-54.007135,0.0],[-37.720285,-54.006954,0.0],[-37.719988,-54.006907,0.0],[-37.719544,-54.006815,0.0],[-37.719558,-54.006376,0.0],[-37.719411,-54.006287,0.0],[-37.71964,-54.006114,0.0],[-37.720016,-54.005986,0.0],[-37.720538,-54.005992,0.0],[-37.721204,-54.006131,0.0],[-37.721347,-54.006308,0.0],[-37.721043,-54.006524,0.0],[-37.721113,-54.006656,0.0],[-37.721481,-54.006792,0.0],[-37.722226,-54.006799,0.0],[-37.722306,-54.006625,0.0],[-37.722677,-54.006673,0.0],[-37.722673,-54.006804,0.0],[-37.722221,-54.006975,0.0],[-37.721542,-54.007231,0.0],[-37.721165,-54.007402,0.0],[-37.72101,-54.007576,0.0],[-37.721004,-54.007796,0.0],[-37.721293,-54.008062,0.0],[-37.722184,-54.008159,0.0],[-37.722999,-54.008299,0.0],[-37.723219,-54.008433,0.0],[-37.724256,-54.00862,0.0],[-37.724549,-54.008755,0.0],[-37.724322,-54.008884,0.0],[-37.723355,-54.00883,0.0],[-37.722913,-54.008693,0.0],[-37.722318,-54.008643,0.0],[-37.721574,-54.008635,0.0],[-37.721273,-54.00872,0.0],[-37.721043,-54.008937,0.0],[-37.721137,-54.009354,0.0],[-37.721328,-54.009356,0.0],[-37.72155,-54.009403,0.0],[-37.721772,-54.009449,0.0],[-37.721996,-54.009451,0.0],[-37.722444,-54.009412,0.0],[-37.722742,-54.009415,0.0],[-37.722891,-54.009417,0.0],[-37.723187,-54.009464,0.0],[-37.723481,-54.009599,0.0],[-37.723698,-54.00982,0.0],[-37.723092,-54.010121,0.0],[-37.722933,-54.01047,0.0],[-37.723229,-54.010517,0.0],[-37.723679,-54.010434,0.0],[-37.723902,-54.010437,0.0],[-37.724204,-54.010308,0.0],[-37.724808,-54.010052,0.0],[-37.72518,-54.010055,0.0],[-37.725692,-54.010368,0.0],[-37.725913,-54.010458,0.0],[-37.726204,-54.010681,0.0],[-37.726797,-54.010775,0.0],[-37.727462,-54.010957,0.0],[-37.727676,-54.011266,0.0],[-37.727148,-54.01148,0.0],[-37.72685,-54.011477,0.0],[-37.726403,-54.011472,0.0],[-37.725956,-54.011468,0.0],[-37.725662,-54.011333,0.0],[-37.725817,-54.011159,0.0],[-37.725603,-54.01085,0.0],[-37.725309,-54.010715,0.0],[-37.72479,-54.010622,0.0],[-37.72456,-54.010839,0.0],[-37.724778,-54.011016,0.0],[-37.724846,-54.011237,0.0],[-37.724541,-54.011453,0.0],[-37.724015,-54.011623,0.0],[-37.723274,-54.011483,0.0],[-37.72351,-54.011091,0.0],[-37.723216,-54.010956,0.0],[-37.722991,-54.010997,0.0],[-37.722909,-54.01126,0.0],[-37.722381,-54.011474,0.0],[-37.721857,-54.011556,0.0],[-37.721108,-54.011679,0.0],[-37.720726,-54.011982,0.0],[-37.720791,-54.01229,0.0],[-37.721085,-54.012425,0.0],[-37.721533,-54.012386,0.0],[-37.721981,-54.012347,0.0],[-37.722508,-54.012177,0.0],[-37.723334,-54.011966,0.0],[-37.723556,-54.012013,0.0],[-37.72385,-54.012147,0.0],[-37.723996,-54.012237,0.0],[-37.724294,-54.01224,0.0],[-37.725039,-54.012248,0.0],[-37.725933,-54.012213,0.0],[-37.726082,-54.012215,0.0],[-37.725703,-54.01243,0.0],[-37.725996,-54.012609,0.0],[-37.726443,-54.012613,0.0],[-37.726512,-54.01279,0.0],[-37.72688,-54.012925,0.0],[-37.727032,-54.012839,0.0],[-37.727323,-54.012674,0.0],[-37.727438,-54.012738,0.0],[-37.727579,-54.01289,0.0],[-37.72756,-54.013022,0.0],[-37.727541,-54.013107,0.0],[-37.727529,-54.013197,0.0],[-37.726421,-54.013315,0.0],[-37.726126,-54.013224,0.0],[-37.725678,-54.013263,0.0],[-37.725079,-54.013345,0.0],[-37.724779,-54.013429,0.0],[-37.724178,-54.013599,0.0],[-37.723425,-54.013854,0.0],[-37.722674,-54.014065,0.0],[-37.722591,-54.014328,0.0],[-37.722964,-54.014331,0.0],[-37.723635,-54.014295,0.0],[-37.724238,-54.014082,0.0],[-37.72491,-54.014001,0.0],[-37.725353,-54.014137,0.0],[-37.725722,-54.014273,0.0],[-37.725495,-54.014358,0.0],[-37.725046,-54.014441,0.0],[-37.724522,-54.014524,0.0],[-37.724517,-54.014699,0.0],[-37.724737,-54.014789,0.0],[-37.72518,-54.014925,0.0],[-37.725552,-54.014929,0.0],[-37.725775,-54.014976,0.0],[-37.725771,-54.015107,0.0],[-37.725316,-54.015365,0.0],[-37.725234,-54.015584,0.0],[-37.725302,-54.015804,0.0],[-37.725671,-54.01594,0.0],[-37.726193,-54.015901,0.0],[-37.726417,-54.015904,0.0],[-37.72724,-54.015781,0.0],[-37.727398,-54.015475,0.0],[-37.727554,-54.015258,0.0],[-37.727557,-54.015255,0.0],[-37.727718,-54.015189,0.0],[-37.727946,-54.015185,0.0],[-37.728116,-54.015178,0.0],[-37.728329,-54.015175,0.0],[-37.72849,-54.015177,0.0],[-37.72894,-54.015181,0.0],[-37.72915,-54.015188,0.0],[-37.729326,-54.015197,0.0],[-37.729408,-54.0152,0.0],[-37.729549,-54.015204,0.0],[-37.729664,-54.015256,0.0],[-37.729635,-54.015411,0.0],[-37.729405,-54.015628,0.0],[-37.72901,-54.01637,0.0],[-37.729224,-54.016679,0.0],[-37.729661,-54.016991,0.0],[-37.730111,-54.016908,0.0],[-37.730486,-54.016824,0.0],[-37.73101,-54.016742,0.0],[-37.731838,-54.016444,0.0],[-37.73214,-54.016315,0.0],[-37.732167,-54.016297,0.0],[-37.732164,-54.016296,0.0],[-37.732364,-54.016297,0.0],[-37.732569,-54.016298,0.0],[-37.732837,-54.016381,0.0],[-37.732955,-54.016438,0.0],[-37.732873,-54.016718,0.0],[-37.732429,-54.016625,0.0],[-37.732055,-54.016665,0.0],[-37.732118,-54.017061,0.0],[-37.732559,-54.017241,0.0],[-37.733079,-54.01729,0.0],[-37.733233,-54.017116,0.0],[-37.733384,-54.017074,0.0],[-37.733828,-54.017166,0.0],[-37.734359,-54.017258,0.0],[-37.73437,-54.017276,0.0],[-37.734361,-54.017578,0.0],[-37.734459,-54.017578,0.0],[-37.734502,-54.017405,0.0],[-37.734588,-54.017208,0.0],[-37.734671,-54.01708,0.0],[-37.735013,-54.016619,0.0],[-37.735156,-54.016459,0.0],[-37.735278,-54.016348,0.0],[-37.735909,-54.015801,0.0],[-37.736061,-54.015646,0.0],[-37.736347,-54.015325,0.0],[-37.736572,-54.015091,0.0],[-37.736704,-54.014925,0.0],[-37.737033,-54.014453,0.0],[-37.737116,-54.014322,0.0],[-37.7372,-54.014134,0.0],[-37.737257,-54.013935,0.0],[-37.73729,-54.013727,0.0],[-37.737303,-54.013516,0.0],[-37.737296,-54.013304,0.0],[-37.73727,-54.013095,0.0],[-37.737225,-54.01291,0.0],[-37.737221,-54.012893,0.0],[-37.737145,-54.012702,0.0],[-37.737037,-54.012528,0.0],[-37.736932,-54.01241,0.0],[-37.736692,-54.01219,0.0],[-37.736562,-54.012085,0.0],[-37.736421,-54.011987,0.0],[-37.735981,-54.011701,0.0],[-37.735363,-54.01134,0.0],[-37.734728,-54.010991,0.0],[-37.734074,-54.010655,0.0],[-37.733553,-54.010422,0.0],[-37.733374,-54.010348,0.0],[-37.733117,-54.01026,0.0],[-37.732583,-54.010096,0.0],[-37.732199,-54.009964,0.0],[-37.731662,-54.009802,0.0],[-37.731402,-54.009717,0.0],[-37.730681,-54.009423,0.0],[-37.730336,-54.009268,0.0],[-37.729619,-54.008972,0.0],[-37.729037,-54.008778,0.0],[-37.728759,-54.008672,0.0],[-37.728523,-54.008542,0.0],[-37.728354,-54.008384,0.0],[-37.728232,-54.008198,0.0],[-37.728146,-54.007991,0.0],[-37.728086,-54.007767,0.0],[-37.728046,-54.007532,0.0],[-37.728019,-54.007289,0.0],[-37.728019,-54.007278,0.0],[-37.727946,-54.007277,0.0],[-37.72773,-54.007055,0.0],[-37.727743,-54.006617,0.0],[-37.727449,-54.006482,0.0],[-37.727154,-54.006391,0.0],[-37.72686,-54.006256,0.0],[-37.726714,-54.006167,0.0],[-37.726213,-54.005504,0.0],[-37.726148,-54.005196,0.0],[-37.726085,-54.0048,0.0],[-37.726309,-54.004803,0.0],[-37.726827,-54.004896,0.0],[-37.727271,-54.004988,0.0],[-37.727693,-54.005034,0.0],[-37.727794,-54.005002,0.0],[-37.727997,-54.004864,0.0],[-37.728006,-54.003787,0.0],[-37.728002,-54.003408,0.0],[-37.726227,-54.003421,0.0],[-37.725493,-54.003435,0.0],[-37.724893,-54.003456,0.0],[-37.724401,-54.003492,0.0],[-37.724179,-54.003517,0.0],[-37.723981,-54.003549,0.0],[-37.723736,-54.003603,0.0],[-37.723619,-54.003624,0.0],[-37.723435,-54.003636,0.0],[-37.72325,-54.003625,0.0],[-37.722877,-54.003554,0.0],[-37.722674,-54.003525,0.0],[-37.722449,-54.003504,0.0],[-37.721955,-54.003478,0.0],[-37.72063,-54.003439,0.0],[-37.720372,-54.003425,0.0],[-37.720124,-54.003406,0.0],[-37.719888,-54.003379,0.0],[-37.71967,-54.003342,0.0],[-37.719246,-54.003232,0.0],[-37.719053,-54.003192,0.0],[-37.718848,-54.003159,0.0],[-37.718214,-54.003072,0.0],[-37.718011,-54.003038,0.0],[-37.717822,-54.002995,0.0],[-37.717362,-54.00285,0.0],[-37.71709,-54.002775,0.0],[-37.716536,-54.002632,0.0],[-37.716298,-54.00256,0.0],[-37.71595,-54.002434,0.0],[-37.715838,-54.002405,0.0],[-37.715784,-54.002403,0.0],[-37.715754,-54.002404,0.0],[-37.71567,-54.002404,0.0],[-37.715541,-54.002405,0.0],[-37.715378,-54.002406,0.0],[-37.715189,-54.002407,0.0],[-37.714985,-54.002408,0.0],[-37.714774,-54.00241,0.0],[-37.709189,-54.002443,0.0]]]}},{"type":"Feature","properties":{"rgi_id":"RGI2000-v7.0-G-19-00902","o1region":"19"},"geometry":{"type":"Polygon","coordinates":[[[-37.390894,-53.999041,0.0],[-37.390712,-53.999077,0.0],[-37.390515,-53.999047,0.0],[-37.390443,-53.999019,0.0],[-37.390326,-53.999018,0.0],[-37.390122,-53.999016,0.0],[-37.389985,-53.999054,0.0],[-37.389914,-53.999133,0.0],[-37.389915,-53.99925,0.0],[-37.389922,-53.999384,0.0],[-37.389924,-53.999493,0.0],[-37.389931,-53.999592,0.0],[-37.390097,-53.999657,0.0],[-37.390274,-53.99975,0.0],[-37.390402,-53.999859,0.0],[-37.390496,-53.999977,0.0],[-37.390595,-54.000105,0.0],[-37.390651,-54.000178,0.0],[-37.390685,-54.000222,0.0],[-37.390489,-54.000469,0.0],[-37.390424,-54.000578,0.0],[-37.39052,-54.000667,0.0],[-37.390666,-54.000716,0.0],[-37.390952,-54.000775,0.0],[-37.390996,-54.000782,0.0],[-37.391272,-54.000831,0.0],[-37.391488,-54.000825,0.0],[-37.391667,-54.000828,0.0],[-37.391883,-54.00082,0.0],[-37.392034,-54.00076,0.0],[-37.392108,-54.000731,0.0],[-37.392265,-54.000603,0.0],[-37.392288,-54.000474,0.0],[-37.392292,-54.000372,0.0],[-37.392312,-54.000244,0.0],[-37.392315,-54.000176,0.0],[-37.392326,-53.999884,0.0],[-37.392362,-53.999784,0.0],[-37.392395,-53.999745,0.0],[-37.392485,-53.999638,0.0],[-37.392541,-53.999571,0.0],[-37.392573,-53.999546,0.0],[-37.392582,-53.999528,0.0],[-37.392601,-53.999495,0.0],[-37.392769,-53.999299,0.0],[-37.392816,-53.999172,0.0],[-37.39281,-53.999102,0.0],[-37.392803,-53.99903,0.0],[-37.39278,-53.998938,0.0],[-37.392765,-53.998812,0.0],[-37.392703,-53.998734,0.0],[-37.392575,-53.998694,0.0],[-37.392407,-53.998708,0.0],[-37.391961,-53.998801,0.0],[-37.391543,-53.998911,0.0],[-37.391344,-53.998959,0.0],[-37.391084,-53.998996,0.0],[-37.390988,-53.998997,0.0],[-37.390958,-53.999,0.0],[-37.390894,-53.999041,0.0]]]}},{"type":"Feature","properties":{"rgi_id":"RGI2000-v7.0-G-19-00903","o1region":"19"},"geometry":{"type":"Polygon","coordinates":[[[-37.69856,-53.999043,0.0],[-37.698258,-53.999172,0.0],[-37.698028,-53.999389,0.0],[-37.697945,-53.999651,0.0],[-37.697939,-53.99987,0.0],[-37.697933,-54.000046,0.0],[-37.697928,-54.000221,0.0],[-37.697481,-54.000216,0.0],[-37.697256,-54.000258,0.0],[-37.696662,-54.000207,0.0],[-37.696513,-54.000206,0.0],[-37.69614,-54.000246,0.0],[-37.695988,-54.000332,0.0],[-37.695612,-54.000459,0.0],[-37.695533,-54.00059,0.0],[-37.696276,-54.000642,0.0],[-37.696872,-54.000648,0.0],[-37.697098,-54.000563,0.0],[-37.697619,-54.000569,0.0],[-37.697841,-54.000615,0.0],[-37.698358,-54.000752,0.0],[-37.69873,-54.000756,0.0],[-37.699205,-54.000341,0.0],[-37.699326,-54.000266,0.0],[-37.699374,-54.00025,0.0],[-37.699492,-54.000208,0.0],[-37.699723,-54.000143,0.0],[-37.699917,-54.000121,0.0],[-37.699934,-54.000118,0.0],[-37.700106,-54.000085,0.0],[-37.70019,-54.000062,0.0],[-37.700233,-54.000013,0.0],[-37.700511,-53.999892,0.0],[-37.700726,-53.999782,0.0],[-37.700936,-53.999785,0.0],[-37.701124,-53.999789,0.0],[-37.701336,-53.999792,0.0],[-37.701494,-53.99976,0.0],[-37.701633,-53.999669,0.0],[-37.701677,-53.999622,0.0],[-37.701746,-53.999548,0.0],[-37.701913,-53.999539,0.0],[-37.701949,-53.999537,0.0],[-37.702201,-53.999459,0.0],[-37.702297,-53.999396,0.0],[-37.702758,-53.999356,0.0],[-37.702795,-53.999352,0.0],[-37.702876,-53.999134,0.0],[-37.702508,-53.998998,0.0],[-37.702217,-53.998995,0.0],[-37.702136,-53.998994,0.0],[-37.701771,-53.998771,0.0],[-37.701324,-53.998766,0.0],[-37.70117,-53.99894,0.0],[-37.700868,-53.999068,0.0],[-37.700496,-53.999064,0.0],[-37.700504,-53.998801,0.0],[-37.700734,-53.998584,0.0],[-37.700216,-53.998491,0.0],[-37.699838,-53.998662,0.0],[-37.699686,-53.998748,0.0],[-37.699236,-53.998875,0.0],[-37.698934,-53.999004,0.0],[-37.69856,-53.999043,0.0]]]}},{"type":"Feature","properties":{"rgi_id":"RGI2000-v7.0-G-19-00904","o1region":"19"},"geometry":{"type":"Polygon","coordinates":[[[-37.694543,-54.001281,0.0],[-37.69498,-54.001593,0.0],[-37.695575,-54.001643,0.0],[-37.695795,-54.001733,0.0],[-37.695566,-54.001907,0.0],[-37.695411,-54.002124,0.0],[-37.695404,-54.002343,0.0],[-37.695924,-54.002393,0.0],[-37.696527,-54.002136,0.0],[-37.69735,-54.002014,0.0],[-37.697874,-54.001932,0.0],[-37.698171,-54.001979,0.0],[-37.698766,-54.001985,0.0],[-37.699522,-54.001642,0.0],[-37.699971,-54.001559,0.0],[-37.700795,-54.001393,0.0],[-37.701315,-54.001442,0.0],[-37.701536,-54.001532,0.0],[-37.701084,-54.001703,0.0],[-37.700857,-54.001788,0.0],[-37.701002,-54.001922,0.0],[-37.701602,-54.001796,0.0],[-37.702804,-54.001458,0.0],[-37.703988,-54.001691,0.0],[-37.703685,-54.001863,0.0],[-37.70316,-54.001989,0.0],[-37.702632,-54.002202,0.0],[-37.702322,-54.002552,0.0],[-37.701861,-54.002548,0.0],[-37.701582,-54.002744,0.0],[-37.701447,-54.002893,0.0],[-37.70144,-54.002905,0.0],[-37.701512,-54.003067,0.0],[-37.701525,-54.003092,0.0],[-37.701593,-54.003264,0.0],[-37.701672,-54.003361,0.0],[-37.701834,-54.003411,0.0],[-37.701932,-54.003427,0.0],[-37.701767,-54.003685,0.0],[-37.702135,-54.00382,0.0],[-37.70251,-54.003737,0.0],[-37.703108,-54.003655,0.0],[-37.703778,-54.003663,0.0],[-37.704528,-54.003495,0.0],[-37.7055,-54.003374,0.0],[-37.705733,-54.003049,0.0],[-37.705965,-54.002952,0.0],[-37.706033,-54.0029,0.0],[-37.706123,-54.002873,0.0],[-37.706379,-54.002745,0.0],[-37.706602,-54.002599,0.0],[-37.706628,-54.002531,0.0],[-37.706725,-54.002276,0.0],[-37.706493,-54.002171,0.0],[-37.706282,-54.002025,0.0],[-37.706322,-54.001915,0.0],[-37.70627,-54.001914,0.0],[-37.706295,-54.001759,0.0],[-37.705856,-54.001491,0.0],[-37.70556,-54.001444,0.0],[-37.704893,-54.001349,0.0],[-37.704595,-54.001346,0.0],[-37.704078,-54.001209,0.0],[-37.703559,-54.001116,0.0],[-37.702444,-54.00106,0.0],[-37.701848,-54.001053,0.0],[-37.701185,-54.000827,0.0],[-37.70036,-54.001037,0.0],[-37.700062,-54.001034,0.0],[-37.699166,-54.001112,0.0],[-37.698271,-54.001146,0.0],[-37.697597,-54.00127,0.0],[-37.697305,-54.001092,0.0],[-37.69701,-54.001001,0.0],[-37.696193,-54.000904,0.0],[-37.695675,-54.000811,0.0],[-37.695526,-54.000809,0.0],[-37.695227,-54.00085,0.0],[-37.694547,-54.00115,0.0],[-37.694543,-54.001281,0.0]]]}},{"type":"Feature","properties":{"rgi_id":"RGI2000-v7.0-G-19-00905","o1region":"19"},"geometry":{"type":"Polygon","coordinates":[[[-37.708338,-54.003097,0.0],[-37.70826,-54.003228,0.0],[-37.708176,-54.003534,0.0],[-37.707274,-54.003788,0.0],[-37.70661,-54.003605,0.0],[-37.706602,-54.003868,0.0],[-37.707042,-54.004093,0.0],[-37.707709,-54.004187,0.0],[-37.7083,-54.004325,0.0],[-37.709114,-54.00451,0.0],[-37.709482,-54.004645,0.0],[-37.709848,-54.004868,0.0],[-37.710219,-54.004916,0.0],[-37.710229,-54.004569,0.0],[-37.710342,-54.004578,0.0],[-37.7105,-54.004531,0.0],[-37.710639,-54.00444,0.0],[-37.710714,-54.004295,0.0],[-37.710717,-54.004227,0.0],[-37.710727,-54.004196,0.0],[-37.710991,-54.004003,0.0],[-37.710925,-54.003739,0.0],[-37.710562,-54.003428,0.0],[-37.710346,-54.003207,0.0],[-37.710049,-54.00316,0.0],[-37.709452,-54.003197,0.0],[-37.709232,-54.003107,0.0],[-37.708787,-54.003058,0.0],[-37.708338,-54.003097,0.0]]]}},{"type":"Feature","properties":{"rgi_id":"RGI2000-v7.0-G-19-00906","o1region":"19"},"geometry":{"type":"Polygon","coordinates":[[[-37.72951,-53.993679,0.0],[-37.728737,-53.993553,0.0],[-37.728205,-53.993899,0.0],[-37.727462,-53.993847,0.0],[-37.727167,-53.993756,0.0],[-37.726944,-53.993754,0.0],[-37.7262,-53.993746,0.0],[-37.725825,-53.993829,0.0],[-37.725149,-53.993998,0.0],[-37.724853,-53.993951,0.0],[-37.724408,-53.993902,0.0],[-37.724186,-53.993856,0.0],[-37.72364,-53.993786,0.0],[-37.723289,-53.993956,0.0],[-37.723067,-53.99391,0.0],[-37.722548,-53.993861,0.0],[-37.72225,-53.993857,0.0],[-37.721655,-53.993851,0.0],[-37.721059,-53.993845,0.0],[-37.720535,-53.993927,0.0],[-37.720529,-53.994146,0.0],[-37.720669,-53.994411,0.0],[-37.720659,-53.994762,0.0],[-37.720134,-53.994888,0.0],[-37.719977,-53.995149,0.0],[-37.720195,-53.995327,0.0],[-37.720714,-53.995377,0.0],[-37.721242,-53.995211,0.0],[-37.721215,-53.99533,0.0],[-37.721146,-53.995476,0.0],[-37.721132,-53.995524,0.0],[-37.720858,-53.995554,0.0],[-37.720335,-53.995592,0.0],[-37.719956,-53.995807,0.0],[-37.719875,-53.996026,0.0],[-37.719349,-53.996196,0.0],[-37.719341,-53.996459,0.0],[-37.719633,-53.996637,0.0],[-37.720004,-53.996685,0.0],[-37.720601,-53.996648,0.0],[-37.721122,-53.996653,0.0],[-37.721491,-53.996745,0.0],[-37.722018,-53.996575,0.0],[-37.722047,-53.996468,0.0],[-37.722117,-53.996475,0.0],[-37.722187,-53.996483,0.0],[-37.722364,-53.996399,0.0],[-37.722503,-53.996297,0.0],[-37.72266,-53.996213,0.0],[-37.722806,-53.996187,0.0],[-37.722985,-53.996196,0.0],[-37.723279,-53.996225,0.0],[-37.723415,-53.996233,0.0],[-37.723497,-53.996259,0.0],[-37.723537,-53.996308,0.0],[-37.723546,-53.996388,0.0],[-37.723585,-53.996562,0.0],[-37.723595,-53.996668,0.0],[-37.723553,-53.996715,0.0],[-37.723427,-53.996765,0.0],[-37.722608,-53.996757,0.0],[-37.722229,-53.996972,0.0],[-37.721027,-53.99731,0.0],[-37.720804,-53.997308,0.0],[-37.720797,-53.997527,0.0],[-37.720943,-53.997616,0.0],[-37.720937,-53.997836,0.0],[-37.720483,-53.99805,0.0],[-37.720478,-53.998226,0.0],[-37.720697,-53.99836,0.0],[-37.720693,-53.998491,0.0],[-37.720539,-53.998665,0.0],[-37.721208,-53.998716,0.0],[-37.721734,-53.998546,0.0],[-37.721943,-53.99831,0.0],[-37.72213,-53.998331,0.0],[-37.72227,-53.998369,0.0],[-37.722359,-53.998453,0.0],[-37.722368,-53.998598,0.0],[-37.722367,-53.998635,0.0],[-37.722367,-53.998667,0.0],[-37.722368,-53.998686,0.0],[-37.721871,-53.998943,0.0],[-37.720896,-53.999152,0.0],[-37.720591,-53.999412,0.0],[-37.720509,-53.99963,0.0],[-37.719903,-53.999975,0.0],[-37.719677,-54.00006,0.0],[-37.719454,-54.000057,0.0],[-37.719152,-54.000186,0.0],[-37.719371,-54.00032,0.0],[-37.719362,-54.000627,0.0],[-37.719208,-54.000801,0.0],[-37.718466,-54.000705,0.0],[-37.718024,-54.000525,0.0],[-37.717582,-54.000389,0.0],[-37.716988,-54.000338,0.0],[-37.716392,-54.000332,0.0],[-37.715798,-54.000282,0.0],[-37.715506,-54.000103,0.0],[-37.715584,-53.999972,0.0],[-37.715891,-53.999669,0.0],[-37.715526,-53.999445,0.0],[-37.714781,-53.999437,0.0],[-37.714333,-53.999476,0.0],[-37.7138,-53.999866,0.0],[-37.713421,-54.000081,0.0],[-37.713562,-54.000346,0.0],[-37.713826,-54.000477,0.0],[-37.713824,-54.000519,0.0],[-37.71373,-54.000644,0.0],[-37.713606,-54.000693,0.0],[-37.713478,-54.000652,0.0],[-37.713257,-54.000562,0.0],[-37.712887,-54.000514,0.0],[-37.712439,-54.000553,0.0],[-37.711544,-54.000587,0.0],[-37.71125,-54.000452,0.0],[-37.711628,-54.000281,0.0],[-37.711632,-54.000149,0.0],[-37.711337,-54.000058,0.0],[-37.711115,-54.000012,0.0],[-37.710594,-54.000007,0.0],[-37.709852,-53.999911,0.0],[-37.709783,-53.999735,0.0],[-37.709564,-53.999601,0.0],[-37.708448,-53.999545,0.0],[-37.708156,-53.999366,0.0],[-37.70801,-53.999277,0.0],[-37.707122,-53.999092,0.0],[-37.706681,-53.998912,0.0],[-37.706383,-53.998908,0.0],[-37.705859,-53.998991,0.0],[-37.704966,-53.998981,0.0],[-37.704586,-53.99924,0.0],[-37.704808,-53.999286,0.0],[-37.705326,-53.99938,0.0],[-37.705695,-53.999471,0.0],[-37.705543,-53.999601,0.0],[-37.704799,-53.999549,0.0],[-37.704274,-53.999675,0.0],[-37.704489,-53.999941,0.0],[-37.705004,-54.000166,0.0],[-37.706111,-54.000485,0.0],[-37.706628,-54.000622,0.0],[-37.706848,-54.000712,0.0],[-37.706912,-54.001064,0.0],[-37.707505,-54.001158,0.0],[-37.708169,-54.001341,0.0],[-37.708538,-54.001476,0.0],[-37.708605,-54.001696,0.0],[-37.708525,-54.001871,0.0],[-37.708667,-54.002092,0.0],[-37.709033,-54.002315,0.0],[-37.709189,-54.002443,0.0],[-37.714774,-54.00241,0.0],[-37.714985,-54.002408,0.0],[-37.715189,-54.002407,0.0],[-37.715378,-54.002406,0.0],[-37.715541,-54.002405,0.0],[-37.71567,-54.002404,0.0],[-37.715754,-54.002404,0.0],[-37.715784,-54.002403,0.0],[-37.715838,-54.002405,0.0],[-37.71595,-54.002434,0.0],[-37.716298,-54.00256,0.0],[-37.716536,-54.002632,0.0],[-37.71709,-54.002775,0.0],[-37.717362,-54.00285,0.0],[-37.717822,-54.002995,0.0],[-37.718011,-54.003038,0.0],[-37.718214,-54.003072,0.0],[-37.718848,-54.003159,0.0],[-37.719053,-54.003192,0.0],[-37.719246,-54.003232,0.0],[-37.71967,-54.003342,0.0],[-37.719888,-54.003379,0.0],[-37.720124,-54.003406,0.0],[-37.720372,-54.003425,0.0],[-37.72063,-54.003439,0.0],[-37.721955,-54.003478,0.0],[-37.722449,-54.003504,0.0],[-37.722674,-54.003525,0.0],[-37.722877,-54.003554,0.0],[-37.72325,-54.003625,0.0],[-37.723435,-54.003636,0.0],[-37.723619,-54.003624,0.0],[-37.723736,-54.003603,0.0],[-37.723981,-54.003549,0.0],[-37.724179,-54.003517,0.0],[-37.724401,-54.003492,0.0],[-37.724893,-54.003456,0.0],[-37.725493,-54.003435,0.0],[-37.726227,-54.003421,0.0],[-37.728002,-54.003408,0.0],[-37.728006,-54.003787,0.0],[-37.727997,-54.004864,0.0],[-37.728017,-54.004851,0.0],[-37.72807,-54.004804,0.0],[-37.728083,-54.004774,0.0],[-37.728088,-54.004734,0.0],[-37.728136,-54.004479,0.0],[-37.728142,-54.004415,0.0],[-37.728143,-54.00435,0.0],[-37.728139,-54.004114,0.0],[-37.728139,-54.004056,0.0],[-37.728145,-54.003996,0.0],[-37.728177,-54.003771,0.0],[-37.728183,-54.003697,0.0],[-37.728201,-54.003611,0.0],[-37.728255,-54.003453,0.0],[-37.728276,-54.003338,0.0],[-37.728381,-54.003164,0.0],[-37.728392,-54.003149,0.0],[-37.728501,-54.002981,0.0],[-37.72854,-54.002895,0.0],[-37.72869,-54.002769,0.0],[-37.728813,-54.002695,0.0],[-37.728883,-54.002625,0.0],[-37.729027,-54.00246,0.0],[-37.729038,-54.002429,0.0],[-37.729132,-54.002268,0.0],[-37.729133,-54.002235,0.0],[-37.729136,-54.002159,0.0],[-37.729135,-54.00212,0.0],[-37.729138,-54.002018,0.0],[-37.729142,-54.001909,0.0],[-37.729144,-54.0018,0.0],[-37.729147,-54.00166,0.0],[-37.729148,-54.001629,0.0],[-37.72915,-54.00155,0.0],[-37.729171,-54.001484,0.0],[-37.729172,-54.001474,0.0],[-37.729206,-54.000925,0.0],[-37.729244,-54.000757,0.0],[-37.729278,-54.000682,0.0],[-37.729328,-54.000616,0.0],[-37.729391,-54.000563,0.0],[-37.72954,-54.000471,0.0],[-37.729609,-54.000422,0.0],[-37.729664,-54.000365,0.0],[-37.729879,-54.000046,0.0],[-37.729946,-53.999968,0.0],[-37.730021,-53.999901,0.0],[-37.730106,-53.99985,0.0],[-37.730196,-53.999817,0.0],[-37.730279,-53.9998,0.0],[-37.730344,-53.999794,0.0],[-37.730379,-53.9998,0.0],[-37.730761,-53.99989,0.0],[-37.730796,-53.999879,0.0],[-37.730814,-53.999861,0.0],[-37.730855,-53.999415,0.0],[-37.730872,-53.999235,0.0],[-37.730886,-53.998797,0.0],[-37.730894,-53.998534,0.0],[-37.730831,-53.998138,0.0],[-37.730696,-53.997698,0.0],[-37.730482,-53.997389,0.0],[-37.730262,-53.997255,0.0],[-37.729672,-53.997073,0.0],[-37.729301,-53.997025,0.0],[-37.728182,-53.997101,0.0],[-37.727515,-53.997006,0.0],[-37.726996,-53.996913,0.0],[-37.726182,-53.996773,0.0],[-37.725962,-53.996639,0.0],[-37.726118,-53.996421,0.0],[-37.726715,-53.996384,0.0],[-37.727226,-53.996696,0.0],[-37.727596,-53.996788,0.0],[-37.728419,-53.996665,0.0],[-37.729167,-53.996541,0.0],[-37.72947,-53.996369,0.0],[-37.729844,-53.996329,0.0],[-37.730066,-53.996381,0.0],[-37.730106,-53.996353,0.0],[-37.730183,-53.996308,0.0],[-37.730128,-53.996168,0.0],[-37.730034,-53.995975,0.0],[-37.729869,-53.995706,0.0],[-37.729777,-53.995518,0.0],[-37.729701,-53.995322,0.0],[-37.729509,-53.994735,0.0],[-37.729337,-53.994315,0.0],[-37.72931,-53.994151,0.0],[-37.729328,-53.993988,0.0],[-37.729392,-53.993832,0.0],[-37.72947,-53.993723,0.0],[-37.72951,-53.993679,0.0]]]}},{"type":"Feature","properties":{"rgi_id":"RGI2000-v7.0-G-19-00907","o1region":"19"},"geometry":{"type":"Polygon","coordinates":[[[-37.733646,-53.987033,0.0],[-37.73352,-53.987202,0.0],[-37.733384,-53.987467,0.0],[-37.733295,-53.987744,0.0],[-37.733276,-53.987844,0.0],[-37.733243,-53.988015,0.0],[-37.733219,-53.988258,0.0],[-37.733214,-53.988457,0.0],[-37.733221,-53.98859,0.0],[-37.733232,-53.988641,0.0],[-37.733229,-53.988878,0.0],[-37.733239,-53.988936,0.0],[-37.733258,-53.988967,0.0],[-37.733296,-53.988987,0.0],[-37.733352,-53.988996,0.0],[-37.733702,-53.988999,0.0],[-37.733764,-53.989004,0.0],[-37.733813,-53.989018,0.0],[-37.73384,-53.989044,0.0],[-37.733857,-53.989098,0.0],[-37.733855,-53.989356,0.0],[-37.733857,-53.989381,0.0],[-37.733818,-53.989429,0.0],[-37.733739,-53.989493,0.0],[-37.733338,-53.989777,0.0],[-37.732974,-53.99001,0.0],[-37.732224,-53.990508,0.0],[-37.732064,-53.990626,0.0],[-37.731792,-53.990838,0.0],[-37.731668,-53.990944,0.0],[-37.731524,-53.991099,0.0],[-37.731264,-53.991426,0.0],[-37.731061,-53.991666,0.0],[-37.730958,-53.991821,0.0],[-37.730688,-53.99231,0.0],[-37.730583,-53.992464,0.0],[-37.730379,-53.992704,0.0],[-37.730124,-53.993029,0.0],[-37.729989,-53.993185,0.0],[-37.729764,-53.9934,0.0],[-37.72951,-53.993679,0.0],[-37.72947,-53.993723,0.0],[-37.729392,-53.993832,0.0],[-37.729328,-53.993988,0.0],[-37.72931,-53.994151,0.0],[-37.729337,-53.994315,0.0],[-37.729509,-53.994735,0.0],[-37.729701,-53.995322,0.0],[-37.729777,-53.995518,0.0],[-37.729869,-53.995706,0.0],[-37.730034,-53.995975,0.0],[-37.730128,-53.996168,0.0],[-37.730183,-53.996308,0.0],[-37.730264,-53.99626,0.0],[-37.730294,-53.996168,0.0],[-37.730302,-53.996162,0.0],[-37.730736,-53.996382,0.0],[-37.731402,-53.996521,0.0],[-37.731771,-53.996612,0.0],[-37.732364,-53.996706,0.0],[-37.732955,-53.996844,0.0],[-37.733472,-53.996981,0.0],[-37.733693,-53.997071,0.0],[-37.733757,-53.997423,0.0],[-37.733674,-53.997686,0.0],[-37.733445,-53.997902,0.0],[-37.733071,-53.997942,0.0],[-37.732253,-53.99789,0.0],[-37.732105,-53.997888,0.0],[-37.731873,-53.998149,0.0],[-37.731869,-53.998281,0.0],[-37.731856,-53.998719,0.0],[-37.731848,-53.998982,0.0],[-37.731766,-53.999245,0.0],[-37.73176,-53.99942,0.0],[-37.732122,-53.999775,0.0],[-37.732187,-54.000083,0.0],[-37.732096,-54.000123,0.0],[-37.732222,-54.000144,0.0],[-37.732628,-54.000222,0.0],[-37.733001,-54.000314,0.0],[-37.733247,-54.000393,0.0],[-37.733464,-54.000475,0.0],[-37.733655,-54.000553,0.0],[-37.733828,-54.00063,0.0],[-37.734156,-54.000796,0.0],[-37.73466,-54.001038,0.0],[-37.734831,-54.001117,0.0],[-37.735012,-54.001189,0.0],[-37.735394,-54.001323,0.0],[-37.735599,-54.001381,0.0],[-37.735925,-54.001444,0.0],[-37.736285,-54.001487,0.0],[-37.736669,-54.001516,0.0],[-37.73707,-54.001534,0.0],[-37.737902,-54.001552,0.0],[-37.738472,-54.001559,0.0],[-37.738473,-54.001509,0.0],[-37.738039,-54.00111,0.0],[-37.738269,-54.000893,0.0],[-37.739089,-54.000857,0.0],[-37.73902,-54.000681,0.0],[-37.739028,-54.000418,0.0],[-37.739181,-54.000337,0.0],[-37.739042,-53.999936,0.0],[-37.739198,-53.999718,0.0],[-37.739204,-53.999499,0.0],[-37.738834,-53.999451,0.0],[-37.738544,-53.999184,0.0],[-37.737665,-53.998693,0.0],[-37.737073,-53.998555,0.0],[-37.736631,-53.998419,0.0],[-37.736263,-53.998283,0.0],[-37.736273,-53.997932,0.0],[-37.736503,-53.997715,0.0],[-37.736951,-53.997676,0.0],[-37.737557,-53.997331,0.0],[-37.737414,-53.997154,0.0],[-37.736831,-53.99671,0.0],[-37.736253,-53.996133,0.0],[-37.736187,-53.995869,0.0],[-37.735971,-53.995604,0.0],[-37.735531,-53.99538,0.0],[-37.735468,-53.995028,0.0],[-37.735772,-53.994812,0.0],[-37.735929,-53.99455,0.0],[-37.736236,-53.994247,0.0],[-37.736469,-53.993942,0.0],[-37.737295,-53.993687,0.0],[-37.738049,-53.993388,0.0],[-37.73821,-53.992995,0.0],[-37.738441,-53.992734,0.0],[-37.73942,-53.99235,0.0],[-37.740169,-53.992226,0.0],[-37.740918,-53.992058,0.0],[-37.741367,-53.991975,0.0],[-37.741963,-53.991981,0.0],[-37.742934,-53.99186,0.0],[-37.743017,-53.991598,0.0],[-37.743175,-53.991292,0.0],[-37.743329,-53.991118,0.0],[-37.743264,-53.99081,0.0],[-37.742452,-53.990583,0.0],[-37.741565,-53.990354,0.0],[-37.740461,-53.989948,0.0],[-37.740171,-53.989681,0.0],[-37.739512,-53.989323,0.0],[-37.739222,-53.989057,0.0],[-37.739153,-53.988758,0.0],[-37.73909,-53.988485,0.0],[-37.738809,-53.987956,0.0],[-37.738662,-53.987867,0.0],[-37.737845,-53.987814,0.0],[-37.737481,-53.987547,0.0],[-37.736891,-53.987365,0.0],[-37.736446,-53.987317,0.0],[-37.736079,-53.987138,0.0],[-37.735787,-53.986959,0.0],[-37.734888,-53.987125,0.0],[-37.734079,-53.986809,0.0],[-37.734029,-53.986666,0.0],[-37.733938,-53.986738,0.0],[-37.733789,-53.986879,0.0],[-37.733646,-53.987033,0.0]]]}},{"type":"Feature","properties":{"rgi_id":"RGI2000-v7.0-G-19-00908","o1region":"19"},"geometry":{"type":"Polygon","coordinates":[[[-37.733276,-53.987844,0.0],[-37.732752,-53.98779,0.0],[-37.732299,-53.987822,0.0],[-37.732213,-53.987825,0.0],[-37.732005,-53.98789,0.0],[-37.731881,-53.987933,0.0],[-37.731598,-53.988002,0.0],[-37.731392,-53.988,0.0],[-37.731337,-53.988,0.0],[-37.731355,-53.988042,0.0],[-37.731573,-53.988254,0.0],[-37.73159,-53.988262,0.0],[-37.731597,-53.988272,0.0],[-37.731588,-53.988282,0.0],[-37.731572,-53.988287,0.0],[-37.73147,-53.988332,0.0],[-37.731454,-53.988339,0.0],[-37.731243,-53.988437,0.0],[-37.730954,-53.988535,0.0],[-37.730749,-53.988501,0.0],[-37.730585,-53.98848,0.0],[-37.730347,-53.988436,0.0],[-37.730189,-53.988352,0.0],[-37.730162,-53.988307,0.0],[-37.730151,-53.988288,0.0],[-37.729759,-53.988284,0.0],[-37.729488,-53.988262,0.0],[-37.729395,-53.988245,0.0],[-37.729151,-53.988219,0.0],[-37.728997,-53.988188,0.0],[-37.728841,-53.988095,0.0],[-37.728717,-53.987993,0.0],[-37.72855,-53.987917,0.0],[-37.728298,-53.987941,0.0],[-37.728182,-53.987945,0.0],[-37.727938,-53.987964,0.0],[-37.727744,-53.987969,0.0],[-37.727532,-53.987961,0.0],[-37.727328,-53.987965,0.0],[-37.727242,-53.987963,0.0],[-37.727133,-53.987961,0.0],[-37.726919,-53.987956,0.0],[-37.726815,-53.987954,0.0],[-37.726719,-53.987952,0.0],[-37.726565,-53.987981,0.0],[-37.72641,-53.988069,0.0],[-37.726294,-53.988181,0.0],[-37.726097,-53.988332,0.0],[-37.726025,-53.988383,0.0],[-37.726003,-53.988424,0.0],[-37.725759,-53.988587,0.0],[-37.725475,-53.988725,0.0],[-37.725414,-53.988742,0.0],[-37.725382,-53.988777,0.0],[-37.72516,-53.988953,0.0],[-37.725146,-53.988964,0.0],[-37.725022,-53.98906,0.0],[-37.724928,-53.989132,0.0],[-37.724904,-53.989163,0.0],[-37.724851,-53.98918,0.0],[-37.724578,-53.98933,0.0],[-37.724368,-53.989486,0.0],[-37.724319,-53.989537,0.0],[-37.72426,-53.989555,0.0],[-37.724229,-53.989565,0.0],[-37.723962,-53.989686,0.0],[-37.723857,-53.989754,0.0],[-37.723727,-53.989838,0.0],[-37.723689,-53.989885,0.0],[-37.723608,-53.989919,0.0],[-37.723402,-53.990076,0.0],[-37.723343,-53.990194,0.0],[-37.723288,-53.990373,0.0],[-37.723233,-53.990552,0.0],[-37.723166,-53.990664,0.0],[-37.723129,-53.990685,0.0],[-37.722972,-53.990774,0.0],[-37.722897,-53.990801,0.0],[-37.722831,-53.990825,0.0],[-37.722746,-53.990907,0.0],[-37.72257,-53.991032,0.0],[-37.722351,-53.991109,0.0],[-37.722124,-53.991126,0.0],[-37.721949,-53.991135,0.0],[-37.72174,-53.991149,0.0],[-37.721595,-53.991169,0.0],[-37.721376,-53.991252,0.0],[-37.721245,-53.991321,0.0],[-37.721123,-53.991359,0.0],[-37.720894,-53.991473,0.0],[-37.720693,-53.991604,0.0],[-37.720604,-53.991662,0.0],[-37.720503,-53.991683,0.0],[-37.720232,-53.991801,0.0],[-37.720042,-53.991936,0.0],[-37.720014,-53.991956,0.0],[-37.720221,-53.992117,0.0],[-37.720486,-53.992245,0.0],[-37.720571,-53.992271,0.0],[-37.720612,-53.992322,0.0],[-37.720708,-53.992458,0.0],[-37.720758,-53.992518,0.0],[-37.72077,-53.99254,0.0],[-37.720811,-53.992617,0.0],[-37.720641,-53.992919,0.0],[-37.720113,-53.993133,0.0],[-37.719956,-53.993394,0.0],[-37.719951,-53.99357,0.0],[-37.720395,-53.993662,0.0],[-37.720768,-53.993622,0.0],[-37.721217,-53.993539,0.0],[-37.721591,-53.993499,0.0],[-37.72204,-53.993416,0.0],[-37.722189,-53.993418,0.0],[-37.72271,-53.993424,0.0],[-37.723529,-53.993432,0.0],[-37.723974,-53.993481,0.0],[-37.723943,-53.993524,0.0],[-37.724197,-53.993505,0.0],[-37.724497,-53.993421,0.0],[-37.725168,-53.993384,0.0],[-37.726442,-53.993134,0.0],[-37.726822,-53.992875,0.0],[-37.727268,-53.99288,0.0],[-37.727711,-53.993016,0.0],[-37.727703,-53.993279,0.0],[-37.728072,-53.993371,0.0],[-37.728741,-53.993422,0.0],[-37.728737,-53.993553,0.0],[-37.72951,-53.993679,0.0],[-37.729764,-53.9934,0.0],[-37.729989,-53.993185,0.0],[-37.730124,-53.993029,0.0],[-37.730379,-53.992704,0.0],[-37.730583,-53.992464,0.0],[-37.730688,-53.99231,0.0],[-37.730958,-53.991821,0.0],[-37.731061,-53.991666,0.0],[-37.731264,-53.991426,0.0],[-37.731524,-53.991099,0.0],[-37.731668,-53.990944,0.0],[-37.731792,-53.990838,0.0],[-37.732064,-53.990626,0.0],[-37.732224,-53.990508,0.0],[-37.732974,-53.99001,0.0],[-37.733338,-53.989777,0.0],[-37.733739,-53.989493,0.0],[-37.733818,-53.989429,0.0],[-37.733857,-53.989381,0.0],[-37.733855,-53.989356,0.0],[-37.733857,-53.989098,0.0],[-37.73384,-53.989044,0.0],[-37.733813,-53.989018,0.0],[-37.733764,-53.989004,0.0],[-37.733702,-53.988999,0.0],[-37.733352,-53.988996,0.0],[-37.733296,-53.988987,0.0],[-37.733258,-53.988967,0.0],[-37.733239,-53.988936,0.0],[-37.733229,-53.988878,0.0],[-37.733232,-53.988641,0.0],[-37.733221,-53.98859,0.0],[-37.733214,-53.988457,0.0],[-37.733219,-53.988258,0.0],[-37.733243,-53.988015,0.0],[-37.733276,-53.987844,0.0]]]}},{"type":"Feature","properties":{"rgi_id":"RGI2000-v7.0-G-19-00909","o1region":"19"},"geometry":{"type":"Polygon","coordinates":[[[-37.726963,-53.985791,0.0],[-37.727034,-53.985923,0.0],[-37.727104,-53.986056,0.0],[-37.727321,-53.986277,0.0],[-37.727539,-53.986455,0.0],[-37.727606,-53.986675,0.0],[-37.727007,-53.9868,0.0],[-37.72693,-53.986887,0.0],[-37.727147,-53.987109,0.0],[-37.72744,-53.987244,0.0],[-37.727807,-53.987423,0.0],[-37.728546,-53.987606,0.0],[-37.729067,-53.987612,0.0],[-37.729439,-53.987616,0.0],[-37.729272,-53.987339,0.0],[-37.72953,-53.987229,0.0],[-37.729677,-53.987196,0.0],[-37.730119,-53.987272,0.0],[-37.730648,-53.987014,0.0],[-37.730801,-53.986884,0.0],[-37.730959,-53.986579,0.0],[-37.731042,-53.986317,0.0],[-37.730898,-53.98614,0.0],[-37.730601,-53.986137,0.0],[-37.729931,-53.986129,0.0],[-37.730086,-53.985912,0.0],[-37.730021,-53.985604,0.0],[-37.729724,-53.985601,0.0],[-37.729345,-53.985816,0.0],[-37.729122,-53.985814,0.0],[-37.729051,-53.985681,0.0],[-37.72913,-53.985551,0.0],[-37.729211,-53.985332,0.0],[-37.729219,-53.985069,0.0],[-37.729224,-53.984894,0.0],[-37.729002,-53.984847,0.0],[-37.72878,-53.984801,0.0],[-37.727887,-53.984792,0.0],[-37.727364,-53.984874,0.0],[-37.727135,-53.985047,0.0],[-37.726978,-53.985309,0.0],[-37.726969,-53.985616,0.0],[-37.726963,-53.985791,0.0]]]}},{"type":"Feature","properties":{"rgi_id":"RGI2000-v7.0-G-19-00910","o1region":"19"},"geometry":{"type":"Polygon","coordinates":[[[-37.732752,-53.98779,0.0],[-37.733276,-53.987844,0.0],[-37.733295,-53.987744,0.0],[-37.733384,-53.987467,0.0],[-37.73352,-53.987202,0.0],[-37.733646,-53.987033,0.0],[-37.733789,-53.986879,0.0],[-37.733938,-53.986738,0.0],[-37.734029,-53.986666,0.0],[-37.733942,-53.986413,0.0],[-37.733957,-53.985931,0.0],[-37.734044,-53.985493,0.0],[-37.733752,-53.985314,0.0],[-37.733379,-53.985354,0.0],[-37.732487,-53.985301,0.0],[-37.732123,-53.985034,0.0],[-37.732062,-53.984594,0.0],[-37.731468,-53.984544,0.0],[-37.730636,-53.984974,0.0],[-37.7307,-53.985326,0.0],[-37.73084,-53.985591,0.0],[-37.731203,-53.985902,0.0],[-37.731266,-53.986297,0.0],[-37.731704,-53.986565,0.0],[-37.732217,-53.986834,0.0],[-37.732657,-53.987058,0.0],[-37.73294,-53.987543,0.0],[-37.732752,-53.98779,0.0]]]}}]}
