{"type":"Feature","properties":{"mag":6.2,"place":"18 km N of Puerto Aysén, Chile","time":1177178026310,"updated":1739990962361,"tz":null,"url":"https://earthquake.usgs.gov/earthquakes/eventpage/usp000fa97","felt":13,"cdi":7.6,"mmi":5.629,"alert":null,"status":"reviewed","tsunami":0,"sig":601,"net":"us","code":"p000fa97","ids":",us2007bkba,usp000fa97,gcmtc200704211753a,gcmt20070421175346,iscgem11931187,atlas20070421175346,","sources":",us,us,gcmt,gcmt,iscgem,atlas,","types":",associate,dyfi,focal-mechanism,ground-failure,impact-text,moment-tensor,origin,phase-data,shakemap,trump-shakemap,","nst":316,"dmin":null,"rms":0.98,"gap":36.6,"magType":"mwb","type":"earthquake","title":"M 6.2 - 18 km N of Puerto Aysén, Chile","products":{"associate":[{"indexid":18317182,"indexTime":1611370773712,"id":"urn:usgs-product:admin:associate:us_2007bkba_p000fa97:1427162882638","type":"associate","code":"us_2007bkba_p000fa97","source":"admin","updateTime":1427162882638,"status":"UPDATE","properties":{"eventsource":"us","eventsourcecode":"2007bkba","original-signature":"MC0CFDZkJEkBrFh+7ALZ7P+WWsHQxcP4AhUAhml4rLeY1sArPRuXzPo1UiOSPcg=","original-signature-version":"v1","othereventsource":"us","othereventsourcecode":"p000fa97"},"preferredWeight":1,"contents":[]}],"dyfi":[{"indexid":25957309,"indexTime":1739990969301,"id":"urn:usgs-product:us:dyfi:usp000fa97:1739990962361","type":"dyfi","code":"usp000fa97","source":"us","updateTime":1739990962361,"status":"UPDATE","properties":{"depth":"36.7","eventsource":"us","eventsourcecode":"p000fa97","eventtime":"2007-04-21T17:53:46.000Z","latitude":"-45.243","longitude":"-72.648","magnitude":"6.2","maxmmi":"7.6","num-responses":"13","numResp":"13","original-signature":"MCwCFB7oNKqC9/AmPekbuSj2dUehzmRHAhQBgloeccOmRo1QOKBYoTc7mZkVkg==","original-signature-version":"v1","pdl-client-version":"Version 2.7.10 2021-06-21"},"preferredWeight":158,"contents":{"dyfi_zip.geojson":{"contentType":"application/octet-stream","lastModified":1739990961000,"length":491,"url":"https://earthquake.usgs.gov/product/dyfi/usp000fa97/us/1739990962361/dyfi_zip.geojson","sha256":"67LPPmaC724aHPPLCSuIRAzujEQxFkE6tbxXJm4kDAc="},"dyfi_geo_10km.geojson":{"contentType":"application/octet-stream","lastModified":1739990961000,"length":1076,"url":"https://earthquake.usgs.gov/product/dyfi/usp000fa97/us/1739990962361/dyfi_geo_10km.geojson","sha256":"GTwEGS6dSTAJXN+QosfsIq/H1KMYi2pjJrrpeHZTDxY="},"dyfi_geo_1km.geojson":{"contentType":"application/octet-stream","lastModified":1739990961000,"length":1146,"url":"https://earthquake.usgs.gov/product/dyfi/usp000fa97/us/1739990962361/dyfi_geo_1km.geojson","sha256":"pVZeO4ZEevSS5vD4Czidfe4yP6Xh1OsW4icfQitd1oE="},"usp000fa97_plot_numresp.jpg":{"contentType":"image/jpeg","lastModified":1739990961000,"length":31033,"url":"https://earthquake.usgs.gov/product/dyfi/usp000fa97/us/1739990962361/usp000fa97_plot_numresp.jpg","sha256":"k/f3U8QXm8OfMM93gcSokSc+0q9IzncN606ToqbZTLY="},"usp000fa97_ciim_geo.pdf":{"contentType":"application/pdf","lastModified":1739990961000,"length":498531,"url":"https://earthquake.usgs.gov/product/dyfi/usp000fa97/us/1739990962361/usp000fa97_ciim_geo.pdf","sha256":"l7W0c7ngCeloiRdWkzTfp6vxfLzXRXwe2C6EolrLaG4="},"usp000fa97_ciim.ps":{"contentType":"application/postscript","lastModified":1739990961000,"length":994454,"url":"https://earthquake.usgs.gov/product/dyfi/usp000fa97/us/1739990962361/usp000fa97_ciim.ps","sha256":"2Rzvi1QXTmihqp0fSZxNPcsD2az2oS4J8Fl/dBYOJe8="},"cdi_geo.txt":{"contentType":"text/plain","lastModified":1739990961000,"length":430,"url":"https://earthquake.usgs.gov/product/dyfi/usp000fa97/us/1739990962361/cdi_geo.txt","sha256":"bCRc/VlpnkpQi+jQCo0KaIu0Xs5rPErZas0TmFsfpUk="},"contents.xml":{"contentType":"application/xml","lastModified":1739990961000,"length":4224,"url":"https://earthquake.usgs.gov/product/dyfi/usp000fa97/us/1739990962361/contents.xml","sha256":"/7qcWbN9tk+1sSyn2mTQsUIWY4gmxu7prCMcnbfv5Ak="},"cdi_geo_1km.txt":{"contentType":"text/plain","lastModified":1739990961000,"length":495,"url":"https://earthquake.usgs.gov/product/dyfi/usp000fa97/us/1739990962361/cdi_geo_1km.txt","sha256":"2UHbJpnmjM9G6b21JgGnLk72AAAexPdue/buspRXXDw="},"dyfi_plot_atten.json":{"contentType":"application/json","lastModified":1739990961000,"length":3158,"url":"https://earthquake.usgs.gov/product/dyfi/usp000fa97/us/1739990962361/dyfi_plot_atten.json","sha256":"Nh2+O+EJ20RFq/v6Q5KjVPqRYhnwI+nJ0+Jz2MzVcwg="},"usp000fa97_ciim_geo_imap.html":{"contentType":"text/html","lastModified":1739990961000,"length":564,"url":"https://earthquake.usgs.gov/product/dyfi/usp000fa97/us/1739990962361/usp000fa97_ciim_geo_imap.html","sha256":"gqepbSa1KweRmfvP/WjgAuUgZUSt24YFmQWCgQrSG/A="},"cdi_geo.xml":{"contentType":"application/xml","lastModified":1739990961000,"length":1150,"url":"https://earthquake.usgs.gov/product/dyfi/usp000fa97/us/1739990962361/cdi_geo.xml","sha256":"rcdGdogBjvsiksTxXH03vbQ2xA3LJP10wQ+hJqh54EQ="},"cdi_zip.xml":{"contentType":"application/xml","lastModified":1739990961000,"length":688,"url":"https://earthquake.usgs.gov/product/dyfi/usp000fa97/us/1739990962361/cdi_zip.xml","sha256":"P8iAfbWIFJFrmJp1xgNdMYoJnfAHXXjRudPEK1rU8Lo="},"dyfi_geo.kmz":{"contentType":"application/vnd.google-earth.kmz","lastModified":1739990961000,"length":947,"url":"https://earthquake.usgs.gov/product/dyfi/usp000fa97/us/1739990962361/dyfi_geo.kmz","sha256":"Hb2GxOWkYgRYIyGPVlDcKOdOFdEgQyHMjDSzleNzuw0="},"usp000fa97_ciim_imap.html":{"contentType":"text/html","lastModified":1739990961000,"length":225,"url":"https://earthquake.usgs.gov/product/dyfi/usp000fa97/us/1739990962361/usp000fa97_ciim_imap.html","sha256":"hwfIEF42r8+P1gjBgDqKJMc1po3EHQ7ofrbKpDFxkz8="},"dyfi_zip.kmz":{"contentType":"application/vnd.google-earth.kmz","lastModified":1739990961000,"length":942,"url":"https://earthquake.usgs.gov/product/dyfi/usp000fa97/us/1739990962361/dyfi_zip.kmz","sha256":"NQoQRCIuxSRhM6/40nocnrrabYVq7NmWXTZ4I9a/0P8="},"cdi_zip.txt":{"contentType":"text/plain","lastModified":1739990961000,"length":430,"url":"https://earthquake.usgs.gov/product/dyfi/usp000fa97/us/1739990962361/cdi_zip.txt","sha256":"FEOcO8hJ85kI6KVv2dscpgj2d3sNQmRIkK8UbyHJ3Y4="},"event_data.xml":{"contentType":"application/xml","lastModified":1739990961000,"length":3031,"url":"https://earthquake.usgs.gov/product/dyfi/usp000fa97/us/1739990962361/event_data.xml","sha256":"okd1BbCElGtXPwmoqcOmJUZViBd1fouRu3rWSOKcgHg="},"usp000fa97_plot_atten.txt":{"contentType":"text/plain","lastModified":1739990961000,"length":2785,"url":"https://earthquake.usgs.gov/product/dyfi/usp000fa97/us/1739990962361/usp000fa97_plot_atten.txt","sha256":"O8MSAe0wCtQow1o1+9b83C4Jwoa7r3PyBVOWuOk2sPY="},"usp000fa97_plot_atten.ps":{"contentType":"application/postscript","lastModified":1739990961000,"length":51082,"url":"https://earthquake.usgs.gov/product/dyfi/usp000fa97/us/1739990962361/usp000fa97_plot_atten.ps","sha256":"rpz1bc8fQJ6Z05tYShWgDpbMJ90O7wS1zKgMsxRZUPM="},"usp000fa97_ciim.jpg":{"contentType":"image/jpeg","lastModified":1739990961000,"length":130234,"url":"https://earthquake.usgs.gov/product/dyfi/usp000fa97/us/1739990962361/usp000fa97_ciim.jpg","sha256":"nzNlBn7h8rnW4Kq53HhrH83zLN9NLNpDKEFfdbUoKng="},"dyfi_plot_numresp.json":{"contentType":"application/json","lastModified":1739990961000,"length":415,"url":"https://earthquake.usgs.gov/product/dyfi/usp000fa97/us/1739990962361/dyfi_plot_numresp.json","sha256":"uZbQW0GiHyV/z5VjKsoYrvqJSEnEYSmeXAaY0lv9F/4="},"usp000fa97_plot_numresp.ps":{"contentType":"application/postscript","lastModified":1739990961000,"length":29986,"url":"https://earthquake.usgs.gov/product/dyfi/usp000fa97/us/1739990962361/usp000fa97_plot_numresp.ps","sha256":"kcxfRlWUWKh1oPaigypvCSgJWX4BiZuCdEB4NtH6uSE="},"usp000fa97_ciim_geo.jpg":{"contentType":"image/jpeg","lastModified":1739990961000,"length":128334,"url":"https://earthquake.usgs.gov/product/dyfi/usp000fa97/us/1739990962361/usp000fa97_ciim_geo.jpg","sha256":"5OZomJj2WTJAGTorkAFKj90EbmtHClJ17Vni2Rcuvco="},"dyfi.kmz":{"contentType":"application/vnd.google-earth.kmz","lastModified":1739990961000,"length":1161,"url":"https://earthquake.usgs.gov/product/dyfi/usp000fa97/us/1739990962361/dyfi.kmz","sha256":"RgBOgR3Kav//5rNCuud+2jkEP8fctKn8uhxPtq+40uk="},"usp000fa97_plot_atten.jpg":{"contentType":"image/jpeg","lastModified":1739990961000,"length":47535,"url":"https://earthquake.usgs.gov/product/dyfi/usp000fa97/us/1739990962361/usp000fa97_plot_atten.jpg","sha256":"p36Wf/eoYIEZ+jCwVN4+C04UIDX70+x1v4YH9pce5nE="},"usp000fa97_ciim.pdf":{"contentType":"application/pdf","lastModified":1739990961000,"length":499077,"url":"https://earthquake.usgs.gov/product/dyfi/usp000fa97/us/1739990962361/usp000fa97_ciim.pdf","sha256":"SY71EZDcuNSUbwsESzFAC6jcgcf1VVh4gLdOz2MCtuc="},"usp000fa97_plot_numresp.txt":{"contentType":"text/plain","lastModified":1739990961000,"length":235,"url":"https://earthquake.usgs.gov/product/dyfi/usp000fa97/us/1739990962361/usp000fa97_plot_numresp.txt","sha256":"/zdPQm9zsrp7jquQbRVSXtzcWb+gi+vtAd0wRFpT/+8="},"usp000fa97_ciim_geo.ps":{"contentType":"application/postscript","lastModified":1739990961000,"length":988716,"url":"https://earthquake.usgs.gov/product/dyfi/usp000fa97/us/1739990962361/usp000fa97_ciim_geo.ps","sha256":"4GCdqrtAgEqUqf11/7l0uavV9e36Suzc4SBOAymItlM="}}}],"focal-mechanism":[{"indexid":9617125,"indexTime":1609384220041,"id":"urn:usgs-product:us:focal-mechanism:gcmtC200704211753A:1478741945201","type":"focal-mechanism","code":"gcmtC200704211753A","source":"us","updateTime":1478741945201,"status":"UPDATE","properties":{"evaluation-status":"reviewed","eventParametersPublicID":"quakeml:us.anss.org/eventParameters/C200704211753A","eventsource":"gcmt","eventsourcecode":"c200704211753a","n-axis-azimuth":"145","n-axis-plunge":"85","nodal-plane-1-dip":"86","nodal-plane-1-rake":"2","nodal-plane-1-strike":"84","nodal-plane-2-dip":"88","nodal-plane-2-rake":"176","nodal-plane-2-strike":"354","original-signature":"MCwCFDZglLq02+EjCh1m3Z6Zuvp4Pj1kAhRqy894SRqAeorUs8b+W3qp1NMZBQ==","original-signature-version":"v1","p-axis-azimuth":"39","p-axis-plunge":"1","quakeml-publicid":"quakeml:us.anss.org/focalmechanism/C200704211753A/Mwc","review-status":"reviewed","t-axis-azimuth":"309","t-axis-plunge":"5"},"preferredWeight":3,"contents":{"contents.xml":{"contentType":"application/xml","lastModified":1478741945000,"length":195,"url":"https://earthquake.usgs.gov/product/focal-mechanism/gcmtC200704211753A/us/1478741945201/contents.xml","sha256":"ABhLiaqdYWmIak24eD/csBAWouBShhatD9bUzLNEZFk="},"quakeml.xml":{"contentType":"application/xml","lastModified":1478741945000,"length":2260,"url":"https://earthquake.usgs.gov/product/focal-mechanism/gcmtC200704211753A/us/1478741945201/quakeml.xml","sha256":"LZiJm2OazUvKB3fkF9tx8JUU79R+ASjNerDhKx5KWBI="}}}],"ground-failure":[{"indexid":14140983,"indexTime":1610563108808,"id":"urn:usgs-product:us:ground-failure:p000fa97:1609814862433","type":"ground-failure","code":"p000fa97","source":"us","updateTime":1609814862433,"status":"UPDATE","properties":{"depth":"36.7","eventsource":"us","eventsourcecode":"p000fa97","eventtime":"2007-04-21T17:53:46.000Z","landslide-alert":"green","landslide-hazard-1std":"None","landslide-hazard-2std":"None","landslide-hazard-alert-color":"green","landslide-hazard-alert-parameter":"Aggregate Hazard","landslide-hazard-alert-value":"0.02","landslide-hazard-std":"None","landslide-maximum-latitude":"-43.05104166666666","landslide-maximum-longitude":"-69.73229166667214","landslide-minimum-latitude":"-47.31770833332945","landslide-minimum-longitude":"-75.74895833333333","landslide-overlay":"jessee_2018.png","landslide-population-1std":"None","landslide-population-2std":"None","landslide-population-alert-color":"green","landslide-population-alert-parameter":"Population exposure","landslide-population-alert-value":"0","landslide-population-std":"None","latitude":"-45.243","liquefaction-alert":"green","liquefaction-hazard-1std":"None","liquefaction-hazard-2std":"None","liquefaction-hazard-alert-color":"green","liquefaction-hazard-alert-parameter":"Aggregate Hazard","liquefaction-hazard-alert-value":"5.5","liquefaction-hazard-std":"None","liquefaction-maximum-latitude":"-43.04674285341052","liquefaction-maximum-longitude":"-69.73185798733137","liquefaction-minimum-latitude":"-47.31315553670747","liquefaction-minimum-longitude":"-75.74838537607566","liquefaction-overlay":"zhu_2017_general.png","liquefaction-population-1std":"None","liquefaction-population-2std":"None","liquefaction-population-alert-color":"green","liquefaction-population-alert-parameter":"Population exposure","liquefaction-population-alert-value":"700","liquefaction-population-std":"None","longitude":"-72.648","magnitude":"6.2","maximum-latitude":"-45.079166666666666","maximum-longitude":"-72.51041666666667","minimum-latitude":"-45.41535184799354","minimum-longitude":"-72.95053347749776","original-signature":"MCwCFDpy7MD3pL8Y4hEQqj35AATSPZS6AhQbTOFxIsddcdvrpUj687kuRCcblw==","original-signature-version":"v1","pdl-client-version":"Version 2.3.1 2020-04-13","rupture-warning":"False","shakemap-version":"1","version":"1"},"preferredWeight":158,"contents":{"godt_2008_model.tif":{"contentType":"image/tiff","lastModified":1609814862000,"length":26867,"url":"https://earthquake.usgs.gov/product/ground-failure/p000fa97/us/1609814862433/godt_2008_model.tif","sha256":"s1dHk3RnWfEsBb7GwAUjRIasDb/5TS4RZ6ZVorwYE7k="},"jessee_2018.hdf5":{"contentType":"application/octet-stream","lastModified":1609814862000,"length":9601992,"url":"https://earthquake.usgs.gov/product/ground-failure/p000fa97/us/1609814862433/jessee_2018.hdf5","sha256":"aLwfqxtJsWcJZXG7TqeWA55LPsnXqztJZLLDoDeVE28="},"zhu_2017_general.png":{"contentType":"image/png","lastModified":1609814862000,"length":6992,"url":"https://earthquake.usgs.gov/product/ground-failure/p000fa97/us/1609814862433/zhu_2017_general.png","sha256":"Jvmm8V6qMg1soZws2C3Va9usIHpRRnjlRIzYKbsPWY4="},"contents.xml":{"contentType":"application/xml","lastModified":1609814862000,"length":1826,"url":"https://earthquake.usgs.gov/product/ground-failure/p000fa97/us/1609814862433/contents.xml","sha256":"VwRcLExBRNSCWjszIGg6VkQY8++XGlsc9NHMj/PqJQg="},"nowicki_2014_global_model.tif":{"contentType":"image/tiff","lastModified":1609814862000,"length":3773713,"url":"https://earthquake.usgs.gov/product/ground-failure/p000fa97/us/1609814862433/nowicki_2014_global_model.tif","sha256":"O7tc5ruzi7yVL5FfHCm4GviDB9abTPwB6H0BvVaVJT0="},"godt_2008.png":{"contentType":"image/png","lastModified":1609814862000,"length":1540,"url":"https://earthquake.usgs.gov/product/ground-failure/p000fa97/us/1609814862433/godt_2008.png","sha256":"nJSMTaTTXTRVXsd+f1cK5k8XiHyDCpvWT5m51wuJlQ8="},"nowicki_2014_global.hdf5":{"contentType":"application/octet-stream","lastModified":1609814862000,"length":3819301,"url":"https://earthquake.usgs.gov/product/ground-failure/p000fa97/us/1609814862433/nowicki_2014_global.hdf5","sha256":"U5gh7nKudjbrqGGhImrjyNbCpxe6JvJtL2lL32l8etI="},"zhu_2015_model.tif":{"contentType":"image/tiff","lastModified":1609814862000,"length":3939205,"url":"https://earthquake.usgs.gov/product/ground-failure/p000fa97/us/1609814862433/zhu_2015_model.tif","sha256":"X8B1jhuwfPJe1UKE8ZN4e8orsbFHaPEARORL28sdjOI="},"zhu_2015.png":{"contentType":"image/png","lastModified":1609814862000,"length":8484,"url":"https://earthquake.usgs.gov/product/ground-failure/p000fa97/us/1609814862433/zhu_2015.png","sha256":"WJGHar3qrv9TWHHLTBpsJhvfPmDNDE/B80QWo6C+p+8="},"info.json":{"contentType":"application/json","lastModified":1609814862000,"length":5760,"url":"https://earthquake.usgs.gov/product/ground-failure/p000fa97/us/1609814862433/info.json","sha256":"SqddSW/xnrWs+iPKB40UgJG8xPinY08hlt7ikYjvuCE="},"zhu_2015_model.kmz":{"contentType":"application/vnd.google-earth.kmz","lastModified":1609814862000,"length":33118,"url":"https://earthquake.usgs.gov/product/ground-failure/p000fa97/us/1609814862433/zhu_2015_model.kmz","sha256":"UHExt0Rm1Vm7rVtBsBvznnYTVJHDxWjdpUriiXZIM08="},"nowicki_2014_global.png":{"contentType":"image/png","lastModified":1609814862000,"length":411386,"url":"https://earthquake.usgs.gov/product/ground-failure/p000fa97/us/1609814862433/nowicki_2014_global.png","sha256":"VNGofMyAnnJOL21FdEhzxfUztg0zZ7RaptL/kqRsqWA="},"zhu_2017_general_model.kmz":{"contentType":"application/vnd.google-earth.kmz","lastModified":1609814862000,"length":32888,"url":"https://earthquake.usgs.gov/product/ground-failure/p000fa97/us/1609814862433/zhu_2017_general_model.kmz","sha256":"7RJ4/+Uzj+E+DRPctk9tSdsk2UBso3AhjwLiPCLIFQI="},"godt_2008_modelmax.tif":{"contentType":"image/tiff","lastModified":1609814862000,"length":28104,"url":"https://earthquake.usgs.gov/product/ground-failure/p000fa97/us/1609814862433/godt_2008_modelmax.tif","sha256":"Xy08bEGPRMfe6RuSE6VezskQb8h1TDjey3NX9Vx2F20="},"jessee_2018.png":{"contentType":"image/png","lastModified":1609814862000,"length":43059,"url":"https://earthquake.usgs.gov/product/ground-failure/p000fa97/us/1609814862433/jessee_2018.png","sha256":"P+nDmOYE/98jhnvDDn3xQdfB9on1HYltkNqKFuiQLh4="},"zhu_2015.hdf5":{"contentType":"application/octet-stream","lastModified":1609814862000,"length":4011817,"url":"https://earthquake.usgs.gov/product/ground-failure/p000fa97/us/1609814862433/zhu_2015.hdf5","sha256":"o6Gfy1vK5BA04SB7ed2P5umDYPcJ9bHKTVvLvbxByR4="},"godt_2008_modelmin.tif":{"contentType":"image/tiff","lastModified":1609814862000,"length":26867,"url":"https://earthquake.usgs.gov/product/ground-failure/p000fa97/us/1609814862433/godt_2008_modelmin.tif","sha256":"s1dHk3RnWfEsBb7GwAUjRIasDb/5TS4RZ6ZVorwYE7k="},"zhu_2017_general_model.tif":{"contentType":"image/tiff","lastModified":1609814862000,"length":254920,"url":"https://earthquake.usgs.gov/product/ground-failure/p000fa97/us/1609814862433/zhu_2017_general_model.tif","sha256":"+QxuiTSS772VH/GJd3LQ5oo6lRo/aFNBdLAmHcbn9rQ="},"godt_2008_modelmax.kmz":{"contentType":"application/vnd.google-earth.kmz","lastModified":1609814862000,"length":27138,"url":"https://earthquake.usgs.gov/product/ground-failure/p000fa97/us/1609814862433/godt_2008_modelmax.kmz","sha256":"YdQvEG54+aj9iDl5mD3ooV8SJyvX0eCpfyFVxVQxEtE="},"nowicki_2014_global_model.kmz":{"contentType":"application/vnd.google-earth.kmz","lastModified":1609814862000,"length":44953,"url":"https://earthquake.usgs.gov/product/ground-failure/p000fa97/us/1609814862433/nowicki_2014_global_model.kmz","sha256":"Rj5Bu4TBCwjIIrRh/mY2Xjw2GTq3NzOICDK8Ybn0vY0="},"zhu_2017_general.hdf5":{"contentType":"application/octet-stream","lastModified":1609814862000,"length":226361,"url":"https://earthquake.usgs.gov/product/ground-failure/p000fa97/us/1609814862433/zhu_2017_general.hdf5","sha256":"i53MQL7QDSlzX7hMv9IQh1lEUTt0qcBJI0fyZ0vvQ5I="},"godt_2008.hdf5":{"contentType":"application/octet-stream","lastModified":1609814862000,"length":84933,"url":"https://earthquake.usgs.gov/product/ground-failure/p000fa97/us/1609814862433/godt_2008.hdf5","sha256":"z+5xeNrkOHpQ90Lfw3Il2oR+l94HUACBdaHpZSJgzcI="},"jessee_2018_model.tif":{"contentType":"image/tiff","lastModified":1609814862000,"length":9994616,"url":"https://earthquake.usgs.gov/product/ground-failure/p000fa97/us/1609814862433/jessee_2018_model.tif","sha256":"dWiJPDxfw7fIWI9uBA0Ys0aJqMVeJlX41Jgpy7ZPef8="},"jessee_2018_model.kmz":{"contentType":"application/vnd.google-earth.kmz","lastModified":1609814862000,"length":55398,"url":"https://earthquake.usgs.gov/product/ground-failure/p000fa97/us/1609814862433/jessee_2018_model.kmz","sha256":"Wj5DCg8sC5K5fRySHD1fP+tRuLTQpY2KfG3BLQ4ZXLA="}}}],"impact-text":[{"indexid":13021740,"indexTime":1610440997185,"id":"urn:usgs-product:us:impact-text:usp000fa97:1415323935017","type":"impact-text","code":"usp000fa97","source":"us","updateTime":1415323935017,"status":"UPDATE","properties":{"eventParametersPublicID":"quakeml:US.anss.org/eventParameters/pde20070421175346310_36/1415323935017","eventsource":"us","eventsourcecode":"p000fa97"},"preferredWeight":8,"contents":{"":{"contentType":"text/plain","lastModified":1415323935000,"length":240,"bytes":"At least 3 people killed and 7 missing due to a 7.6 meter tsunami caused by rockslides falling into a narrow fjord near Puerto Aisen. Felt (VII) at Puerto Aisen and Puerto Chacabuco, (VI) at Coihaique, (V) at Balmaceda and (IV) at Cochrane.","sha256":"2tpb5Ka38Bejtj+4yAg2PP4hW7hHiDH/t9NCIvc2elg="}}}],"moment-tensor":[{"indexid":9343299,"indexTime":1609360554299,"id":"urn:usgs-product:us:moment-tensor:pde20070421175346310_36_C_GCMT:1415323935017","type":"moment-tensor","code":"pde20070421175346310_36_C_GCMT","source":"us","updateTime":1415323935017,"status":"UPDATE","properties":{"beachball-source":"LD","beachball-type":"Mwc","derived-depth":"12","derived-eventtime":"2007-04-21T17:53:48.300Z","derived-latitude":"-45.48","derived-longitude":"-72.95","evaluation-status":"reviewed","eventParametersPublicID":"quakeml:US.anss.org/eventParameters/pde20070421175346310_36/1415323935017","eventsource":"us","eventsourcecode":"p000fa97","n-axis-azimuth":"145","n-axis-length":"-940000000000000000","n-axis-plunge":"85","nodal-plane-1-dip":"86","nodal-plane-1-rake":"2","nodal-plane-1-strike":"84","nodal-plane-2-dip":"88","nodal-plane-2-rake":"176","nodal-plane-2-strike":"354","p-axis-azimuth":"39","p-axis-length":"-2380000000000000000","p-axis-plunge":"1","quakeml-publicid":"quakeml:us.anss.org/focalMechanism/pde20070421175346310_36/C/GCMT","review-status":"reviewed","scalar-moment":"2800000000000000000","sourcetime-duration":"6.4","sourcetime-type":"UNKNOWN","t-axis-azimuth":"309","t-axis-length":"3310000000000000000","t-axis-plunge":"5","tensor-mpp":"1030000000000000000","tensor-mrp":"280000000000000000","tensor-mrr":"-910000000000000000","tensor-mrt":"190000000000000000","tensor-mtp":"2770000000000000000","tensor-mtt":"-120000000000000000"},"preferredWeight":10,"contents":{"contents.xml":{"contentType":"application/xml","lastModified":1417528248000,"length":195,"url":"https://earthquake.usgs.gov/product/moment-tensor/pde20070421175346310_36_C_GCMT/us/1415323935017/contents.xml","sha256":"ABhLiaqdYWmIak24eD/csBAWouBShhatD9bUzLNEZFk="},"quakeml.xml":{"contentType":"application/xml","lastModified":1415323935000,"length":3456,"url":"https://earthquake.usgs.gov/product/moment-tensor/pde20070421175346310_36_C_GCMT/us/1415323935017/quakeml.xml","sha256":"TSdhby+wfxxvIdmroINdMbE+g0kzlzXOlXwAjc9+P2E="}}},{"indexid":12059171,"indexTime":1610345539657,"id":"urn:usgs-product:us:moment-tensor:pde20070421175346310_36_M_US:1415323935017","type":"moment-tensor","code":"pde20070421175346310_36_M_US","source":"us","updateTime":1415323935017,"status":"UPDATE","properties":{"beachball-source":"US","beachball-type":"Mwb","derived-depth":"13","evaluation-status":"reviewed","eventParametersPublicID":"quakeml:US.anss.org/eventParameters/pde20070421175346310_36/1415323935017","eventsource":"us","eventsourcecode":"p000fa97","n-axis-azimuth":"203","n-axis-length":"-250000000000000000","n-axis-plunge":"87","nodal-plane-1-dip":"87","nodal-plane-1-rake":"-1","nodal-plane-1-strike":"93","nodal-plane-2-dip":"89","nodal-plane-2-rake":"-177","nodal-plane-2-strike":"183","p-axis-azimuth":"48","p-axis-length":"-2370000000000000000","p-axis-plunge":"3","quakeml-publicid":"quakeml:us.anss.org/focalMechanism/pde20070421175346310_36/M/US","review-status":"reviewed","scalar-moment":"2500000000000000000","t-axis-azimuth":"318","t-axis-length":"2620000000000000000","t-axis-plunge":"1","tensor-mpp":"-150000000000000000","tensor-mrp":"130000000000000000","tensor-mrr":"-250000000000000000","tensor-mrt":"-20000000000000000","tensor-mtp":"2480000000000000000","tensor-mtt":"400000000000000000"},"preferredWeight":9,"contents":{"contents.xml":{"contentType":"application/xml","lastModified":1417528248000,"length":195,"url":"https://earthquake.usgs.gov/product/moment-tensor/pde20070421175346310_36_M_US/us/1415323935017/contents.xml","sha256":"ABhLiaqdYWmIak24eD/csBAWouBShhatD9bUzLNEZFk="},"quakeml.xml":{"contentType":"application/xml","lastModified":1415323935000,"length":2526,"url":"https://earthquake.usgs.gov/product/moment-tensor/pde20070421175346310_36_M_US/us/1415323935017/quakeml.xml","sha256":"FXj63LsCK40AVf2VyRNny5KWdeGGD/Lxonvf4ysb/j8="}}}],"origin":[{"indexid":14830381,"indexTime":1610861791414,"id":"urn:usgs-product:us:origin:usp000fa97:1415323935017","type":"origin","code":"usp000fa97","source":"us","updateTime":1415323935017,"status":"UPDATE","properties":{"azimuthal-gap":"36.6","depth":"36.7","evaluation-status":"reviewed","event-type":"earthquake","eventParametersPublicID":"quakeml:US.anss.org/eventParameters/pde20070421175346310_36/1415323935017","eventsource":"us","eventsourcecode":"p000fa97","eventtime":"2007-04-21T17:53:46.310Z","latitude":"-45.243","longitude":"-72.648","magnitude":"6.2","magnitude-source":"US","magnitude-type":"mwb","num-stations-used":"316","origin-source":"US","pdl-client-version":"Version 2.6.0 2020-11-20","quakeml-publicid":"quakeml:US.anss.org/event/pde20070421175346310_36","review-status":"reviewed","standard-error":"0.98","title":"18 km N of Puerto Aysén, Chile","vertical-error":"6.5"},"preferredWeight":158,"contents":{"contents.xml":{"contentType":"application/xml","lastModified":1417528247000,"length":195,"url":"https://earthquake.usgs.gov/product/origin/usp000fa97/us/1415323935017/contents.xml","sha256":"ABhLiaqdYWmIak24eD/csBAWouBShhatD9bUzLNEZFk="},"quakeml.xml":{"contentType":"application/xml","lastModified":1415323935000,"length":2489,"url":"https://earthquake.usgs.gov/product/origin/usp000fa97/us/1415323935017/quakeml.xml","sha256":"0kNlkY1jVNa3zRysT5tWy7deYxS0twQXcAZwP7/rMPA="}}},{"indexid":20901578,"indexTime":1651522320710,"id":"urn:usgs-product:us:origin:iscgem11931187:1651522318351","type":"origin","code":"iscgem11931187","source":"us","updateTime":1651522318351,"status":"UPDATE","properties":{"depth":"25.0","depth-type":"from location","evaluation-status":"final","event-type":"earthquake","eventParametersPublicID":"quakeml:us.anss.org/eventParameters/11931187","eventsource":"iscgem","eventsourcecode":"11931187","eventtime":"2007-04-21T17:53:44.700Z","latitude":"-45.271","longitude":"-72.655","magnitude":"6.24","magnitude-error":"0.10","magnitude-source":"iscgem","magnitude-type":"mw","origin-source":"iscgem","pdl-client-version":"Version 2.7.9 2021-02-10","quakeml-magnitude-publicid":"quakeml:us.anss.org/magnitude/iscgem11931187/Mw","quakeml-origin-publicid":"quakeml:us.anss.org/origin/iscgem11931187","quakeml-publicid":"quakeml:us.anss.org/event/iscgem11931187","review-status":"reviewed","title":"14 km N of Puerto Aysén, Chile","vertical-error":"5.0"},"preferredWeight":103,"contents":{"contents.xml":{"contentType":"application/xml","lastModified":1651522318000,"length":195,"url":"https://earthquake.usgs.gov/product/origin/iscgem11931187/us/1651522318351/contents.xml","sha256":"ABhLiaqdYWmIak24eD/csBAWouBShhatD9bUzLNEZFk="},"quakeml.xml":{"contentType":"application/xml","lastModified":1651522318000,"length":2166,"url":"https://earthquake.usgs.gov/product/origin/iscgem11931187/us/1651522318351/quakeml.xml","sha256":"LR5Zxgt8y2okIBWZCYuo+hgZ98lPWUdn/fW5/ZiR9Pc="}}},{"indexid":16920861,"indexTime":1611037418518,"id":"urn:usgs-product:us:origin:gcmtC200704211753A:1478741945201","type":"origin","code":"gcmtC200704211753A","source":"us","updateTime":1478741945201,"status":"UPDATE","properties":{"depth":"36.7","evaluation-status":"preliminary","event-type":"earthquake","eventParametersPublicID":"quakeml:us.anss.org/eventParameters/C200704211753A","eventsource":"gcmt","eventsourcecode":"c200704211753a","eventtime":"2007-04-21T17:53:46.000Z","latitude":"-45.2400","longitude":"-72.6500","magnitude":"6.20","magnitude-type":"mwc","original-signature":"MC0CFE45siWnzt0HJqoB5g+czIULbBfSAhUAh4BWmxX/SESpJMQSbxNd42j2GOQ=","original-signature-version":"v1","pdl-client-version":"Version 2.6.0 2020-11-20","quakeml-magnitude-publicid":"quakeml:us.anss.org/magnitude/gcmt/Mwc","quakeml-origin-publicid":"quakeml:us.anss.org/origin/PDEW20070421175346","quakeml-publicid":"quakeml:gcmt.anss.org/event/C200704211753A","review-status":"automatic","title":"18 km N of Puerto Aysén, Chile"},"preferredWeight":103,"contents":{"contents.xml":{"contentType":"application/xml","lastModified":1478741945000,"length":195,"url":"https://earthquake.usgs.gov/product/origin/gcmtC200704211753A/us/1478741945201/contents.xml","sha256":"ABhLiaqdYWmIak24eD/csBAWouBShhatD9bUzLNEZFk="},"quakeml.xml":{"contentType":"application/xml","lastModified":1478741945000,"length":2260,"url":"https://earthquake.usgs.gov/product/origin/gcmtC200704211753A/us/1478741945201/quakeml.xml","sha256":"LZiJm2OazUvKB3fkF9tx8JUU79R+ASjNerDhKx5KWBI="}}}],"phase-data":[{"indexid":4322460,"indexTime":1608933446361,"id":"urn:usgs-product:us:phase-data:usp000fa97:1415323935017","type":"phase-data","code":"usp000fa97","source":"us","updateTime":1415323935017,"status":"UPDATE","properties":{"azimuthal-gap":"36.6","depth":"36.7","evaluation-status":"reviewed","event-type":"earthquake","eventParametersPublicID":"quakeml:US.anss.org/eventParameters/pde20070421175346310_36/1415323935017","eventsource":"us","eventsourcecode":"p000fa97","eventtime":"2007-04-21T17:53:46.310Z","latitude":"-45.243","longitude":"-72.648","magnitude":"6.2","magnitude-source":"US","magnitude-type":"mwb","num-stations-used":"316","origin-source":"US","quakeml-publicid":"quakeml:US.anss.org/event/pde20070421175346310_36","review-status":"reviewed","standard-error":"0.98","vertical-error":"6.5"},"preferredWeight":158,"contents":{"contents.xml":{"contentType":"application/xml","lastModified":1417528247000,"length":195,"url":"https://earthquake.usgs.gov/product/phase-data/usp000fa97/us/1415323935017/contents.xml","sha256":"ABhLiaqdYWmIak24eD/csBAWouBShhatD9bUzLNEZFk="},"quakeml.xml":{"contentType":"application/xml","lastModified":1415323935000,"length":564344,"url":"https://earthquake.usgs.gov/product/phase-data/usp000fa97/us/1415323935017/quakeml.xml","sha256":"9ngYxfCIr3J6rkoxWQEAVHlpOZ2ODe0PR9s4FjHLlgc="}}}],"shakemap":[{"indexid":14131372,"indexTime":1610558225867,"id":"urn:usgs-product:atlas:shakemap:usp000fa97:1600464674887","type":"shakemap","code":"usp000fa97","source":"atlas","updateTime":1600464674887,"status":"UPDATE","properties":{"depth":"36.7","event-description":"ShakeMap Atlas v4","event-type":"ACTUAL","eventsource":"us","eventsourcecode":"p000fa97","eventtime":"2007-04-21T17:53:46.000Z","gmice":"WGRW12","latitude":"-45.2430","longitude":"-72.6480","magnitude":"6.2","map-status":"automatic","maximum-latitude":"-43.05","maximum-longitude":"-69.733","maxmmi":"5.629","maxmmi-grid":"5.629","maxpga":"0.122","maxpga-grid":"0.122","maxpgv":"2.507","maxpgv-grid":"2.507","maxpsa03":"0.345","maxpsa03-grid":"0.345","maxpsa10":"0.144","maxpsa10-grid":"0.144","maxpsa30":"0.029","maxpsa30-grid":"0.029","minimum-latitude":"-47.317","minimum-longitude":"-75.75","original-signature":"MCwCFA95ONwGoldopcNjUmpmyovQdl2yAhRzdNE4rcaspjA/jAxCTIfS84hswg==","original-signature-version":"v1","pdl-client-version":"Version 2.4.0 2020-05-11","process-timestamp":"2020-06-06T02:27:01Z","review-status":"automatic","shakemap-code-version":"4.0.2+335.gcbad862.dirty","version":"1"},"preferredWeight":100000000,"contents":{"download/coverage_psa3p0_high_res.covjson":{"contentType":"application/octet-stream","lastModified":1593420329000,"length":2189616,"url":"https://earthquake.usgs.gov/product/shakemap/usp000fa97/atlas/1600464674887/download/coverage_psa3p0_high_res.covjson","sha256":"TPNSnomcMcm3PjaPF7XaP8X8lvhl2cqQfyU5UNgXXzY="},"download/coverage_psa3p0_medium_res.covjson":{"contentType":"application/octet-stream","lastModified":1593420329000,"length":549806,"url":"https://earthquake.usgs.gov/product/shakemap/usp000fa97/atlas/1600464674887/download/coverage_psa3p0_medium_res.covjson","sha256":"03bJrhMWc1TZ3S3EOKSbN5s97lS9AXkRg2VlU/YCCpk="},"download/coverage_pgv_high_res.covjson":{"contentType":"application/octet-stream","lastModified":1593420328000,"length":2080570,"url":"https://earthquake.usgs.gov/product/shakemap/usp000fa97/atlas/1600464674887/download/coverage_pgv_high_res.covjson","sha256":"UoaGsvxIr3Ti/y5AaFTga+gn/FaVtiYjrFqSYq9x6fY="},"download/mmi_legend.png":{"contentType":"image/png","lastModified":1593420323000,"length":48861,"url":"https://earthquake.usgs.gov/product/shakemap/usp000fa97/atlas/1600464674887/download/mmi_legend.png","sha256":"tHiFKT3kdpeRJApS/DTlKpN2zyClGKSCa3KChtR/9A8="},"download/rupture.json":{"contentType":"application/json","lastModified":1593420330000,"length":505,"url":"https://earthquake.usgs.gov/product/shakemap/usp000fa97/atlas/1600464674887/download/rupture.json","sha256":"rYHFZQCxszlNZwcsZ95VYO/CWtm0gg97VYZ6XzU1loo="},"download/info.json":{"contentType":"application/json","lastModified":1593420327000,"length":5296,"url":"https://earthquake.usgs.gov/product/shakemap/usp000fa97/atlas/1600464674887/download/info.json","sha256":"S82itChs+h3/ouw2KNHZeQ9H8Cck3Gj+19/A6C/d9cM="},"download/coverage_psa0p3_high_res.covjson":{"contentType":"application/octet-stream","lastModified":1593420329000,"length":2188939,"url":"https://earthquake.usgs.gov/product/shakemap/usp000fa97/atlas/1600464674887/download/coverage_psa0p3_high_res.covjson","sha256":"lz1yvQy2YIq0PnYSoarai6GXq76pi5kfvtQ3HSv3xYI="},"download/psa3p0.jpg":{"contentType":"image/jpeg","lastModified":1593420324000,"length":395673,"url":"https://earthquake.usgs.gov/product/shakemap/usp000fa97/atlas/1600464674887/download/psa3p0.jpg","sha256":"1DcC7Cg2nfK891CIvQqssZCXFexMG29dzrkNnwHVl+o="},"download/cont_psa0p3.json":{"contentType":"application/json","lastModified":1593420328000,"length":70439,"url":"https://earthquake.usgs.gov/product/shakemap/usp000fa97/atlas/1600464674887/download/cont_psa0p3.json","sha256":"n1OLdGrPy7fRf90ovCWbqrvFrVBBJjB6IVGIvCVtRxs="},"download/coverage_pga_high_res.covjson":{"contentType":"application/octet-stream","lastModified":1593420328000,"length":2188941,"url":"https://earthquake.usgs.gov/product/shakemap/usp000fa97/atlas/1600464674887/download/coverage_pga_high_res.covjson","sha256":"x1MK4MU5a751Sd/qLsdIRicqPS0idm1WpNatC6ED4yY="},"download/coverage_psa0p3_low_res.covjson":{"contentType":"application/octet-stream","lastModified":1593420329000,"length":138569,"url":"https://earthquake.usgs.gov/product/shakemap/usp000fa97/atlas/1600464674887/download/coverage_psa0p3_low_res.covjson","sha256":"VUI3AvHLU2nBOXvXy563KyAv5FbheHV3L+J05cj8atM="},"download/attenuation_curves.json":{"contentType":"application/json","lastModified":1593420327000,"length":52764,"url":"https://earthquake.usgs.gov/product/shakemap/usp000fa97/atlas/1600464674887/download/attenuation_curves.json","sha256":"jIwmMzCYMbEDlbDPGrB0P81hzG79GCBoy7FBodcDa5s="},"download/intensity.jpg":{"contentType":"image/jpeg","lastModified":1593420323000,"length":386105,"url":"https://earthquake.usgs.gov/product/shakemap/usp000fa97/atlas/1600464674887/download/intensity.jpg","sha256":"T/Hc35g7qj0HlubtXjUOSHa97McJ02Fj8SCCCAV/yq0="},"download/raster.zip":{"contentType":"application/zip","lastModified":1593420330000,"length":13454756,"url":"https://earthquake.usgs.gov/product/shakemap/usp000fa97/atlas/1600464674887/download/raster.zip","sha256":"SlwJhA6SHOvsyZd2jse//U07oPLot1ENcbboIIv4zQU="},"download/pga.pdf":{"contentType":"application/pdf","lastModified":1593420323000,"length":1318642,"url":"https://earthquake.usgs.gov/product/shakemap/usp000fa97/atlas/1600464674887/download/pga.pdf","sha256":"9Pq+ivV3OB69St64cNR1gkhhxpqH49SIcCxxyIG+Oqw="},"download/pga_regr.png":{"contentType":"image/png","lastModified":1593420327000,"length":87398,"url":"https://earthquake.usgs.gov/product/shakemap/usp000fa97/atlas/1600464674887/download/pga_regr.png","sha256":"omhnPoAzvc2QY9Zehzyl2TrGQor/lQk9hKgpLmec/Go="},"download/coverage_mmi_low_res.covjson":{"contentType":"application/octet-stream","lastModified":1593420328000,"length":94297,"url":"https://earthquake.usgs.gov/product/shakemap/usp000fa97/atlas/1600464674887/download/coverage_mmi_low_res.covjson","sha256":"Y9GQc45syOJo3P7+3d6WdeX7qgWo9jQYoz88oB7OWJI="},"download/coverage_mmi_high_res.covjson":{"contentType":"application/octet-stream","lastModified":1593420328000,"length":1484509,"url":"https://earthquake.usgs.gov/product/shakemap/usp000fa97/atlas/1600464674887/download/coverage_mmi_high_res.covjson","sha256":"BAaHFM156l9gT+WvZMK4xQADlLGOg7EERk281708SK8="},"download/intensity.pdf":{"contentType":"application/pdf","lastModified":1593420323000,"length":1275171,"url":"https://earthquake.usgs.gov/product/shakemap/usp000fa97/atlas/1600464674887/download/intensity.pdf","sha256":"AvtOwNKSFK1nWxGMo7lI8HZsUR/q5tyQsJRDWPq9Tzw="},"download/mmi_regr.png":{"contentType":"image/png","lastModified":1593420327000,"length":83462,"url":"https://earthquake.usgs.gov/product/shakemap/usp000fa97/atlas/1600464674887/download/mmi_regr.png","sha256":"x19qZbTYQ9dysH3EHQlSQvGAqKDG23YDWcWvG8tenqQ="},"download/psa3p0.pdf":{"contentType":"application/pdf","lastModified":1593420324000,"length":1349678,"url":"https://earthquake.usgs.gov/product/shakemap/usp000fa97/atlas/1600464674887/download/psa3p0.pdf","sha256":"5SG//kU6hf0nUhl9cGScC+WFBOnP1GAbElf8furw+Lw="},"download/coverage_psa1p0_high_res.covjson":{"contentType":"application/octet-stream","lastModified":1593420329000,"length":2188879,"url":"https://earthquake.usgs.gov/product/shakemap/usp000fa97/atlas/1600464674887/download/coverage_psa1p0_high_res.covjson","sha256":"9mw0ZOg6UOJEBuOL/Perlr2eWiTEiyJzbaqLerh9SwY="},"download/uncertainty.xml":{"contentType":"application/xml","lastModified":1593420327000,"length":21249275,"url":"https://earthquake.usgs.gov/product/shakemap/usp000fa97/atlas/1600464674887/download/uncertainty.xml","sha256":"M9n+kExzLm8OJh+KOtq073uo85qzxwSotgqOAuKEeDs="},"download/pin-thumbnail.png":{"contentType":"image/png","lastModified":1593420323000,"length":25263,"url":"https://earthquake.usgs.gov/product/shakemap/usp000fa97/atlas/1600464674887/download/pin-thumbnail.png","sha256":"WxJVwKe8iyRM5I63gk01+HYz7IPgkQZBxgV61vcf4p4="},"download/cont_mmi.json":{"contentType":"application/json","lastModified":1593420327000,"length":45196,"url":"https://earthquake.usgs.gov/product/shakemap/usp000fa97/atlas/1600464674887/download/cont_mmi.json","sha256":"fEhCMNYNNmL55cPnSGsoVUS36SDM4z10kwmQWvIXVLE="},"download/coverage_pgv_low_res.covjson":{"contentType":"application/octet-stream","lastModified":1593420328000,"length":131980,"url":"https://earthquake.usgs.gov/product/shakemap/usp000fa97/atlas/1600464674887/download/coverage_pgv_low_res.covjson","sha256":"Snp/3VbOfJ3k3oxzdsLkGE/5mcyie1PgkPuag08Cmt4="},"download/coverage_mmi_medium_res.covjson":{"contentType":"application/octet-stream","lastModified":1593420328000,"length":373049,"url":"https://earthquake.usgs.gov/product/shakemap/usp000fa97/atlas/1600464674887/download/coverage_mmi_medium_res.covjson","sha256":"HaJSM5aT8PH3qQeOXknxs/0VSmFblKzmzOyt+0jgYeE="},"download/pgv.pdf":{"contentType":"application/pdf","lastModified":1593420323000,"length":1345751,"url":"https://earthquake.usgs.gov/product/shakemap/usp000fa97/atlas/1600464674887/download/pgv.pdf","sha256":"hXF262/aPx8EolYdC2CuzeCHgU8m7H+my0skR4geSVU="},"contents.xml":{"contentType":"application/xml","lastModified":1593420331000,"length":12125,"url":"https://earthquake.usgs.gov/product/shakemap/usp000fa97/atlas/1600464674887/contents.xml","sha256":"tgsdB3Ps1eAMOishODGO8VkOTbiVuW512mr6blHSvbA="},"download/cont_psa1p0.json":{"contentType":"application/json","lastModified":1593420328000,"length":84834,"url":"https://earthquake.usgs.gov/product/shakemap/usp000fa97/atlas/1600464674887/download/cont_psa1p0.json","sha256":"I0C3H75DtQErVBb/hIA9HSvwX1ZQaT/puES0Pnw2tbQ="},"download/cont_psa3p0.json":{"contentType":"application/json","lastModified":1593420328000,"length":80114,"url":"https://earthquake.usgs.gov/product/shakemap/usp000fa97/atlas/1600464674887/download/cont_psa3p0.json","sha256":"OUivcqV6m5eSk94hZxZPqljWZmhoq+CTDrfl2x6nwnc="},"download/psa1p0.pdf":{"contentType":"application/pdf","lastModified":1593420323000,"length":1354712,"url":"https://earthquake.usgs.gov/product/shakemap/usp000fa97/atlas/1600464674887/download/psa1p0.pdf","sha256":"dHUWwyJjl4yOrauFhZS5wKI1PnI+HDMrGT/fJTnPnEM="},"download/coverage_pgv_medium_res.covjson":{"contentType":"application/octet-stream","lastModified":1593420328000,"length":523008,"url":"https://earthquake.usgs.gov/product/shakemap/usp000fa97/atlas/1600464674887/download/coverage_pgv_medium_res.covjson","sha256":"tZw6b54CjcDE+2/Wu2h3nJdVOuIFgt+0YKtG3U7t6Z4="},"download/psa1p0_regr.png":{"contentType":"image/png","lastModified":1593420327000,"length":88631,"url":"https://earthquake.usgs.gov/product/shakemap/usp000fa97/atlas/1600464674887/download/psa1p0_regr.png","sha256":"vIfDDKi3tgxBzd6Sc5qpelQ7v7YFSLjIg1CZy2AFrTs="},"download/coverage_psa3p0_low_res.covjson":{"contentType":"application/octet-stream","lastModified":1593420329000,"length":138528,"url":"https://earthquake.usgs.gov/product/shakemap/usp000fa97/atlas/1600464674887/download/coverage_psa3p0_low_res.covjson","sha256":"sMCqtYFxvjzcf5dEm/rLHQceX07Asx410nASDf5e6OI="},"download/pga.jpg":{"contentType":"image/jpeg","lastModified":1593420323000,"length":376214,"url":"https://earthquake.usgs.gov/product/shakemap/usp000fa97/atlas/1600464674887/download/pga.jpg","sha256":"BVVEqBnFVxuEFHEEcdCfubHCrf8JpgWwddznYHgBngk="},"download/coverage_psa1p0_medium_res.covjson":{"contentType":"application/octet-stream","lastModified":1593420329000,"length":549589,"url":"https://earthquake.usgs.gov/product/shakemap/usp000fa97/atlas/1600464674887/download/coverage_psa1p0_medium_res.covjson","sha256":"W4WhLdCg50lyjiwNx+Abyhuk+Ic3IVad0eAadwHrFHM="},"download/psa0p3.jpg":{"contentType":"image/jpeg","lastModified":1593420323000,"length":392725,"url":"https://earthquake.usgs.gov/product/shakemap/usp000fa97/atlas/1600464674887/download/psa0p3.jpg","sha256":"1ublOpgOu88JfBBbFiTrunumUoKyNrYJYEFJE4liLrI="},"download/shake_result.hdf":{"contentType":"application/octet-stream","lastModified":1600464674000,"length":48263728,"url":"https://earthquake.usgs.gov/product/shakemap/usp000fa97/atlas/1600464674887/download/shake_result.hdf","sha256":"e6z2wtBlwIxt41uh079Y4gu+sV/iQa1YY6xyBklO+PY="},"download/cont_pga.json":{"contentType":"application/json","lastModified":1593420327000,"length":37010,"url":"https://earthquake.usgs.gov/product/shakemap/usp000fa97/atlas/1600464674887/download/cont_pga.json","sha256":"feaFJnfh+zasIFU12c+dsZgyxCRy10O8sqe1SnjtDZA="},"download/pgv.jpg":{"contentType":"image/jpeg","lastModified":1593420323000,"length":390940,"url":"https://earthquake.usgs.gov/product/shakemap/usp000fa97/atlas/1600464674887/download/pgv.jpg","sha256":"IQjPk2ggKm4G9HABpt+ZOGu6WRnU3L4WWOE3OBedJhA="},"download/psa1p0.jpg":{"contentType":"image/jpeg","lastModified":1593420324000,"length":398871,"url":"https://earthquake.usgs.gov/product/shakemap/usp000fa97/atlas/1600464674887/download/psa1p0.jpg","sha256":"NbgdwaGDhziBjNi6P7FYin/wendjKdB4k603NHiTagE="},"download/cont_mi.json":{"contentType":"application/json","lastModified":1593420327000,"length":45196,"url":"https://earthquake.usgs.gov/product/shakemap/usp000fa97/atlas/1600464674887/download/cont_mi.json","sha256":"fEhCMNYNNmL55cPnSGsoVUS36SDM4z10kwmQWvIXVLE="},"download/pgv_regr.png":{"contentType":"image/png","lastModified":1593420327000,"length":91268,"url":"https://earthquake.usgs.gov/product/shakemap/usp000fa97/atlas/1600464674887/download/pgv_regr.png","sha256":"MkmHZXbh2r6H9r2Fe1uoITUK3iaBoXQRkYCuAWwaXf4="},"download/intensity_overlay.pngw":{"contentType":"application/octet-stream","lastModified":1593420323000,"length":41,"url":"https://earthquake.usgs.gov/product/shakemap/usp000fa97/atlas/1600464674887/download/intensity_overlay.pngw","sha256":"qtLsqjCED5AVsP6Qwjq31wCqfPR4UeUJgi4AmGVpf30="},"download/coverage_pga_low_res.covjson":{"contentType":"application/octet-stream","lastModified":1593420328000,"length":138488,"url":"https://earthquake.usgs.gov/product/shakemap/usp000fa97/atlas/1600464674887/download/coverage_pga_low_res.covjson","sha256":"TvyGwDpC5Dzl4v2xkpt6sGl1H8smbuaWaoetMzvLX/I="},"download/coverage_pga_medium_res.covjson":{"contentType":"application/octet-stream","lastModified":1593420328000,"length":549718,"url":"https://earthquake.usgs.gov/product/shakemap/usp000fa97/atlas/1600464674887/download/coverage_pga_medium_res.covjson","sha256":"lsuXQ2yk/65uBxklQKwkIJadGoqbNHza8zXywtWczS0="},"download/grid.xml":{"contentType":"application/xml","lastModified":1593420325000,"length":22220405,"url":"https://earthquake.usgs.gov/product/shakemap/usp000fa97/atlas/1600464674887/download/grid.xml","sha256":"BRoUjQgT1x73Avj+qRghZBpXtNJBaWY3+ODEwewcUTI="},"download/coverage_psa1p0_low_res.covjson":{"contentType":"application/octet-stream","lastModified":1593420329000,"length":138437,"url":"https://earthquake.usgs.gov/product/shakemap/usp000fa97/atlas/1600464674887/download/coverage_psa1p0_low_res.covjson","sha256":"nMP6drfGU4SV3vOdX41mNXxlft1nUBAS1f/7syDTmd0="},"download/intensity_overlay.png":{"contentType":"image/png","lastModified":1593420323000,"length":192747,"url":"https://earthquake.usgs.gov/product/shakemap/usp000fa97/atlas/1600464674887/download/intensity_overlay.png","sha256":"6h2mJ9p3/TQ3s8lv1yuoWdBvXHUr7PiCTOkCHk7tykA="},"download/psa0p3_regr.png":{"contentType":"image/png","lastModified":1593420327000,"length":94022,"url":"https://earthquake.usgs.gov/product/shakemap/usp000fa97/atlas/1600464674887/download/psa0p3_regr.png","sha256":"tctXztv9qckaNxwy/V/GR86KYQI5sXVa93h4aJN7Gr8="},"download/stationlist.json":{"contentType":"application/json","lastModified":1593420327000,"length":84,"url":"https://earthquake.usgs.gov/product/shakemap/usp000fa97/atlas/1600464674887/download/stationlist.json","sha256":"oPqfAETvqPOXCGSYtFiZzka+NbLvw1Pr9KixhPYetPA="},"download/psa3p0_regr.png":{"contentType":"image/png","lastModified":1593420327000,"length":87836,"url":"https://earthquake.usgs.gov/product/shakemap/usp000fa97/atlas/1600464674887/download/psa3p0_regr.png","sha256":"BdlCVYnIZqUmS3W+tpL51nWYgPpRO3MWvl6bgXg+JeU="},"download/shakemap.kmz":{"contentType":"application/vnd.google-earth.kmz","lastModified":1593420329000,"length":484921,"url":"https://earthquake.usgs.gov/product/shakemap/usp000fa97/atlas/1600464674887/download/shakemap.kmz","sha256":"DqJ/HCCsEo+KBUk5I5tHM6OlStAkN2EB9fshKQ/DF7A="},"download/psa0p3.pdf":{"contentType":"application/pdf","lastModified":1593420323000,"length":1343321,"url":"https://earthquake.usgs.gov/product/shakemap/usp000fa97/atlas/1600464674887/download/psa0p3.pdf","sha256":"I7AByOQzKER938mQKPtlmjZqfbkUnE8HeuX+07TCAe4="},"download/coverage_psa0p3_medium_res.covjson":{"contentType":"application/octet-stream","lastModified":1593420329000,"length":549767,"url":"https://earthquake.usgs.gov/product/shakemap/usp000fa97/atlas/1600464674887/download/coverage_psa0p3_medium_res.covjson","sha256":"YeHsMp0ysS+a5+gTefod8eTIsd7F5t1ofzYeLsqbzoA="},"download/cont_pgv.json":{"contentType":"application/json","lastModified":1593420328000,"length":72604,"url":"https://earthquake.usgs.gov/product/shakemap/usp000fa97/atlas/1600464674887/download/cont_pgv.json","sha256":"+V5T+Nq5Ln8r6FRr8s9y5PITtLqEPQbjVqqIpWmubmM="},"download/shape.zip":{"contentType":"application/zip","lastModified":1593420331000,"length":16731778,"url":"https://earthquake.usgs.gov/product/shakemap/usp000fa97/atlas/1600464674887/download/shape.zip","sha256":"tuAPiws5qqMYq5UsyGVJjqJgl9EEbFpJoTLhkNZLzXA="}}},{"indexid":13739332,"indexTime":1610495004083,"id":"urn:usgs-product:atlas:shakemap:atlas20070421175346:1492076117936","type":"shakemap","code":"atlas20070421175346","source":"atlas","updateTime":1492076117936,"status":"UPDATE","properties":{"depth":"36.7","event-description":"17 km N of Puerto Aisen, Chile","event-type":"ACTUAL","eventsource":"atlas","eventsourcecode":"20070421175346","eventtime":"2007-04-21T17:53:46.000Z","latitude":"-45.2400","longitude":"-72.6700","magnitude":"6.2","map-status":"RELEASED","maximum-latitude":"-43.832000","maximum-longitude":"-70.670000","maxmmi":"5.6","minimum-latitude":"-46.648000","minimum-longitude":"-74.670000","original-signature":"MC0CFHtV+TJsLDpLwTWcSUxbPRHW8nfBAhUArLvIGcLwWTyU3425wHGbyRxjHcg=","original-signature-version":"v1","overlayHeight":"330","overlayWidth":"468","process-timestamp":"2017-03-30T03:39:57.000Z","reviewstatus":"automatic","version":"1"},"preferredWeight":281,"contents":{"download/psa10_regr.png":{"contentType":"image/png","lastModified":1490845237000,"length":12565,"url":"https://earthquake.usgs.gov/product/shakemap/atlas20070421175346/atlas/1492076117936/download/psa10_regr.png","sha256":"OSE4dV39i6AshdFVwzTrl4gvaBOJFRoXa8YUeJjlGDo="},"download/stationlist.xml":{"contentType":"application/xml","lastModified":1490845237000,"length":2135,"url":"https://earthquake.usgs.gov/product/shakemap/atlas20070421175346/atlas/1492076117936/download/stationlist.xml","sha256":"RGjfBka+Y9NgumAG3Q/iKjf1VDtfvJN0gZwFJrJjyWI="},"stationlist.html":{"contentType":"text/html","lastModified":1490845244000,"length":1698,"url":"https://earthquake.usgs.gov/product/shakemap/atlas20070421175346/atlas/1492076117936/stationlist.html","sha256":"bD2qm/S+cePFQpRuUv2BHT81Rm9tKCbxSI4CEkPHgso="},"download/tvmap_bare.jpg":{"contentType":"image/jpeg","lastModified":1490845237000,"length":203472,"url":"https://earthquake.usgs.gov/product/shakemap/atlas20070421175346/atlas/1492076117936/download/tvmap_bare.jpg","sha256":"VYtVJj/XSb++11Nn7zeI5Mt9XaOh48rlsKPqb0T8pyY="},"download/info.json":{"contentType":"application/json","lastModified":1490845237000,"length":2223,"url":"https://earthquake.usgs.gov/product/shakemap/atlas20070421175346/atlas/1492076117936/download/info.json","sha256":"VsU1QuFbydxeZLPNE1oOBvokwspUB4xrZwy5JS05Oa0="},"download/tvmap.jpg":{"contentType":"image/jpeg","lastModified":1490845237000,"length":200399,"url":"https://earthquake.usgs.gov/product/shakemap/atlas20070421175346/atlas/1492076117936/download/tvmap.jpg","sha256":"lI0W75G0YQ5c2zjIFq/A3px3EBY2siu7fky8pryrimM="},"download/psa30.jpg":{"contentType":"image/jpeg","lastModified":1490845237000,"length":137659,"url":"https://earthquake.usgs.gov/product/shakemap/atlas20070421175346/atlas/1492076117936/download/psa30.jpg","sha256":"N0LCnud7E7hKvmrfpwwotIbufoCZdFOTfaKXIvsN3Bk="},"products.html":{"contentType":"text/html","lastModified":1490845244000,"length":18521,"url":"https://earthquake.usgs.gov/product/shakemap/atlas20070421175346/atlas/1492076117936https://earthquake.usgs.gov/products.html","sha256":"VfKZ9RQvEFAprAFOZ0yLFEn7LviHz8v9bXEnAFVN+5Y="},"download/intensity.jpg":{"contentType":"image/jpeg","lastModified":1490845237000,"length":150951,"url":"https://earthquake.usgs.gov/product/shakemap/atlas20070421175346/atlas/1492076117936/download/intensity.jpg","sha256":"1gSDjf/ZmGQ/fATsxjEVNoV1XdToL+ZaCYR/nuCxeAw="},"download/raster.zip":{"contentType":"application/zip","lastModified":1490845239000,"length":613674,"url":"https://earthquake.usgs.gov/product/shakemap/atlas20070421175346/atlas/1492076117936/download/raster.zip","sha256":"P1XPnRLKn6pBSk20dDo5uE00eI6rV5kQodbbG2aWui0="},"download/overlay.kmz":{"contentType":"application/vnd.google-earth.kmz","lastModified":1490845237000,"length":136810,"url":"https://earthquake.usgs.gov/product/shakemap/atlas20070421175346/atlas/1492076117936/download/overlay.kmz","sha256":"u3NyR6+0YGwTfkwC9+19R7n6L7oJbirA5XJCX0n76Fw="},"download/psa03_regr.png":{"contentType":"image/png","lastModified":1490845237000,"length":13299,"url":"https://earthquake.usgs.gov/product/shakemap/atlas20070421175346/atlas/1492076117936/download/psa03_regr.png","sha256":"J2acqidfK2eu5qZ8kxh8PZLB70ZGld2XlEKdrPPXqq8="},"psa03.html":{"contentType":"text/html","lastModified":1490845244000,"length":6443,"url":"https://earthquake.usgs.gov/product/shakemap/atlas20070421175346/atlas/1492076117936/psa03.html","sha256":"OvyAoKAFEgO6Mx5evNKOLoIyfdvjZmSQvkKG++rWWqo="},"download/pga_regr.png":{"contentType":"image/png","lastModified":1490845237000,"length":12811,"url":"https://earthquake.usgs.gov/product/shakemap/atlas20070421175346/atlas/1492076117936/download/pga_regr.png","sha256":"gEUcHSnAb7PJ2KCDz9z3v5qBQOf45WTHVlTK/wih+/E="},"intensity.html":{"contentType":"text/html","lastModified":1490845244000,"length":5484,"url":"https://earthquake.usgs.gov/product/shakemap/atlas20070421175346/atlas/1492076117936/intensity.html","sha256":"cSZUajBM4vOQ96bBDi2lbl1o7GMNqKT872D0MvQXRXY="},"pga.html":{"contentType":"text/html","lastModified":1490845244000,"length":5276,"url":"https://earthquake.usgs.gov/product/shakemap/atlas20070421175346/atlas/1492076117936/pga.html","sha256":"oHz4B+i3kEsWe5lY+DjYSlv/c/S5RJLEl37L1jOZovc="},"psa30.html":{"contentType":"text/html","lastModified":1490845244000,"length":6442,"url":"https://earthquake.usgs.gov/product/shakemap/atlas20070421175346/atlas/1492076117936/psa30.html","sha256":"PrkDk5e8b+EWD0OUcTa6XMn7E3dfYHmE2VTsnyOHzfo="},"download/psa03.jpg":{"contentType":"image/jpeg","lastModified":1490845237000,"length":137639,"url":"https://earthquake.usgs.gov/product/shakemap/atlas20070421175346/atlas/1492076117936/download/psa03.jpg","sha256":"OYx6Pyy0HIiwdb6hqHhQcJE81b++DFkIkyqi5bSu6aE="},"download/uncertainty.xml.zip":{"contentType":"application/zip","lastModified":1491866598000,"length":61497,"url":"https://earthquake.usgs.gov/product/shakemap/atlas20070421175346/atlas/1492076117936/download/uncertainty.xml.zip","sha256":"2O5Pp7sT9pMEFWEcU+PBGByTMDAqOougq5/e6TPubCI="},"download/polygons_mi.kmz":{"contentType":"application/vnd.google-earth.kmz","lastModified":1490845237000,"length":31085,"url":"https://earthquake.usgs.gov/product/shakemap/atlas20070421175346/atlas/1492076117936/download/polygons_mi.kmz","sha256":"VaXwwNaMTDrYgqYUHwdmWOA1KOe119IfQWF1iDw/+a4="},"about_formats.html":{"contentType":"text/html","lastModified":1490845244000,"length":28824,"url":"https://earthquake.usgs.gov/product/shakemap/atlas20070421175346/atlas/1492076117936/about_formats.html","sha256":"kb6cKd3qa6zGRXeGLqWXSVgXx8oTWOlmCewdhCVOg04="},"download/stationlist.txt":{"contentType":"text/plain","lastModified":1490845244000,"length":519,"url":"https://earthquake.usgs.gov/product/shakemap/atlas20070421175346/atlas/1492076117936/download/stationlist.txt","sha256":"EJ614Q9xmziup9dAiMdaL7FV6oUniejdgo1GASEXecI="},"download/tvguide.txt":{"contentType":"text/plain","lastModified":1490845237000,"length":8779,"url":"https://earthquake.usgs.gov/product/shakemap/atlas20070421175346/atlas/1492076117936/download/tvguide.txt","sha256":"VY9CK+VOcI00fx1uOz3Z4XQOTdxMO4EQDR6HegcHxA8="},"download/cont_psa30.kmz":{"contentType":"application/vnd.google-earth.kmz","lastModified":1490845237000,"length":10917,"url":"https://earthquake.usgs.gov/product/shakemap/atlas20070421175346/atlas/1492076117936/download/cont_psa30.kmz","sha256":"adjVOatD2tZN+BeYtlFqIdE/VlmjtkoMAkEhyNKIO6c="},"download/cont_pga.kmz":{"contentType":"application/vnd.google-earth.kmz","lastModified":1490845237000,"length":13845,"url":"https://earthquake.usgs.gov/product/shakemap/atlas20070421175346/atlas/1492076117936/download/cont_pga.kmz","sha256":"YOM8REo67GAemtfPWo2DRwQqHSZdmZlnt8OmhoYAQy0="},"download/uncertainty.xml":{"contentType":"application/xml","lastModified":1490845237000,"length":1928576,"url":"https://earthquake.usgs.gov/product/shakemap/atlas20070421175346/atlas/1492076117936/download/uncertainty.xml","sha256":"xBe6u56INyK63GDhL9gl2bFbt0pm0Zj7hUtau/NDfks="},"download/cont_mi.kmz":{"contentType":"application/vnd.google-earth.kmz","lastModified":1490845237000,"length":8490,"url":"https://earthquake.usgs.gov/product/shakemap/atlas20070421175346/atlas/1492076117936/download/cont_mi.kmz","sha256":"QFWDEp9Kpu+FtXtsfTAMrGeFVSrPM9i0kP8vM8Hr9Zg="},"download/sd.jpg":{"contentType":"image/jpeg","lastModified":1490845237000,"length":91488,"url":"https://earthquake.usgs.gov/product/shakemap/atlas20070421175346/atlas/1492076117936/download/sd.jpg","sha256":"VCqbV89bsICABPL3ZB5jfaqqToTBhjEW47U7DkiET4U="},"download/cont_psa03.json":{"contentType":"application/json","lastModified":1490845237000,"length":62885,"url":"https://earthquake.usgs.gov/product/shakemap/atlas20070421175346/atlas/1492076117936/download/cont_psa03.json","sha256":"XGdcFNXeTPPD9HWzeFpYKCQA6ai0L4cizqKkBHYXaYM="},"download/ii_overlay.png":{"contentType":"image/png","lastModified":1490845237000,"length":136831,"url":"https://earthquake.usgs.gov/product/shakemap/atlas20070421175346/atlas/1492076117936/download/ii_overlay.png","sha256":"q2iqvqpZAbwLw6dFyi2/7HPO+8Cu9CRI7A15wOD8vtM="},"contents.xml":{"contentType":"application/xml","lastModified":1490845247000,"length":7271,"url":"https://earthquake.usgs.gov/product/shakemap/atlas20070421175346/atlas/1492076117936/contents.xml","sha256":"/doQDU4I/Fa72NfToyuk5oPZmKvrplv6IwI0U8Qi9dE="},"download/hazus.zip":{"contentType":"application/zip","lastModified":1490845237000,"length":466818,"url":"https://earthquake.usgs.gov/product/shakemap/atlas20070421175346/atlas/1492076117936/download/hazus.zip","sha256":"apG+by6uCOrlSC6SzqB1b22v2IlwPn2M2M4sPY+46EE="},"download/psa30_regr.png":{"contentType":"image/png","lastModified":1490845237000,"length":12565,"url":"https://earthquake.usgs.gov/product/shakemap/atlas20070421175346/atlas/1492076117936/download/psa30_regr.png","sha256":"9vpqQUoLqwOToN+jZnV9S8b4amq2/0gSOx8UbeWRy+c="},"download/urat_pga.jpg":{"contentType":"image/jpeg","lastModified":1490845237000,"length":91488,"url":"https://earthquake.usgs.gov/product/shakemap/atlas20070421175346/atlas/1492076117936/download/urat_pga.jpg","sha256":"VCqbV89bsICABPL3ZB5jfaqqToTBhjEW47U7DkiET4U="},"download/mi_regr.png":{"contentType":"image/png","lastModified":1490845237000,"length":12356,"url":"https://earthquake.usgs.gov/product/shakemap/atlas20070421175346/atlas/1492076117936/download/mi_regr.png","sha256":"ZxLNRMlnR7kxIv8Zk7ssPuhSHId6JImiDRRJ2kj0Rrc="},"download/pga.jpg":{"contentType":"image/jpeg","lastModified":1490845237000,"length":138637,"url":"https://earthquake.usgs.gov/product/shakemap/atlas20070421175346/atlas/1492076117936/download/pga.jpg","sha256":"vieT4wkR9jNJSHA5JrDfjhsIVAno336kAE02Gp/X6dg="},"download/cont_psa10.json":{"contentType":"application/json","lastModified":1490845237000,"length":52159,"url":"https://earthquake.usgs.gov/product/shakemap/atlas20070421175346/atlas/1492076117936/download/cont_psa10.json","sha256":"T0dlblfBdi1/x67XuWx+1vuQKHxkDS4WmXhl8ITtcNI="},"download/cont_psa10.kmz":{"contentType":"application/vnd.google-earth.kmz","lastModified":1490845237000,"length":12177,"url":"https://earthquake.usgs.gov/product/shakemap/atlas20070421175346/atlas/1492076117936/download/cont_psa10.kmz","sha256":"E7W2ZpsHG10iSUmPPipPAdLP9AeOzDWEe2cKxTXSwBk="},"download/epicenter.kmz":{"contentType":"application/vnd.google-earth.kmz","lastModified":1490845237000,"length":1287,"url":"https://earthquake.usgs.gov/product/shakemap/atlas20070421175346/atlas/1492076117936/download/epicenter.kmz","sha256":"azL51J2ZwJlNIq8THav+oHdhOXSuNnwoCij9yivec1Q="},"download/cont_pga.json":{"contentType":"application/json","lastModified":1490845237000,"length":59300,"url":"https://earthquake.usgs.gov/product/shakemap/atlas20070421175346/atlas/1492076117936/download/cont_pga.json","sha256":"AVPTl815iu3n9KVKVVynybQ/dCUgFaoC26FhbRByVUM="},"download/event.txt":{"contentType":"text/plain","lastModified":1490845237000,"length":126,"url":"https://earthquake.usgs.gov/product/shakemap/atlas20070421175346/atlas/1492076117936/download/event.txt","sha256":"WqIYOdJzCGS2RbbkpVQukC2Sik3MJIBAbitxx1jDcXw="},"download/pgv.jpg":{"contentType":"image/jpeg","lastModified":1490845237000,"length":137422,"url":"https://earthquake.usgs.gov/product/shakemap/atlas20070421175346/atlas/1492076117936/download/pgv.jpg","sha256":"bmHMUpqsxlZOdpUOZLc3jS8E8vbcyo2voYz5/Hn77FI="},"pgv.html":{"contentType":"text/html","lastModified":1490845244000,"length":5276,"url":"https://earthquake.usgs.gov/product/shakemap/atlas20070421175346/atlas/1492076117936/pgv.html","sha256":"LzI+viF3tYzmFKfPQcjpy9YBWDZqGyu9b18ZU3jyLJQ="},"download/psa10.jpg":{"contentType":"image/jpeg","lastModified":1490845237000,"length":137203,"url":"https://earthquake.usgs.gov/product/shakemap/atlas20070421175346/atlas/1492076117936/download/psa10.jpg","sha256":"QkhMcCagvO6X8kzpuV9SsmBUZ6mP1+W3WRrUh47pf5Y="},"download/cont_mi.json":{"contentType":"application/json","lastModified":1490845237000,"length":33110,"url":"https://earthquake.usgs.gov/product/shakemap/atlas20070421175346/atlas/1492076117936/download/cont_mi.json","sha256":"mFHUYoVTG1yjwG/pLMPZ+xy+GGFQo+AeI1T3gNTQ0/g="},"download/pgv_regr.png":{"contentType":"image/png","lastModified":1490845237000,"length":12470,"url":"https://earthquake.usgs.gov/product/shakemap/atlas20070421175346/atlas/1492076117936/download/pgv_regr.png","sha256":"Z4G4vFYI258zlJg+eJfyc4ZYXtayC3uZgkFePQr4QvU="},"origin_quakeml.xml":{"contentType":"application/xml","lastModified":1492076117000,"length":1476,"url":"https://earthquake.usgs.gov/product/shakemap/atlas20070421175346/atlas/1492076117936/origin_quakeml.xml","sha256":"X7aT/wQHUk4yy/nnYjEXLZUTurv5svhLy/c/uw4rWI8="},"download/grid.xml":{"contentType":"application/xml","lastModified":1490845237000,"length":1130366,"url":"https://earthquake.usgs.gov/product/shakemap/atlas20070421175346/atlas/1492076117936/download/grid.xml","sha256":"uiWLlZVwFZoUD+pv7XOLNMRlHxAt4YSMBlNUe4+1sgc="},"download/metadata.txt":{"contentType":"text/plain","lastModified":1490845237000,"length":33095,"url":"https://earthquake.usgs.gov/product/shakemap/atlas20070421175346/atlas/1492076117936/download/metadata.txt","sha256":"PXFYgT2aS8Tj/B3/NqkftDg89OZG4SoiHCc36HCleT0="},"download/stationlist.json":{"contentType":"application/json","lastModified":1490845244000,"length":42,"url":"https://earthquake.usgs.gov/product/shakemap/atlas20070421175346/atlas/1492076117936/download/stationlist.json","sha256":"7XeMc+pRM41ldvtZkrGJ8rlNnz1eGZ9Gwa9SDWsLPmw="},"download/cont_psa30.json":{"contentType":"application/json","lastModified":1490845237000,"length":45983,"url":"https://earthquake.usgs.gov/product/shakemap/atlas20070421175346/atlas/1492076117936/download/cont_psa30.json","sha256":"Ynr7/Ecib1KtI4dNjuzRV1bhM3J9Wcj8SChBKuCmdD0="},"download/20070421175346.kmz":{"contentType":"application/vnd.google-earth.kmz","lastModified":1490845237000,"length":254508,"url":"https://earthquake.usgs.gov/product/shakemap/atlas20070421175346/atlas/1492076117936/download/20070421175346.kmz","sha256":"FZ8cm/Wa/g1m4j9jTidnHl8HmCc8MJYPbfmWZl+x6D8="},"download/rock_grid.xml":{"contentType":"application/xml","lastModified":1490845237000,"length":870909,"url":"https://earthquake.usgs.gov/product/shakemap/atlas20070421175346/atlas/1492076117936/download/rock_grid.xml","sha256":"h1ZX4b2nV6DRNfwJ/uZ+x/RDirVa0jIxBR/A5Z5ZDUE="},"download/cont_psa03.kmz":{"contentType":"application/vnd.google-earth.kmz","lastModified":1490845237000,"length":14297,"url":"https://earthquake.usgs.gov/product/shakemap/atlas20070421175346/atlas/1492076117936/download/cont_psa03.kmz","sha256":"0eb+dlZ5+PVI0ZJOtXqkANA56a/cS1MQjBr91FXR7ww="},"psa10.html":{"contentType":"text/html","lastModified":1490845244000,"length":6442,"url":"https://earthquake.usgs.gov/product/shakemap/atlas20070421175346/atlas/1492076117936/psa10.html","sha256":"qU7SyUR4vRefGH2fuJaPNBt5RXMc89gqDH1j5ytNcxE="},"download/cont_pgv.json":{"contentType":"application/json","lastModified":1490845237000,"length":44814,"url":"https://earthquake.usgs.gov/product/shakemap/atlas20070421175346/atlas/1492076117936/download/cont_pgv.json","sha256":"RpRsrXKK44fSXqnWrtaP8xysNF/UzEw9Z+toM37bdFo="},"download/cont_pgv.kmz":{"contentType":"application/vnd.google-earth.kmz","lastModified":1490845237000,"length":10575,"url":"https://earthquake.usgs.gov/product/shakemap/atlas20070421175346/atlas/1492076117936/download/cont_pgv.kmz","sha256":"4M0WWZBQKzeC8+VV0zE6f//9hEer8/3Na1AOesNpvkQ="},"download/shape.zip":{"contentType":"application/zip","lastModified":1490845237000,"length":1394864,"url":"https://earthquake.usgs.gov/product/shakemap/atlas20070421175346/atlas/1492076117936/download/shape.zip","sha256":"pl0NI2XsPIre7hygxpArbB7E3QdrGQp1eyf93uC7fMo="},"download/20070421175346.kml":{"contentType":"application/vnd.google-earth.kml+xml","lastModified":1490845237000,"length":1034,"url":"https://earthquake.usgs.gov/product/shakemap/atlas20070421175346/atlas/1492076117936/download/20070421175346.kml","sha256":"FRDy0njbANbkrOgpd+vS7Fbq22aR8HNrjpew7bgMFSc="},"download/ii_thumbnail.jpg":{"contentType":"image/jpeg","lastModified":1490845237000,"length":4397,"url":"https://earthquake.usgs.gov/product/shakemap/atlas20070421175346/atlas/1492076117936/download/ii_thumbnail.jpg","sha256":"gFoYj5LAknpBreyhSlT7jUySH/5+0RwSKD+wR0oo6Pk="}}}],"trump-shakemap":[{"indexid":13797850,"indexTime":1610508953359,"id":"urn:usgs-product:atlas:trump-shakemap:usp000fa97:1587168568662","type":"trump-shakemap","code":"usp000fa97","source":"atlas","updateTime":1587168568662,"status":"UPDATE","properties":{"eventsource":"us","eventsourcecode":"p000fa97","original-signature":"MC0CFHDiA37S8bJwHnDrxvKbHJ8ANsZoAhUAseQjSxnVmLsjl7f5BEqfIrka1p0=","original-signature-version":"v1","pdl-client-version":"Version 2.3.0 2020-04-04","trump-code":"usp000fa97","trump-source":"atlas"},"preferredWeight":1,"contents":[]}]}},"geometry":{"type":"Point","coordinates":[-72.648,-45.243,36.7]},"id":"usp000fa97"}